{
"type": "FeatureCollection",
"name": "Bassin_AOI",
"crs": { "type": "name", "properties": { "name": "urn:ogc:def:crs:EPSG::32631" } },
"features": [
{ "type": "Feature", "properties": { }, "geometry": { "type": "Polygon", "coordinates": [ [ [ 474734.845288849959616, 5413801.133442735299468 ], [ 474724.814839337253943, 5413802.705048378556967 ], [ 474730.323049184400588, 5413806.080993127077818 ], [ 475041.345662710780744, 5413967.88675675727427 ], [ 475096.180412856861949, 5413993.871565727517009 ], [ 475101.192479550780263, 5413995.583801427856088 ], [ 475101.6104306888883, 5413995.705041168257594 ], [ 475102.03545444062911, 5413995.798513299785554 ], [ 475103.848954326007515, 5413996.192945081740618 ], [ 475103.851458986813668, 5413996.193474086001515 ], [ 475103.853993913973682, 5413996.193830896168947 ], [ 475103.856547283998225, 5413996.194013849832118 ], [ 475103.859107186843175, 5413996.194022095762193 ], [ 475103.86166168237105, 5413996.193855591118336 ], [ 475103.864198855357245, 5413996.193515116348863 ], [ 475103.866706871835049, 5413996.193002258427441 ], [ 475103.869174033461604, 5413996.192319407127798 ], [ 475103.871588832524139, 5413996.191469751298428 ], [ 475105.871164921903983, 5413995.363980862312019 ], [ 475106.264507803251036, 5413995.177799218334258 ], [ 475108.157445310265757, 5413994.170128672383726 ], [ 475108.159639266668819, 5413994.168806916102767 ], [ 475108.161737888411153, 5413994.167338490486145 ], [ 475108.163731386710424, 5413994.165730243548751 ], [ 475108.165610463125631, 5413994.163989680819213 ], [ 475108.16736635309644, 5413994.162124919705093 ], [ 475109.928293831762858, 5413992.208434320986271 ], [ 475110.481043301522732, 5413991.552789654582739 ], [ 475110.993907474679872, 5413990.865496238693595 ], [ 475113.662187315523624, 5413986.974907289259136 ], [ 475113.663520772650372, 5413986.972721669822931 ], [ 475115.811597401567269, 5413983.245538796298206 ], [ 475145.235086258908268, 5413929.096105835400522 ], [ 475145.236210104660131, 5413929.093805520795286 ], [ 475145.237174318754114, 5413929.091433865949512 ], [ 475147.341022255306598, 5413922.999981901608407 ], [ 475147.341833771090023, 5413922.997555298730731 ], [ 475147.342477763828356, 5413922.995078965090215 ], [ 475147.342951229657046, 5413922.992564448155463 ], [ 475147.34325196017744, 5413922.990023482590914 ], [ 475147.343378552759532, 5413922.987467912957072 ], [ 475147.343330416711979, 5413922.984909664839506 ], [ 475147.093519321642816, 5413916.92705004196614 ], [ 475147.093382480205037, 5413916.924493086524308 ], [ 475147.093071430164855, 5413916.921951434575021 ], [ 475147.092587622173596, 5413916.919436941854656 ], [ 475147.091933312884066, 5413916.916961336508393 ], [ 475150.524596404400654, 5413845.575103585608304 ], [ 475150.277546928497031, 5413838.402199529111385 ], [ 475150.473741863039322, 5413834.162140644155443 ], [ 475150.473518011858687, 5413834.161680116318166 ], [ 475150.473263248975854, 5413834.161235945299268 ], [ 475150.472978762700222, 5413834.160810196772218 ], [ 475150.472665880050045, 5413834.160404861904681 ], [ 475150.472326060349587, 5413834.16002182662487 ], [ 475150.471960888826288, 5413834.159662880934775 ], [ 475150.471572068636306, 5413834.159329696558416 ], [ 475150.4711614131229, 5413834.159023826010525 ], [ 475151.605842604592908, 5413830.787487988360226 ], [ 475103.636821458814666, 5413826.413124931044877 ], [ 474969.926800957764499, 5413808.210932056419551 ], [ 474734.845288849959616, 5413801.133442735299468 ] ] ] } }
]
}
