{
"type": "FeatureCollection",
"crs": { "type": "name", "properties": { "name": "urn:ogc:def:crs:EPSG::32654" } },
"features": [
{ "type": "Feature", "properties": { "level_0": 0, "level_1": 0 }, "geometry": { "type": "Polygon", "coordinates": [ [ [ 440917.484759991406463, 3952479.351387187838554 ], [ 440917.541935347835533, 3952501.534319914877415 ], [ 440917.32775348960422, 3952523.7190593467094 ], [ 440916.661311312869657, 3952545.9068095353432 ], [ 440915.723516895843204, 3952568.096366592682898 ], [ 440914.423920154105872, 3952590.288332662545145 ], [ 440912.761785565118771, 3952612.371796266641468 ], [ 440910.738592275185511, 3952634.56858098320663 ], [ 440908.442579635768197, 3952656.545349963009357 ], [ 440905.695062021375634, 3952678.636042736470699 ], [ 440902.675468149944209, 3952700.617632069159299 ], [ 440899.294087553978898, 3952722.601632146164775 ], [ 440895.550184443825856, 3952744.477131719235331 ], [ 440891.534211655904073, 3952766.243528980296105 ], [ 440887.066009397036396, 3952788.012940688990057 ], [ 440882.326480755407829, 3952809.784162793308496 ], [ 440877.223700602771714, 3952831.33597476920113 ], [ 440871.759148751792964, 3952852.890200685244054 ], [ 440866.022538185410667, 3952874.335326962172985 ], [ 440859.923421610088553, 3952895.671956764534116 ], [ 440853.46180139266653, 3952916.900090858340263 ], [ 440846.728128437884152, 3952938.01912729209289 ], [ 440839.542246899800375, 3952959.141184112522751 ], [ 440832.174025798158254, 3952980.04263021517545 ], [ 440824.352861410705373, 3953000.836186793167144 ], [ 440816.259652070526499, 3953021.520648890174925 ], [ 440807.89439933974063, 3953042.096017261501402 ], [ 440799.165917691076174, 3953062.451984198763967 ], [ 440790.074948789202608, 3953082.699462538585067 ], [ 440780.711941657762509, 3953102.837849948555231 ], [ 440771.076897769409698, 3953122.867147300858051 ], [ 440760.988185291411355, 3953142.677651050966233 ], [ 440750.717885774734896, 3953162.378463205415756 ], [ 440740.084367267729249, 3953181.859880383126438 ], [ 440729.178077223652508, 3953201.121299889404327 ], [ 440717.909311643103138, 3953220.27423863299191 ], [ 440706.458963473327458, 3953239.317489534150809 ], [ 440694.645401636254974, 3953258.141350215300918 ], [ 440682.468627499416471, 3953276.745822125580162 ], [ 440670.109532307484187, 3953295.129697532393038 ], [ 440657.387968258990441, 3953313.405098479706794 ], [ 440644.392898144782521, 3953331.349598033353686 ], [ 440631.125805963645689, 3953349.185021005570889 ], [ 440617.58595071680611, 3953366.800456800498068 ], [ 440603.773332967539318, 3953384.19590666051954 ], [ 440589.687953226733953, 3953401.371371844783425 ], [ 440575.329069327097386, 3953418.215941812377423 ], [ 440560.698166816495359, 3953434.951441538985819 ], [ 440545.884947011945769, 3953451.466354633681476 ], [ 440530.708523329172749, 3953467.761894103139639 ], [ 440515.349039286142215, 3953483.725937526673079 ], [ 440499.716794793552253, 3953499.470004048664123 ], [ 440483.811790074571036, 3953514.994095099624246 ], [ 440467.724467921478208, 3953530.297605426516384 ], [ 440451.363641351985279, 3953545.270231015980244 ], [ 440434.730054287821986, 3953560.022885217797011 ], [ 440417.914148944721092, 3953574.554962334223092 ], [ 440400.824738037772477, 3953588.75615890417248 ], [ 440383.553007854614407, 3953602.736780781298876 ], [ 440366.098212609824259, 3953616.385917131323367 ], [ 440348.370655065227766, 3953629.815088818781078 ], [ 440330.460030789370649, 3953642.912777455989271 ], [ 440312.367084517201874, 3953655.789896010421216 ], [ 440294.091069417656399, 3953668.335533678065985 ], [ 440275.541543071973138, 3953680.55030024331063 ], [ 440256.809692131704651, 3953692.544500415679067 ], [ 440237.985209814156406, 3953704.206614349037409 ], [ 440218.887212840665597, 3953715.537861129734665 ], [ 440199.606888104754034, 3953726.648544937837869 ], [ 440180.233927670749836, 3953737.427145360037684 ], [ 440160.67788923351327, 3953747.874272828456014 ], [ 440140.939519355481025, 3953758.100840441416949 ], [ 440121.017320320766885, 3953767.885025543160737 ], [ 440100.91278703417629, 3953777.448653180617839 ], [ 440080.715609653503634, 3953786.680201952811331 ], [ 440060.425786160340067, 3953795.579672452062368 ], [ 440039.952874652284663, 3953804.147676379885525 ], [ 440019.296873316867277, 3953812.384214967489243 ], [ 439998.548969955183566, 3953820.399589873850346 ], [ 439977.707662807311863, 3953827.971977824345231 ], [ 439956.773699419863988, 3953835.212291375733912 ], [ 439935.657388897438068, 3953842.232055269181728 ], [ 439914.447667456639465, 3953848.808834483847022 ], [ 439893.145283361373004, 3953855.053541596978903 ], [ 439871.750985940801911, 3953861.07708920026198 ], [ 439850.263270111812744, 3953866.657654005102813 ], [ 439828.682884894835297, 3953871.906148605048656 ], [ 439807.100267149857245, 3953876.821960155852139 ], [ 439785.334536218666472, 3953881.40631604893133 ], [ 439763.566568048263434, 3953885.657989731058478 ], [ 439741.705921144632157, 3953889.57759533636272 ], [ 439719.752593148325104, 3953893.165133512578905 ], [ 439697.797020656638779, 3953896.419990308582783 ], [ 439675.748008237627801, 3953899.23186855064705 ], [ 439653.696745861205272, 3953901.711065815296024 ], [ 439631.643985600909218, 3953903.968494073022157 ], [ 439609.497777243785094, 3953905.782944836188108 ], [ 439587.349311493744608, 3953907.264715020079166 ], [ 439565.108146992861293, 3953908.414420560002327 ], [ 439542.95515898236772, 3953909.23082975205034 ], [ 439520.799150145263411, 3953909.603646315168589 ], [ 439498.55043452384416, 3953909.644398859236389 ], [ 439476.390643841936253, 3953909.462766325566918 ], [ 439454.137385143432766, 3953908.838158197235316 ], [ 439431.97228990244912, 3953907.880252506583929 ], [ 439409.804916758846957, 3953906.589666101615876 ], [ 439387.635263228788972, 3953904.966398969758302 ], [ 439365.553007874230389, 3953902.898921097163111 ], [ 439343.469224813394248, 3953900.609674027655274 ], [ 439321.472834521613549, 3953897.876215289812535 ], [ 439299.474153468851, 3953894.810074872337282 ], [ 439277.47317919426132, 3953891.411252764519304 ], [ 439255.560348339611664, 3953887.679129844531417 ], [ 439233.735658578167204, 3953883.613705433439463 ], [ 439211.999107590294443, 3953879.214978856034577 ], [ 439190.350693093379959, 3953874.482949442695826 ], [ 439168.699973493115976, 3953869.418236514087766 ], [ 439147.227064509352203, 3953863.908687621355057 ], [ 439125.752606162219308, 3953858.177366340532899 ], [ 439104.36627520818729, 3953852.112739999312907 ], [ 439083.157747618271969, 3953845.603275060653687 ], [ 439062.038104332692456, 3953838.871415339410305 ], [ 439041.005820141930599, 3953831.695336147211492 ], [ 439020.062416506698355, 3953824.296860882546753 ], [ 438999.207129666698165, 3953816.565076882019639 ], [ 438978.530397492169868, 3953808.499361584894359 ], [ 438958.031455232820008, 3953799.988801705650985 ], [ 438937.621386651648208, 3953791.255842378828675 ], [ 438917.299427046964411, 3953782.189570961520076 ], [ 438897.156778479286004, 3953772.900276108179241 ], [ 438877.191912128706463, 3953763.166132546961308 ], [ 438857.406354044447653, 3953753.208963114302605 ], [ 438837.708133844309486, 3953742.807565906550735 ], [ 438818.189983754360583, 3953732.294052852783352 ], [ 438798.94004980858881, 3953721.335062957834452 ], [ 438779.778213353536557, 3953710.042754361405969 ], [ 438760.705238010908943, 3953698.528038507327437 ], [ 438741.992446437245235, 3953686.789041865151376 ], [ 438723.366982916137204, 3953674.605811637360603 ], [ 438704.920818732818589, 3953662.199546614196151 ], [ 438686.744394921639469, 3953649.569620805326849 ], [ 438668.656061277491972, 3953636.606370657216758 ], [ 438650.927141882595606, 3953623.307919913902879 ], [ 438633.287077289773151, 3953609.787054693326354 ], [ 438615.915983789600432, 3953595.931611269246787 ], [ 438598.724185817060061, 3953581.853125847876072 ], [ 438581.802125454880297, 3953567.550971466582268 ], [ 438565.058592359710019, 3953552.914860679302365 ], [ 438548.584796378272586, 3953538.055078233592212 ], [ 438532.379969476896804, 3953522.860710626002401 ], [ 438516.354436587251257, 3953507.44329500477761 ], [ 438500.599409332498908, 3953491.913115668110549 ], [ 438485.022138815606013, 3953475.9380620745942 ], [ 438469.805817821761593, 3953459.849615203216672 ], [ 438454.768791135051288, 3953443.538115634582937 ], [ 438440.000733241788112, 3953426.892023109830916 ], [ 438425.502413584967144, 3953410.02224831096828 ], [ 438411.274602349032648, 3953393.039701939094812 ], [ 438397.406205335224513, 3953375.721930930390954 ], [ 438383.717873932735529, 3953358.292013471480459 ], [ 438370.298513168236241, 3953340.527496696449816 ], [ 438357.149663905613124, 3953322.650203400291502 ], [ 438344.361002003657632, 3953304.548592094797641 ], [ 438331.751638024987187, 3953286.223918142262846 ], [ 438319.502463308745064, 3953267.674923666752875 ], [ 438307.523804440512322, 3953249.013147880788893 ], [ 438295.814891628688201, 3953230.12767773354426 ], [ 438284.466171916283201, 3953211.017883272375911 ], [ 438273.38797185063595, 3953191.795304155908525 ], [ 438262.579521321982611, 3953172.34902742318809 ], [ 438252.132039702730253, 3953152.78933485923335 ], [ 438241.954310345114209, 3953133.005942589137703 ], [ 438232.137553348497022, 3953113.109132254030555 ], [ 438222.591323454864323, 3953093.099532221443951 ], [ 438213.405297657474875, 3953072.865600065328181 ], [ 438204.489802191033959, 3953052.518876376561821 ], [ 438195.935286604217254, 3953032.058730581309646 ], [ 438187.651304910134058, 3953011.485791546758264 ], [ 438179.727534644654952, 3952990.68851664243266 ], [ 438172.075074305874296, 3952969.889358875807375 ], [ 438164.782829346775543, 3952948.865863579325378 ], [ 438157.852347302541602, 3952927.839853801764548 ], [ 438151.282085129409097, 3952906.58950484637171 ], [ 438144.983141262782738, 3952885.337270129937679 ], [ 438139.044421456579585, 3952863.860694882459939 ], [ 438133.46747396432329, 3952842.381602296140045 ], [ 438128.161851280136034, 3952820.900622175540775 ], [ 438123.216459478833713, 3952799.195299710147083 ], [ 438118.632847254630178, 3952777.487458194140345 ], [ 438114.410244036873337, 3952755.666185182984918 ], [ 438110.458974598965142, 3952733.843022745102644 ], [ 438106.959170150512364, 3952711.905797321815044 ], [ 438103.730704316636547, 3952689.966681706253439 ], [ 438100.863257444289047, 3952667.914133016485721 ], [ 438098.267153613036498, 3952645.859693585895002 ], [ 438096.123299164813943, 3952623.802101690787822 ], [ 438094.250019264349248, 3952601.631706694606692 ], [ 438092.82899457635358, 3952579.458158790133893 ], [ 438091.679322817653883, 3952557.28271938348189 ], [ 438090.891459082486108, 3952535.104757601395249 ], [ 438090.465406090836041, 3952512.924273384734988 ], [ 438090.401166550815105, 3952490.74126672046259 ], [ 438090.607515983749181, 3952468.445456545334309 ], [ 438091.266911272017751, 3952446.257405105512589 ], [ 438092.197673964954447, 3952424.067462196573615 ], [ 438093.491033908561803, 3952401.985909042879939 ], [ 438095.145446990791243, 3952379.790922113228589 ], [ 438097.16246268642135, 3952357.704325366765261 ], [ 438099.450855198898353, 3952335.615837902761996 ], [ 438102.191537190577947, 3952313.524198658298701 ], [ 438105.204374166612979, 3952291.541581172961742 ], [ 438108.579823779466096, 3952269.66735515743494 ], [ 438112.317115419311449, 3952247.790609214920551 ], [ 438116.416251766262576, 3952225.911343838088214 ], [ 438120.787552054971457, 3952204.141101834829897 ], [ 438125.611931403924245, 3952182.478622837923467 ], [ 438130.707706300774589, 3952160.814256468322128 ], [ 438136.166881417564582, 3952139.369196573738009 ], [ 438141.897456171340309, 3952117.922250423114747 ], [ 438147.990662692347541, 3952096.583700228482485 ], [ 438154.445730772276875, 3952075.242634950205684 ], [ 438161.264207943109795, 3952054.120879016350955 ], [ 438168.354865697096102, 3952033.108151406981051 ], [ 438175.717705665389076, 3952012.204452787060291 ], [ 438183.533646646654233, 3951991.40852429671213 ], [ 438191.62177389342105, 3951970.72162653459236 ], [ 438200.07254798169015, 3951950.143130654934794 ], [ 438208.796283698931802, 3951929.784579001367092 ], [ 438217.791438784392085, 3951909.424148824997246 ], [ 438227.241249130864162, 3951889.39331765146926 ], [ 438236.8720227900194, 3951869.361239274498075 ], [ 438246.866223717806861, 3951849.548479597084224 ], [ 438257.223082336247899, 3951829.844128096941859 ], [ 438267.852911275054794, 3951810.359726697672158 ], [ 438278.754940555780195, 3951790.984364630188793 ], [ 438289.929942302580457, 3951771.828954646363854 ], [ 438301.468378390476573, 3951752.892869231291115 ], [ 438313.279018546454608, 3951734.065826480276883 ], [ 438325.453095735050738, 3951715.458110933192074 ], [ 438337.809688138542697, 3951697.070980404037982 ], [ 438350.529719409183599, 3951678.903179574292153 ], [ 438363.521959005331155, 3951660.844426185358316 ], [ 438376.787177727906965, 3951643.005633151624352 ], [ 438390.325376176682767, 3951625.386801686603576 ], [ 438404.137324220326263, 3951608.098844735417515 ], [ 438418.221483568428084, 3951590.919940146617591 ], [ 438432.578624187852256, 3951573.961000919342041 ], [ 438447.208746508869808, 3951557.222028366290033 ], [ 438462.021387791086454, 3951540.70365069899708 ], [ 438477.198242883081548, 3951524.51552706444636 ], [ 438492.557616888021585, 3951508.548000741750002 ], [ 438508.189205222239252, 3951492.689534583128989 ], [ 438524.094544298830442, 3951477.161953375209123 ], [ 438540.183169760508463, 3951461.965884636156261 ], [ 438556.544010020093992, 3951446.878880087286234 ], [ 438573.178600136307068, 3951432.122764564584941 ], [ 438589.996475156047381, 3951417.698165133129805 ], [ 438607.087331816845108, 3951403.493545761331916 ], [ 438624.36070544004906, 3951389.50953321158886 ], [ 438641.817361832014285, 3951375.857040178030729 ], [ 438659.546998691861518, 3951362.424531223252416 ], [ 438677.459916649386287, 3951349.323544260580093 ], [ 438695.5553488394944, 3951336.443168724887073 ], [ 438713.834060039487667, 3951323.894317348022014 ], [ 438732.386514351004735, 3951311.676367134787142 ], [ 438751.031014742678963, 3951299.679655935615301 ], [ 438769.949256173393223, 3951288.013848517555743 ], [ 438789.050007322861347, 3951276.568658486474305 ], [ 438808.244329893728718, 3951265.566533545032144 ], [ 438827.711625432828441, 3951254.784404786769301 ], [ 438847.271724903315771, 3951244.334431423805654 ], [ 438867.014329161960632, 3951234.105079713277519 ], [ 438886.940963700937573, 3951224.318174056708813 ], [ 438906.959633811726235, 3951214.752514736261219 ], [ 438927.161567443923559, 3951205.518391855992377 ], [ 438947.546762849146035, 3951196.61580662894994 ], [ 438968.024751578574069, 3951188.045381953008473 ], [ 438988.595531566883437, 3951179.807118430733681 ], [ 439009.349567552679218, 3951171.900395416188985 ], [ 439030.195629364228807, 3951164.214923610910773 ], [ 439051.22570486960467, 3951156.971905975136906 ], [ 439072.258096392033622, 3951150.061673398595303 ], [ 439093.472975163778756, 3951143.372073501348495 ], [ 439114.781393456505612, 3951137.125550883822143 ], [ 439136.182588187453803, 3951131.211194595322013 ], [ 439157.67655711225234, 3951125.629005271010101 ], [ 439179.262538447685074, 3951120.268071979284286 ], [ 439200.851581830123905, 3951115.350837782025337 ], [ 439222.623859876068309, 3951110.765152949374169 ], [ 439244.398435477749445, 3951106.512256485875696 ], [ 439266.265773668361362, 3951102.591529742348939 ], [ 439288.136162716080435, 3951099.114503322634846 ], [ 439310.098551139177289, 3951095.858735921327025 ], [ 439332.153694976354018, 3951092.935139742214233 ], [ 439354.21188153733965, 3951090.455244714859873 ], [ 439376.272350458544679, 3951088.308139268308878 ], [ 439398.425566903606523, 3951086.493206109385937 ], [ 439420.581060770142358, 3951085.011062943842262 ], [ 439442.738829567155335, 3951083.861709754448384 ], [ 439464.98933846433647, 3951083.044529927428812 ], [ 439487.151649637438823, 3951082.560756863560528 ], [ 439509.316983642173, 3951082.520685258321464 ], [ 439531.575049710751045, 3951082.812787638511509 ], [ 439553.744155195949133, 3951083.327384525444359 ], [ 439575.917029753793031, 3951084.396594344172627 ], [ 439598.091406412771903, 3951085.687682496849447 ], [ 439620.268037514993921, 3951087.311560494359583 ], [ 439642.35645299218595, 3951089.268843118101358 ], [ 439664.44787142786663, 3951091.669826633296907 ], [ 439686.450315663707443, 3951094.293302324134856 ], [ 439708.455757426505443, 3951097.360478433314711 ], [ 439730.463440799270757, 3951100.760443427134305 ], [ 439752.292428506014403, 3951104.494424636941403 ], [ 439774.123653071932495, 3951108.561193821020424 ], [ 439795.866644739522599, 3951112.961364198941737 ], [ 439817.611868482606951, 3951117.694322088267654 ], [ 439839.179138716193847, 3951122.872204571031034 ], [ 439860.747884851007257, 3951128.271962159778923 ], [ 439882.228388923685998, 3951134.00511870905757 ], [ 439903.530932164925616, 3951140.183197205420583 ], [ 439924.744478330074344, 3951146.583761403337121 ], [ 439945.960242872824892, 3951153.317110456060618 ], [ 439966.998039497295395, 3951160.49537885049358 ], [ 439987.856366665509995, 3951167.896742287557572 ], [ 440008.716905769193545, 3951175.630888858810067 ], [ 440029.399470263626426, 3951183.809951786883175 ], [ 440049.90256027225405, 3951192.212106800638139 ], [ 440070.31738959235372, 3951200.947653709445149 ], [ 440090.553489934711251, 3951210.017202133312821 ], [ 440110.700577903655358, 3951219.309229298029095 ], [ 440130.66968151537003, 3951229.046167439781129 ], [ 440150.549769582867157, 3951239.005582697223872 ], [ 440170.160656347405165, 3951249.299604846630245 ], [ 440189.68327213334851, 3951259.927013621199876 ], [ 440209.027149451430887, 3951270.888417476788163 ], [ 440228.191540383442771, 3951282.072903732769191 ], [ 440247.177936643653084, 3951293.702294246293604 ], [ 440265.984098188753705, 3951305.443853345699608 ], [ 440284.612262327398639, 3951317.630314420443028 ], [ 440302.970470965839922, 3951330.040461417753249 ], [ 440321.239653719530907, 3951342.673076859209687 ], [ 440339.239625166170299, 3951355.640287156682462 ], [ 440357.060849166242406, 3951368.941483134403825 ], [ 440374.612115417723544, 3951382.466359576676041 ], [ 440391.984632685082033, 3951396.325219218619168 ], [ 440409.177655677252915, 3951410.407149496488273 ], [ 440426.100719940906856, 3951424.712756235152483 ], [ 440442.845033285208046, 3951439.352342735044658 ], [ 440459.319387406809255, 3951454.215602993033826 ], [ 440475.523782475560438, 3951469.30253552692011 ], [ 440491.549425353703555, 3951484.72344420151785 ], [ 440507.305108929576818, 3951500.368022573646158 ], [ 440522.88129661831772, 3951516.235663347411901 ], [ 440538.097062360204291, 3951532.327577039599419 ], [ 440553.134075048961677, 3951548.753462203312665 ], [ 440567.900386881257873, 3951565.292100312653929 ], [ 440582.39748305658577, 3951582.165313100907952 ], [ 440596.624621618189849, 3951599.262187741231173 ], [ 440610.581061348319054, 3951616.471811425872147 ], [ 440624.268286515434738, 3951634.016005972400308 ], [ 440637.594352668791544, 3951651.673551816493273 ], [ 440650.740925844293088, 3951669.554149705916643 ], [ 440663.617544838634785, 3951687.658403332810849 ], [ 440676.133749224653002, 3951705.986915891058743 ], [ 440688.380001327430364, 3951724.539081670809537 ], [ 440700.355561293894425, 3951743.203988036606461 ], [ 440712.061170948727522, 3951762.092545469291508 ], [ 440723.496831188094802, 3951781.204752931371331 ], [ 440734.480882308620494, 3951800.430905374698341 ], [ 440745.28544698364567, 3951819.880101759918034 ], [ 440755.72886604082305, 3951839.442636994645 ], [ 440765.901601103134453, 3951859.117906392086297 ], [ 440775.804393377387896, 3951879.016820612829179 ], [ 440785.346784818975721, 3951899.139982043765485 ], [ 440794.527298133994918, 3951919.265566426794976 ], [ 440803.437873423448764, 3951939.614792736712843 ], [ 440811.988053378765471, 3951960.188263192307204 ], [ 440820.266819792799652, 3951980.763550728093833 ], [ 440828.184455569717102, 3952001.452169024385512 ], [ 440835.832159931247588, 3952022.364425977226347 ], [ 440843.117998638947029, 3952043.279100440442562 ], [ 440850.043452026846353, 3952064.418014737311751 ], [ 440856.607044589938596, 3952085.559344884939492 ], [ 440862.900713436363731, 3952106.924310814589262 ], [ 440868.832525944337249, 3952128.291691228747368 ], [ 440874.493679939943831, 3952149.771794657222927 ], [ 440879.793720811954699, 3952171.365222945809364 ], [ 440884.642194856598508, 3952193.072577769402415 ], [ 440889.309734651935287, 3952214.781140113249421 ], [ 440893.524974346684758, 3952236.492716297972947 ], [ 440897.470304946764372, 3952258.427924633491784 ], [ 440900.963341063237749, 3952280.366145816631615 ], [ 440904.184996156487614, 3952302.306175159290433 ], [ 440907.044817416870501, 3952324.248614465817809 ], [ 440909.63473854836775, 3952346.414684629999101 ], [ 440911.771638121979777, 3952368.472854616586119 ], [ 440913.637166048225481, 3952390.53283174475655 ], [ 440915.141608585661743, 3952412.706129506230354 ], [ 440916.284230254299473, 3952434.881836122833192 ], [ 440916.974580296489876, 3952457.060553472489119 ], [ 440917.484759991406463, 3952479.351387187838554 ] ] ] } }
]
}
