{
"type": "FeatureCollection",
"name": "phi_essex",
"crs": { "type": "name", "properties": { "name": "urn:ogc:def:crs:EPSG::27700" } },
"features": [
{"type":"Feature","properties":{"mainhabs":"Coastal vegetated shingle","habcodes":"CVSHI","featdesc":null,"featcodes":null,"otherclass":null,"addhabs":null,"primsource":"exeGesIS and Pat Doody - 1990 Phase 2 Inventory (CVSHI)","areaha":10.22,"version":"Sep_25","uid":"PHID59291584_018412604","shape_length":null,"shape_area":null},"geometry":{"type":"MultiPolygon","coordinates":[[[[592749.163999999989755,184185.976],[592760.199999999953434,184189.15],[592774.199999999953434,184193.549999999988358],[592790.699999999953434,184198.9],[592806.800000000046566,184204.1],[592822.800000000046566,184209.65],[592839.699999999953434,184215.65],[592854.449999999953434,184221.0],[592867.150000000023283,184226.15],[592877.349999999976717,184230.25],[592888.949999999953434,184235.0],[592899.25,184239.35],[592909.449999999953434,184244.0],[592919.0,184248.6],[592928.550000000046566,184253.049999999988358],[592936.050000000046566,184256.5],[592942.900000000023283,184260.799999999988358],[592948.650000000023283,184264.25],[592953.050000000046566,184267.0],[592957.699999999953434,184270.299999999988358],[592958.5,184270.85],[592960.150000000023283,184272.049999999988358],[592961.699999999953434,184273.299999999988358],[592962.849999999976717,184274.35],[592963.949999999953434,184275.5],[592965.150000000023283,184276.6],[592968.150000000023283,184279.25],[592968.300000000046566,184279.43],[592969.839999999967404,184280.97],[592971.82999999995809,184282.72],[592973.910000000032596,184284.41],[592974.39000000001397,184284.79],[592974.87,184285.170000000012806],[592975.349999999976717,184285.549999999988358],[592975.839999999967404,184285.920000000012806],[592976.78000000002794,184286.519999999989523],[592977.01,184286.65],[592977.229999999981374,184286.78],[592977.459999999962747,184286.9],[592977.689999999944121,184287.019999999989523],[592977.930000000051223,184287.13],[592978.160000000032596,184287.24],[592978.540000000037253,184287.37],[592978.810000000055879,184287.44],[592979.069999999948777,184287.51],[592979.339999999967404,184287.549999999988358],[592979.62,184287.59],[592979.89000000001397,184287.62],[592980.17000000004191,184287.63],[592980.439999999944121,184287.64000000001397],[592980.71999999997206,184287.63],[592980.839999999967404,184287.62],[592981.180000000051223,184287.59],[592981.449999999953434,184287.549999999988358],[592981.71999999997206,184287.5],[592981.99,184287.44],[592982.26,184287.37],[592982.520000000018626,184287.29],[592982.78000000002794,184287.200000000011642],[592983.040000000037253,184287.1],[592983.290000000037253,184286.980000000010477],[592983.729999999981374,184286.75],[592989.189999999944121,184283.75],[592996.74,184279.6],[593000.0,184277.81],[593011.290000000037253,184271.6],[593014.57999999995809,184269.93],[593018.38,184268.26],[593022.26,184266.799999999988358],[593028.839999999967404,184264.75],[593032.21999999997206,184263.85],[593037.598,184262.722],[593038.849999999976717,184262.46],[593042.310000000055879,184261.950000000011642],[593049.060000000055879,184261.37],[593119.040000000037253,184258.75],[593134.25,184258.049999999988358],[593141.689999999944121,184257.799999999988358],[593162.180000000051223,184256.37],[593170.25,184255.46],[593186.189999999944121,184252.91],[593193.348,184251.283],[593194.10999999998603,184251.10999999998603],[593196.692999999970198,184250.392],[593204.430000000051223,184248.24],[593205.13,184248.04],[593204.709999999962747,184246.69],[593204.540000000037253,184245.91],[593204.37,184245.12],[593204.199999999953434,184244.329999999987194],[593204.03000000002794,184243.549999999988358],[593203.85999999998603,184242.76],[593203.689999999944121,184241.97],[593203.53000000002794,184241.19],[593203.35999999998603,184240.4],[593203.189999999944121,184239.62],[593203.01,184238.829999999987194],[593202.839999999967404,184238.049999999988358],[593202.660000000032596,184237.26],[593202.479999999981374,184236.480000000010477],[593202.300000000046566,184235.700000000011642],[593202.10999999998603,184234.91],[593201.910000000032596,184234.13],[593201.709999999962747,184233.35999999998603],[593201.699999999953434,184233.37],[593201.430000000051223,184232.35],[593201.17000000004191,184231.34],[593200.910000000032596,184230.32],[593200.67000000004191,184229.299999999988358],[593200.430000000051223,184228.269999999989523],[593200.199999999953434,184227.25],[593199.979999999981374,184226.22],[593199.76,184225.19],[593199.550000000046566,184224.170000000012806],[593199.339999999967404,184223.14000000001397],[593199.14000000001397,184222.1],[593198.930000000051223,184221.07],[593198.729999999981374,184220.04],[593198.53000000002794,184219.01],[593198.339999999967404,184217.980000000010477],[593198.14000000001397,184216.94],[593197.939999999944121,184215.91],[593197.74,184214.88],[593197.53000000002794,184213.85],[593197.32999999995809,184212.82],[593197.12,184211.79],[593196.900000000023283,184210.76],[593194.10999999998603,184196.950000000011642],[593191.479999999981374,184183.10999999998603],[593188.92000000004191,184169.26],[593186.199999999953434,184155.34],[593184.930000000051223,184155.700000000011642],[593179.959999999962747,184156.65],[593178.560000000055879,184156.920000000012806],[593176.939999999944121,184157.22],[593176.020000000018626,184157.4],[593169.729999999981374,184158.6],[593169.040000000037253,184155.57],[593168.67000000004191,184153.96],[593174.949999999953434,184152.74],[593176.03000000002794,184152.53],[593177.64000000001397,184152.22],[593173.24,184129.85],[593175.01,184128.21],[593172.930000000051223,184125.72],[593172.5,184126.04],[593162.24,184073.69],[593156.400000000023283,184043.9],[593157.930000000051223,184043.25],[593158.99,184043.03],[593158.99,184040.16],[593157.339999999967404,184039.25],[593155.400000000023283,184038.79],[593153.300000000046566,184028.1],[593152.199999999953434,184022.200000000011642],[593155.930000000051223,184021.450000000011642],[593151.71999999997206,184000.0],[593151.21999999997206,183998.420000000012806],[593151.310000000055879,183994.64000000001397],[593150.449999999953434,183990.049999999988358],[593150.569999999948777,183988.35],[593151.449999999953434,183972.57],[593150.349999999976717,183969.519999999989523],[593145.339999999967404,183970.46],[593122.900000000023283,183973.22],[593123.101000000024214,183974.052],[593123.839999999967404,183977.10999999998603],[593126.949999999953434,183992.65],[593116.050000000046566,183995.6],[593102.089999999967404,183981.85999999998603],[593097.800000000046566,183977.638],[593084.400000000023283,183964.450000000011642],[593039.699999999953434,183976.200000000011642],[593032.449999999953434,183978.15],[593026.300000000046566,183979.85],[593023.099999999976717,183980.799999999988358],[593000.0,183987.75],[592973.050000000046566,183996.200000000011642],[592952.949999999953434,183998.299999999988358],[592947.550000000046566,184000.0],[592934.75,184004.950000000011642],[592914.849999999976717,184012.75],[592904.849999999976717,184016.6],[592841.300000000046566,184036.35],[592817.25,184043.700000000011642],[592799.400000000023283,184049.299999999988358],[592779.400000000023283,184055.549999999988358],[592770.849999999976717,184058.25],[592758.199999999953434,184065.049999999988358],[592740.449999999953434,184074.799999999988358],[592721.354999999981374,184085.25],[592718.87,184086.60999999998603],[592719.800000000046566,184090.35],[592723.810000000055879,184107.670000000012806],[592730.464000000036322,184136.283],[592730.699999999953434,184137.299999999988358],[592734.75,184154.25],[592734.770000000018626,184154.35],[592737.800000000046566,184167.700000000011642],[592739.709999999962747,184175.88],[592724.087999999988824,184174.654],[592721.87,184174.480000000010477],[592722.050000000046566,184177.25],[592727.327000000048429,184178.959],[592734.400000000023283,184181.25],[592745.25,184184.85],[592749.163999999989755,184185.976]],[[593095.550000000046566,184118.4],[593095.0,184116.799999999988358],[593094.800000000046566,184116.0],[593094.5,184114.6],[593094.300000000046566,184113.15],[593094.25,184111.75],[593094.300000000046566,184111.0],[593094.5,184109.450000000011642],[593094.900000000023283,184107.9],[593095.300000000046566,184106.799999999988358],[593095.900000000023283,184105.4],[593096.650000000023283,184104.1],[593097.5,184102.799999999988358],[593097.650000000023283,184102.6],[593098.650000000023283,184101.450000000011642],[593099.75,184100.4],[593101.0,184099.450000000011642],[593101.449999999953434,184099.15],[593102.699999999953434,184098.4],[593104.0,184097.799999999988358],[593105.349999999976717,184097.299999999988358],[593106.400000000023283,184097.049999999988358],[593107.949999999953434,184096.799999999988358],[593109.550000000046566,184096.75],[593111.150000000023283,184096.9],[593111.699999999953434,184096.950000000011642],[593113.199999999953434,184097.25],[593114.650000000023283,184097.65],[593116.050000000046566,184098.200000000011642],[593117.199999999953434,184098.75],[593118.550000000046566,184099.6],[593119.800000000046566,184100.6],[593120.949999999953434,184101.700000000011642],[593121.599999999976717,184102.4],[593123.5,184105.450000000011642],[593125.0,184108.75],[593125.699999999953434,184110.35],[593126.349999999976717,184112.0],[593127.099999999976717,184113.549999999988358],[593127.300000000046566,184113.9],[593128.300000000046566,184115.35],[593129.449999999953434,184116.700000000011642],[593130.5,184117.75],[593131.650000000023283,184118.75],[593133.050000000046566,184119.75],[593134.550000000046566,184120.65],[593135.199999999953434,184121.0],[593164.03000000002794,184134.15],[593161.75,184139.200000000011642],[593160.21999999997206,184138.41],[593160.099999999976717,184138.35],[593145.900000000023283,184132.15],[593135.449999999953434,184127.200000000011642],[593134.050000000046566,184126.450000000011642],[593132.599999999976717,184125.75],[593131.099999999976717,184125.200000000011642],[593129.150000000023283,184124.6],[593127.150000000023283,184124.25],[593125.650000000023283,184124.15],[593124.099999999976717,184124.1],[593121.599999999976717,184124.25],[593120.650000000023283,184124.549999999988358],[593119.699999999953434,184124.799999999988358],[593118.75,184125.1],[593116.150000000023283,184125.9],[593113.449999999953434,184126.65],[593111.099999999976717,184127.0],[593109.0,184127.200000000011642],[593107.75,184127.15],[593106.449999999953434,184126.950000000011642],[593105.199999999953434,184126.65],[593103.949999999953434,184126.200000000011642],[593102.75,184125.65],[593100.949999999953434,184124.549999999988358],[593099.699999999953434,184123.700000000011642],[593098.849999999976717,184123.0],[593097.900000000023283,184122.049999999988358],[593097.050000000046566,184121.049999999988358],[593096.300000000046566,184119.9],[593095.550000000046566,184118.4]],[[593020.89000000001397,184243.04],[593055.758999999961816,184219.261],[593133.199999999953434,184166.450000000011642],[593133.849999999976717,184167.549999999988358],[593056.309,184220.654],[593043.099999999976717,184229.700000000011642],[593014.82999999995809,184248.75],[593000.0,184258.75],[592996.300000000046566,184261.35],[592995.5,184260.5],[593000.0,184257.299999999988358],[593014.26,184247.57],[593020.89000000001397,184243.04]]]]}},
{"type":"Feature","properties":{"mainhabs":"Deciduous woodland","habcodes":"DWOOD","featdesc":null,"featcodes":null,"otherclass":null,"addhabs":null,"primsource":"National Forest Inventory 2023 (DWOOD)","areaha":0.03,"version":"Sep_25","uid":"PHID59332258_018446712","shape_length":null,"shape_area":null},"geometry":{"type":"MultiPolygon","coordinates":[[[[593323.360499999951571,184456.5803],[593312.11199999996461,184460.283300000010058],[593314.75,184464.6],[593316.150000000023283,184466.950000000011642],[593321.599999999976717,184475.85],[593327.900000000023283,184485.9],[593327.050000000046566,184486.450000000011642],[593327.776700000045821,184488.0317],[593328.187000000034459,184487.74299999998766],[593329.283000000054017,184487.159000000014203],[593330.363000000012107,184486.723999999987427],[593331.143000000040047,184486.37599999998929],[593331.733,184485.803000000014435],[593332.192999999970198,184485.346],[593332.412999999942258,184484.986],[593332.802999999956228,184483.85999999998603],[593333.062000000034459,184482.547],[593331.275000000023283,184476.975],[593330.223,184474.112],[593329.566,184471.836000000010245],[593327.351999999955297,184465.619],[593323.898000000044703,184457.544],[593323.360499999951571,184456.5803]]]]}},
{"type":"Feature","properties":{"mainhabs":"Deciduous woodland","habcodes":"DWOOD","featdesc":null,"featcodes":null,"otherclass":null,"addhabs":null,"primsource":"National Forest Inventory 2023 (DWOOD)","areaha":0.46,"version":"Sep_25","uid":"PHID59337958_018448393","shape_length":null,"shape_area":null},"geometry":{"type":"MultiPolygon","coordinates":[[[[593328.575100000016391,184489.7694],[593331.300000000046566,184495.700000000011642],[593332.099999999976717,184495.200000000011642],[593335.150000000023283,184500.0],[593340.949999999953434,184508.25],[593348.300000000046566,184509.200000000011642],[593348.650000000023283,184510.65],[593349.270000000018626,184512.18],[593349.300000000046566,184512.4],[593351.699999999953434,184514.25],[593381.199999999953434,184510.65],[593403.150000000023283,184508.049999999988358],[593415.650000000023283,184506.549999999988358],[593415.80980000004638,184507.618599999987055],[593426.650000000023283,184506.19],[593426.483499999972992,184505.1592],[593425.920999999972992,184501.676],[593434.82999999995809,184500.78],[593434.75,184500.0],[593434.160000000032596,184494.10999999998603],[593437.180999999982305,184493.8062],[593437.74,184493.75],[593437.540000000037253,184491.76],[593444.077000000048429,184491.111],[593436.893399999942631,184485.5911],[593433.701,184483.138],[593424.85999999998603,184483.94],[593424.39000000001397,184476.60999999998603],[593423.709999999962747,184469.59],[593424.849999999976717,184469.53],[593424.38,184464.56],[593429.902699999976903,184464.035899999988033],[593429.75,184463.25],[593429.440300000016578,184461.32],[593421.878999999957159,184462.147999999986496],[593419.337999999988824,184462.426],[593419.770000000018626,184465.0],[593420.32999999995809,184468.329999999987194],[593419.57999999995809,184467.69],[593418.270000000018626,184466.65],[593416.910000000032596,184465.670000000012806],[593415.51,184464.75],[593414.069999999948777,184463.91],[593412.589999999967404,184463.15],[593411.069999999948777,184462.49],[593409.5,184461.94],[593408.060900000040419,184461.544499999989057],[593407.790000000037253,184461.47],[593406.040000000037253,184461.1],[593404.270000000018626,184460.84],[593402.49,184460.65],[593400.709999999962747,184460.54],[593398.92000000004191,184460.480000000010477],[593396.150000000023283,184460.46],[593393.38,184460.49],[593390.62,184460.57],[593387.849999999976717,184460.700000000011642],[593385.089999999967404,184460.89000000001397],[593382.32999999995809,184461.13],[593378.319999999948777,184461.700000000011642],[593374.319999999948777,184462.47],[593370.339999999967404,184463.29],[593366.339999999967404,184463.96],[593364.9732,184464.0889],[593362.310000000055879,184464.34],[593359.810000000055879,184464.200000000011642],[593357.626200000056997,184463.8855],[593357.310000000055879,184463.84],[593354.810000000055879,184463.700000000011642],[593352.310000000055879,184463.85],[593349.810000000055879,184464.09],[593347.319999999948777,184464.35],[593344.819999999948777,184464.59],[593342.319999999948777,184464.75],[593341.772899999981746,184464.7192],[593340.71999999997206,184464.66],[593339.160000000032596,184464.21],[593337.800000000046566,184463.4],[593337.07999999995809,184462.74],[593336.449999999953434,184462.0],[593335.900000000023283,184461.21],[593335.430000000051223,184460.35999999998603],[593335.01,184459.46],[593334.650000000023283,184458.519999999989523],[593334.339999999967404,184457.549999999988358],[593334.069999999948777,184456.56],[593333.82999999995809,184455.549999999988358],[593333.776300000026822,184455.3008],[593332.349999999976717,184453.621000000013737],[593324.811499999952503,184456.102699999988545],[593325.246000000042841,184456.88200000001234],[593328.748999999952503,184465.071999999985565],[593330.993999999947846,184471.37599999998929],[593331.648999999975786,184473.644999999989523],[593332.694000000017695,184476.487],[593334.609000000054948,184482.458000000013271],[593334.253999999957159,184484.253],[593333.77800000004936,184485.628999999986263],[593333.378999999957159,184486.283],[593332.783999999985099,184486.873],[593331.996999999973923,184487.638],[593330.949000000022352,184488.105000000010477],[593329.917999999946915,184488.519999999989523],[593328.974999999976717,184489.022999999986496],[593328.413599999970756,184489.4179],[593327.699999999953434,184489.920000000012806],[593328.575100000016391,184489.7694]]]]}}
]
}
