{
"type": "FeatureCollection",
"name": "phi_hrwallingford",
"crs": { "type": "name", "properties": { "name": "urn:ogc:def:crs:EPSG::27700" } },
"features": [
{"type":"Feature","properties":{"mainhabs":"Deciduous woodland","habcodes":"DWOOD","featdesc":null,"featcodes":null,"otherclass":null,"addhabs":null,"primsource":"National Forest Inventory 2023 (DWOOD)","areaha":3.04,"version":"Sep_25","uid":"PHID46138566_019003773","shape_length":null,"shape_area":null},"geometry":{"type":"MultiPolygon","coordinates":[[[[461417.020000000018626,190240.09],[461417.32,190239.19],[461424.12,190230.79],[461429.32,190225.79],[461414.020000000018626,190156.14000000001397],[461427.159999999974389,190151.799999999988358],[461427.69,190151.64000000001397],[461436.64000000001397,190148.91],[461440.94,190147.81],[461441.840000000025611,190150.91],[461453.840000000025611,190147.71],[461474.419999999983702,190144.43],[461476.229999999981374,190143.99],[461466.229999999981374,190124.59],[461474.729999999981374,190110.19],[461481.229999999981374,190106.79],[461478.229999999981374,190099.99],[461477.63,190099.09],[461477.21999999997206,190098.29],[461476.81,190097.4],[461476.5,190096.39000000001397],[461476.400000000023283,190095.49],[461476.19,190094.59],[461476.080000000016298,190092.579999999987194],[461475.96999999997206,190091.68],[461475.049999999988358,190087.480000000010477],[461474.340000000025611,190084.97],[461473.520000000018626,190082.76],[461472.700000000011642,190080.670000000012806],[461471.69,190078.76],[461470.88,190076.769999999989523],[461468.039999999979045,190071.87],[461466.63,190069.37],[461465.799999999988358,190066.97],[461464.78000000002794,190063.46],[461464.159999999974389,190060.35999999998603],[461463.75,190058.15],[461463.32,190056.0],[461460.44,190043.65],[461459.900000000023283,190042.06],[461459.43,190040.43],[461458.51,190037.74],[461456.479999999981374,190032.53],[461455.26,190029.93],[461452.71999999997206,190025.13],[461449.69,190020.34],[461448.07,190018.04],[461444.38,190013.35999999998603],[461442.60999999998603,190011.26],[461440.729999999981374,190009.28],[461438.659999999974389,190007.480000000010477],[461435.900000000023283,190005.79],[461434.43,190004.980000000010477],[461432.93,190004.079999999987194],[461431.460000000020955,190002.980000000010477],[461429.49,190001.19],[461428.400000000023283,190000.0],[461428.0,189997.5],[461428.0,189995.799999999988358],[461428.200000000011642,189994.9],[461428.400000000023283,189994.1],[461428.799999999988358,189993.1],[461429.200000000011642,189992.299999999988358],[461430.200000000011642,189990.9],[461432.599999999976717,189988.5],[461434.0,189987.299999999988358],[461435.0,189986.6],[461437.299999999988358,189985.4],[461438.400000000023283,189984.9],[461439.5,189984.5],[461440.900000000023283,189984.0],[461442.200000000011642,189983.700000000011642],[461443.599999999976717,189983.4],[461444.900000000023283,189983.200000000011642],[461446.299999999988358,189983.1],[461454.400000000023283,189980.799999999988358],[461450.700000000011642,189976.950000000011642],[461446.25,189972.62],[461438.599999999976717,189965.5],[461431.210000000020955,189958.49],[461426.770000000018626,189954.730000000010477],[461423.69,189952.34],[461418.450000000011642,189948.579999999987194],[461416.06,189946.980000000010477],[461408.99,189943.79],[461404.89000000001397,189942.200000000011642],[461393.26,189937.75],[461391.950000000011642,189937.22],[461388.10999999998603,189935.54],[461387.200000000011642,189935.13],[461386.289999999979045,189934.799999999988358],[461385.270000000018626,189934.49],[461384.46999999997206,189934.07],[461383.450000000011642,189933.75],[461382.24,189933.329999999987194],[461381.14000000001397,189932.91],[461379.919999999983702,189932.38],[461378.81,189931.97],[461377.789999999979045,189931.54],[461375.56,189930.700000000011642],[461374.56,189930.38],[461373.44,189929.97],[461372.13,189929.54],[461370.919999999983702,189929.01],[461368.49,189928.170000000012806],[461367.68,189927.950000000011642],[461365.450000000011642,189927.21],[461364.340000000025611,189926.69],[461363.32,189926.269999999989523],[461362.31,189925.950000000011642],[461361.299999999988358,189925.54],[461360.28000000002794,189925.21],[461354.32,189923.1],[461351.289999999979045,189922.04],[461349.659999999974389,189921.60999999998603],[461347.840000000025611,189921.09],[461347.13,189920.769999999989523],[461346.10999999998603,189920.56],[461344.39000000001397,189919.920000000012806],[461342.78000000002794,189919.29],[461340.039999999979045,189918.44],[461338.729999999981374,189918.12],[461336.299999999988358,189917.28],[461335.080000000016298,189916.950000000011642],[461332.85999999998603,189916.31],[461331.53000000002794,189915.88],[461329.01,189915.04],[461326.57,189914.4],[461324.549999999988358,189913.66],[461323.539999999979045,189913.450000000011642],[461322.21999999997206,189913.019999999989523],[461320.900000000023283,189912.799999999988358],[461319.39000000001397,189912.269999999989523],[461317.87,189911.84],[461317.06,189911.63],[461316.039999999979045,189911.31],[461314.63,189910.89000000001397],[461313.31,189910.46],[461312.200000000011642,189910.15],[461311.18,189909.93],[461309.770000000018626,189909.51],[461307.53000000002794,189908.87],[461306.32,189908.64000000001397],[461305.51,189908.329999999987194],[461304.590000000025611,189908.22],[461302.270000000018626,189907.579999999987194],[461301.25,189907.26],[461300.24,189907.04],[461299.14000000001397,189906.64000000001397],[461297.94,189906.34],[461296.840000000025611,189905.94],[461295.840000000025611,189905.64000000001397],[461294.64000000001397,189905.34],[461294.281000000017229,189905.231999999989057],[461293.64000000001397,189905.04],[461293.13,189904.87],[461292.44,189904.64000000001397],[461290.090000000025611,189904.14000000001397],[461290.94,189905.44],[461291.14000000001397,189906.34],[461291.25,189907.46],[461291.25,189908.39000000001397],[461291.979999999981374,189909.72],[461292.5,189910.85],[461293.020000000018626,189912.07],[461293.539999999979045,189913.1],[461293.960000000020955,189914.43],[461294.38,189915.65],[461294.799999999988358,189916.68],[461295.210000000020955,189917.6],[461295.419999999983702,189918.62],[461295.729999999981374,189919.75],[461296.049999999988358,189921.079999999987194],[461296.68,189924.46],[461296.799999999988358,189925.79],[461297.10999999998603,189927.230000000010477],[461297.43,189928.56],[461297.849999999976717,189929.68],[461298.799999999988358,189933.07],[461299.210000000020955,189934.079999999987194],[461300.049999999988358,189937.06],[461300.46999999997206,189938.19],[461300.88,189939.200000000011642],[461301.51,189941.66],[461302.56,189944.53],[461302.76,189945.65],[461303.18,189946.68],[461304.229999999981374,189950.16],[461305.28000000002794,189952.82],[461305.590000000025611,189953.950000000011642],[461306.10999999998603,189955.28],[461306.63,189956.81],[461306.950000000011642,189957.84],[461307.57,189958.96],[461308.400000000023283,189961.21],[461309.650000000023283,189964.18],[461310.07,189965.51],[461310.69,189966.730000000010477],[461311.729999999981374,189969.4],[461312.78000000002794,189971.65],[461313.19,189972.670000000012806],[461313.82,189973.799999999988358],[461314.44,189976.15],[461314.960000000020955,189977.480000000010477],[461315.49,189978.920000000012806],[461316.53000000002794,189981.579999999987194],[461317.06,189983.01],[461317.35999999998603,189984.44],[461318.090000000025611,189986.079999999987194],[461318.71999999997206,189987.82],[461319.76,189990.579999999987194],[461320.81,189993.549999999988358],[461322.900000000023283,190000.0],[461325.94,190007.200000000011642],[461327.799999999988358,190012.9],[461328.88,190016.4],[461330.039999999979045,190019.9],[461331.020000000018626,190022.71],[461331.710000000020955,190025.200000000011642],[461332.39000000001397,190027.51],[461333.26,190031.299999999988358],[461334.330000000016298,190035.4],[461335.69,190041.0],[461336.18,190042.69],[461336.270000000018626,190043.19],[461336.57,190043.799999999988358],[461336.669999999983702,190044.200000000011642],[461337.06,190044.799999999988358],[461338.039999999979045,190046.700000000011642],[461338.63,190047.700000000011642],[461338.830000000016298,190047.9],[461339.03000000002794,190048.0],[461339.229999999981374,190048.4],[461339.21999999997206,190049.0],[461339.60999999998603,190050.51],[461339.60999999998603,190051.1],[461340.210000000020955,190053.1],[461340.210000000020955,190053.4],[461340.909999999974389,190056.6],[461341.409999999974389,190058.4],[461341.60999999998603,190059.200000000011642],[461341.909999999974389,190060.1],[461342.210000000020955,190061.1],[461342.409999999974389,190061.200000000011642],[461342.60999999998603,190061.9],[461343.210000000020955,190063.1],[461343.81,190064.0],[461344.10999999998603,190064.4],[461344.409999999974389,190064.700000000011642],[461344.60999999998603,190065.4],[461345.01,190067.1],[461345.51,190069.9],[461346.01,190072.200000000011642],[461346.210000000020955,190073.5],[461346.210000000020955,190074.0],[461346.51,190074.299999999988358],[461346.60999999998603,190074.6],[461346.909999999974389,190075.0],[461347.01,190075.1],[461347.210000000020955,190076.0],[461347.909999999974389,190077.299999999988358],[461348.81,190079.4],[461349.210000000020955,190080.6],[461349.81,190081.5],[461350.409999999974389,190082.700000000011642],[461350.60999999998603,190083.0],[461350.909999999974389,190083.6],[461351.51,190085.799999999988358],[461353.51,190091.4],[461354.01,190093.200000000011642],[461354.10999999998603,190093.799999999988358],[461355.10999999998603,190097.0],[461355.60999999998603,190098.799999999988358],[461356.60999999998603,190102.700000000011642],[461357.210000000020955,190104.5],[461357.60999999998603,190105.9],[461357.60999999998603,190106.1],[461357.909999999974389,190106.6],[461358.10999999998603,190107.1],[461358.409999999974389,190107.6],[461358.60999999998603,190108.200000000011642],[461358.81,190108.4],[461359.01,190108.700000000011642],[461359.10999999998603,190108.799999999988358],[461359.210000000020955,190109.0],[461359.51,190109.200000000011642],[461359.60999999998603,190109.299999999988358],[461359.81,190109.299999999988358],[461360.01,190109.4],[461360.10999999998603,190109.5],[461360.51,190109.5],[461360.81,190110.4],[461360.909999999974389,190110.5],[461361.210000000020955,190111.5],[461361.210000000020955,190112.0],[461361.81,190114.1],[461361.409999999974389,190114.299999999988358],[461361.10999999998603,190114.5],[461360.909999999974389,190114.6],[461360.60999999998603,190114.700000000011642],[461360.60999999998603,190114.9],[461360.51,190115.0],[461360.210000000020955,190115.200000000011642],[461360.210000000020955,190115.6],[461360.01,190116.200000000011642],[461360.01,190116.5],[461360.210000000020955,190117.799999999988358],[461360.909999999974389,190120.799999999988358],[461360.979999999981374,190121.06],[461362.39000000001397,190126.329999999987194],[461365.01,190137.269999999989523],[461365.409999999974389,190139.97],[461367.409999999974389,190139.769999999989523],[461368.909999999974389,190139.269999999989523],[461384.01,190135.170000000012806],[461385.81,190141.37],[461370.409999999974389,190145.47],[461369.01,190145.769999999989523],[461367.210000000020955,190146.47],[461367.909999999974389,190148.87],[461369.210000000020955,190152.769999999989523],[461370.020000000018626,190156.230000000010477],[461370.99,190159.46],[461371.96999999997206,190162.6],[461372.53000000002794,190164.29],[461372.60999999998603,190164.68],[461372.81,190165.6],[461373.210000000020955,190167.299999999988358],[461374.51,190171.200000000011642],[461375.01,190172.799999999988358],[461375.60999999998603,190174.799999999988358],[461376.81,190179.200000000011642],[461378.01,190183.299999999988358],[461378.909999999974389,190186.200000000011642],[461379.81,190189.0],[461380.909999999974389,190193.0],[461382.909999999974389,190199.799999999988358],[461384.01,190203.299999999988358],[461385.210000000020955,190207.6],[461386.81,190212.9],[461387.81,190215.799999999988358],[461387.909999999974389,190216.299999999988358],[461388.81,190219.6],[461389.60999999998603,190222.9],[461390.909999999974389,190226.6],[461392.210000000020955,190231.0],[461393.10999999998603,190234.1],[461393.909999999974389,190237.4],[461394.909999999974389,190240.6],[461396.210000000020955,190244.9],[461396.210000000020955,190245.200000000011642],[461397.60999999998603,190250.0],[461398.01,190251.0],[461399.10999999998603,190255.1],[461414.32,190250.89000000001397],[461414.32,190247.19],[461417.020000000018626,190240.09]]]]}},
{"type":"Feature","properties":{"mainhabs":"Deciduous woodland","habcodes":"DWOOD","featdesc":null,"featcodes":null,"otherclass":null,"addhabs":null,"primsource":"National Forest Inventory 2023 (DWOOD)","areaha":0.58,"version":"Sep_25","uid":"PHID46191002_019019464","shape_length":null,"shape_area":null},"geometry":{"type":"MultiPolygon","coordinates":[[[[461909.020000000018626,190157.25],[461891.62,190162.049999999988358],[461888.21999999997206,190151.049999999988358],[461879.5,190150.43],[461872.14000000001397,190151.22],[461873.14000000001397,190154.519999999989523],[461876.539999999979045,190166.62],[461877.18,190169.26],[461877.659999999974389,190171.4],[461882.26,190172.9],[461882.460000000020955,190173.0],[461882.659999999974389,190173.0],[461882.960000000020955,190173.1],[461883.960000000020955,190173.6],[461884.35999999998603,190173.9],[461884.659999999974389,190174.299999999988358],[461884.85999999998603,190174.4],[461885.06,190174.6],[461885.26,190175.0],[461885.460000000020955,190175.200000000011642],[461886.06,190176.4],[461886.06,190176.700000000011642],[461886.159999999974389,190176.9],[461886.159999999974389,190177.1],[461886.26,190177.299999999988358],[461886.26,190178.299999999988358],[461889.659999999974389,190192.4],[461890.460000000020955,190199.200000000011642],[461888.960000000020955,190206.6],[461886.06,190212.1],[461797.659999999974389,190222.4],[461793.57819999998901,190222.8659],[461793.616199999989476,190225.199],[461793.7292,190231.928699999989476],[461793.846599999989849,190238.9263],[461793.870799999975134,190240.3639],[461794.51,190240.299999999988358],[461795.31,190240.299999999988358],[461798.31,190240.4],[461799.10999999998603,190240.4],[461802.210000000020955,190240.299999999988358],[461804.909999999974389,190240.299999999988358],[461809.51,190240.1],[461813.60999999998603,190240.0],[461817.01,190239.9],[461817.409999999974389,190240.0],[461817.51,190240.1],[461820.12,190239.94],[461820.710000000020955,190243.9],[461820.81,190244.700000000011642],[461843.01,190240.5],[461858.51,190238.700000000011642],[461873.10999999998603,190238.4],[461884.710000000020955,190238.0],[461908.710000000020955,190236.0],[461930.10999999998603,190234.4],[461934.60999999998603,190234.200000000011642],[461944.81,190235.5],[461948.002199999988079,190233.437899999989895],[461947.9815,190233.393600000010338],[461940.51,190217.4],[461927.51,190188.9],[461924.2574,190181.2664],[461922.349999999976717,190176.79],[461919.695,190170.2499],[461915.783600000024308,190160.6152],[461913.9927,190156.203700000012759],[461910.78000000002794,190148.29],[461909.1432,190144.5939],[461903.824000000022352,190146.2352],[461905.020000000018626,190148.85],[461909.020000000018626,190157.25]]]]}},
{"type":"Feature","properties":{"mainhabs":"Good quality semi improved grassland","habcodes":"GQSIG","featdesc":null,"featcodes":null,"otherclass":null,"addhabs":null,"primsource":"Feedback from Natural England adviser or specialist 2023 (GQSIG)","areaha":0.63,"version":"Sep_25","uid":"PHID46166897_019005795","shape_length":null,"shape_area":null},"geometry":{"type":"MultiPolygon","coordinates":[[[[461728.693000000028405,190084.603],[461727.468,190079.269],[461725.669,190072.919],[461723.129000000015367,190063.923],[461721.118000000016764,190056.409000000014203],[461718.26,190046.143000000010943],[461715.71999999997206,190037.888],[461713.49800000002142,190030.2679],[461711.487000000022817,190024.764],[461709.37,190019.473],[461707.571,190015.769],[461706.446699999971315,190013.8755],[461705.788,190012.766],[461672.53000000002794,190033.24],[461661.270000000018626,190014.56],[461659.12,190015.75],[461652.94,190005.670000000012806],[461652.1117,190005.4736],[461652.017600000021048,190005.451299999986077],[461651.0,190005.21],[461640.193000000028405,190011.649],[461641.617000000027474,190014.123],[461645.717,190011.665],[461661.794,190038.272],[461635.047000000020489,190054.332],[461621.420999999972992,190031.846],[461625.596000000019558,190029.31],[461622.82,190025.1],[461621.68,190026.47],[461620.960000000020955,190027.420000000012806],[461620.49,190028.35],[461620.06,190029.299999999988358],[461619.669999999983702,190030.26],[461619.150000000023283,190031.78],[461618.85999999998603,190032.78],[461618.60999999998603,190033.79],[461618.409999999974389,190034.81],[461618.18,190036.32],[461616.210000000020955,190047.12],[461613.482000000018161,190050.484],[461615.18,190054.94],[461619.5,190065.51],[461620.87,190068.85999999998603],[461626.944000000017695,190066.334],[461633.2878,190081.3408],[461635.115999999979977,190080.641],[461635.8111,190080.3614],[461639.9475,190078.6974],[461641.46999999997206,190078.085],[461640.737000000022817,190076.261999999987893],[461644.435,190074.775],[461645.168,190076.597],[461651.753000000026077,190073.948],[461665.174999999988358,190107.307999999989988],[461666.551800000015646,190110.692799999989802],[461667.5835,190110.254599999985658],[461668.1801,190110.0011],[461703.87,190094.84],[461728.693000000028405,190084.603]]]]}},
{"type":"Feature","properties":{"mainhabs":"Good quality semi improved grassland","habcodes":"GQSIG","featdesc":null,"featcodes":null,"otherclass":null,"addhabs":null,"primsource":"Feedback from Natural England adviser or specialist 2023 (GQSIG)","areaha":0.52,"version":"Sep_25","uid":"PHID46176536_019004125","shape_length":null,"shape_area":null},"geometry":{"type":"MultiPolygon","coordinates":[[[[461823.7611,190070.671200000011595],[461820.099999999976717,190061.769999999989523],[461800.900000000023283,190016.96],[461800.69,190016.56],[461800.590000000025611,190016.26],[461798.50199999997858,190013.530999999988126],[461796.954000000027008,190013.134],[461795.525000000023283,190013.174],[461794.612000000022817,190013.293],[461793.118000000016764,190013.956],[461791.400000000023283,190011.230000000010477],[461792.590000000025611,190010.56],[461793.49,190009.96],[461794.39000000001397,190009.26],[461794.49,190009.06],[461794.89000000001397,190008.56],[461795.39000000001397,190008.06],[461795.69,190007.46],[461795.89000000001397,190006.85999999998603],[461795.89000000001397,190005.96],[461795.69,190005.35999999998603],[461795.590000000025611,190005.16],[461795.49,190004.85999999998603],[461795.289999999979045,190004.56],[461795.289999999979045,190004.35999999998603],[461794.89000000001397,190003.26],[461793.57,190000.0],[461793.131999999983236,189998.924],[461734.185,190021.293],[461718.228500000026543,190028.2157],[461715.713800000026822,190029.3065],[461717.943000000028405,190036.193999999988591],[461720.164999999979045,190043.814000000013039],[461722.705000000016298,190052.916],[461725.457,190062.441],[461727.996999999973923,190071.331],[461729.795999999972992,190077.681000000011409],[461731.147,190083.592],[461777.200000000011642,190064.6],[461777.8663,190066.1325],[461778.1472,190066.778499999985797],[461798.884399999980815,190059.866],[461809.3934,190074.1965],[461823.7611,190070.671200000011595]]]]}}
]
}
