{
"type": "FeatureCollection",
"name": "phi_dunthropfarm",
"crs": { "type": "name", "properties": { "name": "urn:ogc:def:crs:EPSG::27700" } },
"features": [
{"type":"Feature","properties":{"mainhabs":"Deciduous woodland","habcodes":"DWOOD","featdesc":null,"featcodes":null,"otherclass":null,"addhabs":null,"primsource":"National Forest Inventory 2023 (DWOOD)","areaha":9.99,"version":"Sep_25","uid":"PHID43523506_022698084","shape_length":null,"shape_area":null},"geometry":{"type":"MultiPolygon","coordinates":[[[[435331.299999999988358,226797.94],[435331.099999999976717,226798.1],[435330.93,226798.19],[435327.659999999974389,226799.91],[435328.49,226779.19],[435327.710000000020955,226755.62],[435326.68,226743.18],[435325.169999999983702,226743.51],[435315.270000000018626,226759.579999999987194],[435313.700000000011642,226763.74],[435311.830000000016298,226769.65],[435310.539999999979045,226776.5],[435310.10999999998603,226783.480000000010477],[435309.26,226790.74],[435304.960000000020955,226796.65],[435293.57,226808.93],[435284.85999999998603,226818.329999999987194],[435262.06,226844.01],[435243.21999999997206,226864.269999999989523],[435198.039999999979045,226900.579999999987194],[435161.0,226917.170000000012806],[435140.919999999983702,226920.19],[435123.770000000018626,226916.41],[435083.020000000018626,226917.0],[435079.19,226915.63],[435073.44,226913.94],[435067.69,226912.269999999989523],[435063.099999999976717,226912.269999999989523],[435055.659999999974389,226915.14000000001397],[435043.06,226921.15],[435034.960000000020955,226925.43],[435033.539999999979045,226928.38],[435034.729999999981374,226939.37],[435033.200000000011642,226941.87],[435024.729999999981374,226946.64000000001397],[435017.96999999997206,226948.25],[435016.299999999988358,226948.5],[435015.799999999988358,226948.1],[435015.0,226947.299999999988358],[435014.5,226946.9],[435014.099999999976717,226946.5],[435013.599999999976717,226946.200000000011642],[435013.0,226945.9],[435012.700000000011642,226945.700000000011642],[435012.37,226945.57],[435004.06,226925.87],[435003.049999999988358,226921.670000000012806],[435000.0,226920.96],[434952.51,226940.89000000001397],[434933.520000000018626,226947.950000000011642],[434914.979999999981374,226956.049999999988358],[434892.400000000023283,226965.799999999988358],[434887.5,226968.299999999988358],[434885.0,226969.6],[434883.0,226970.9],[434879.099999999976717,226973.700000000011642],[434874.400000000023283,226976.6],[434864.200000000011642,226982.5],[434854.5,226988.9],[434844.099999999976717,226995.200000000011642],[434838.900000000023283,226998.4],[434836.349999999976717,227000.0],[434835.5,227000.6],[434834.900000000023283,227001.200000000011642],[434833.200000000011642,227002.200000000011642],[434833.0,227002.4],[434830.900000000023283,227003.4],[434828.200000000011642,227003.9],[434824.700000000011642,227004.799999999988358],[434822.200000000011642,227005.9],[434820.200000000011642,227006.799999999988358],[434818.099999999976717,227008.0],[434814.5,227009.700000000011642],[434812.5,227010.5],[434809.799999999988358,227011.6],[434806.200000000011642,227012.4],[434802.099999999976717,227013.4],[434796.900000000023283,227014.700000000011642],[434792.299999999988358,227016.0],[434787.5,227016.9],[434782.599999999976717,227017.9],[434782.0,227018.1],[434776.799999999988358,227019.4],[434771.599999999976717,227020.299999999988358],[434766.900000000023283,227021.200000000011642],[434762.900000000023283,227022.0],[434759.0,227022.799999999988358],[434754.5,227023.5],[434750.200000000011642,227023.9],[434745.099999999976717,227024.200000000011642],[434739.299999999988358,227025.0],[434732.5,227025.5],[434725.900000000023283,227026.0],[434719.700000000011642,227026.5],[434714.099999999976717,227027.1],[434711.299999999988358,227027.1],[434708.599999999976717,227027.200000000011642],[434704.200000000011642,227027.9],[434702.099999999976717,227028.0],[434695.700000000011642,227031.299999999988358],[434688.099999999976717,227035.4],[434679.799999999988358,227039.5],[434679.700000000011642,227039.079999999987194],[434679.479999999981374,227038.63],[434679.24,227038.19],[434678.99,227037.76],[434678.71999999997206,227037.34],[434678.44,227036.920000000012806],[434678.14000000001397,227036.519999999989523],[434677.830000000016298,227036.12],[434677.51,227035.74],[434677.169999999983702,227035.35999999998603],[434676.830000000016298,227035.0],[434676.46999999997206,227034.65],[434676.099999999976717,227034.31],[434675.32,227033.670000000012806],[434674.919999999983702,227033.37],[434674.51,227033.09],[434674.080000000016298,227032.82],[434673.650000000023283,227032.56],[434673.210000000020955,227032.32],[434672.950000000011642,227032.19],[434672.210000000020955,227031.85999999998603],[434671.460000000020955,227031.6],[434670.700000000011642,227031.38],[434669.919999999983702,227031.21],[434669.13,227031.09],[434668.330000000016298,227031.01],[434667.520000000018626,227030.97],[434666.710000000020955,227030.950000000011642],[434665.900000000023283,227030.97],[434665.080000000016298,227031.01],[434664.26,227031.07],[434663.44,227031.15],[434661.82,227031.329999999987194],[434661.020000000018626,227031.450000000011642],[434660.21999999997206,227031.579999999987194],[434659.43,227031.74],[434658.64000000001397,227031.920000000012806],[434657.85999999998603,227032.13],[434657.080000000016298,227032.35999999998603],[434656.31,227032.60999999998603],[434655.549999999988358,227032.89000000001397],[434654.789999999979045,227033.18],[434654.049999999988358,227033.5],[434653.32,227033.84],[434652.590000000025611,227034.21],[434652.43,227034.299999999988358],[434652.700000000011642,227036.1],[434653.400000000023283,227039.9],[434654.200000000011642,227045.700000000011642],[434655.0,227052.200000000011642],[434656.0,227059.200000000011642],[434657.099999999976717,227067.4],[434657.799999999988358,227071.299999999988358],[434659.799999999988358,227070.700000000011642],[434662.099999999976717,227069.9],[434663.299999999988358,227069.6],[434664.799999999988358,227069.299999999988358],[434670.900000000023283,227069.299999999988358],[434673.0,227069.0],[434673.400000000023283,227068.9],[434676.900000000023283,227067.9],[434682.299999999988358,227066.5],[434687.700000000011642,227065.0],[434693.400000000023283,227063.799999999988358],[434698.200000000011642,227062.5],[434704.299999999988358,227060.799999999988358],[434710.0,227059.200000000011642],[434714.599999999976717,227058.1],[434719.5,227056.6],[434724.700000000011642,227055.1],[434727.700000000011642,227054.5],[434729.400000000023283,227054.200000000011642],[434734.099999999976717,227052.9],[434738.799999999988358,227051.799999999988358],[434742.799999999988358,227051.0],[434747.900000000023283,227050.1],[434752.799999999988358,227049.1],[434759.200000000011642,227047.6],[434765.900000000023283,227045.9],[434771.5,227044.200000000011642],[434775.799999999988358,227043.0],[434780.5,227041.799999999988358],[434785.5,227040.1],[434790.299999999988358,227038.5],[434795.5,227036.799999999988358],[434800.200000000011642,227035.700000000011642],[434801.599999999976717,227035.4],[434805.799999999988358,227034.200000000011642],[434806.299999999988358,227034.0],[434810.799999999988358,227033.200000000011642],[434816.799999999988358,227031.799999999988358],[434822.799999999988358,227030.200000000011642],[434827.900000000023283,227029.0],[434833.799999999988358,227027.799999999988358],[434839.599999999976717,227026.5],[434845.299999999988358,227025.5],[434849.5,227024.5],[434855.700000000011642,227023.299999999988358],[434860.900000000023283,227022.0],[434865.900000000023283,227020.700000000011642],[434872.200000000011642,227018.9],[434873.43,227018.46],[434876.700000000011642,227017.299999999988358],[434882.0,227015.200000000011642],[434886.099999999976717,227013.700000000011642],[434890.299999999988358,227011.700000000011642],[434894.200000000011642,227009.700000000011642],[434897.799999999988358,227007.9],[434902.700000000011642,227005.299999999988358],[434905.0,227004.299999999988358],[434906.700000000011642,227003.700000000011642],[434909.900000000023283,227003.1],[434910.299999999988358,227003.0],[434914.099999999976717,227001.9],[434917.400000000023283,227001.200000000011642],[434919.099999999976717,227000.6],[434922.349999999976717,227000.0],[434927.700000000011642,226998.299999999988358],[434929.200000000011642,226997.700000000011642],[434935.099999999976717,226994.9],[434938.400000000023283,226993.6],[434948.700000000011642,226989.700000000011642],[434949.799999999988358,226989.200000000011642],[434959.5,226985.0],[434968.400000000023283,226981.700000000011642],[434969.0,226981.4],[434975.0,226979.5],[434975.5,226979.4],[434977.0,226979.299999999988358],[434978.099999999976717,226979.299999999988358],[434979.5,226979.4],[434981.200000000011642,226979.1],[434982.599999999976717,226978.700000000011642],[434983.26,226978.420000000012806],[434987.099999999976717,226976.799999999988358],[434995.0,226973.700000000011642],[435000.0,226971.799999999988358],[435000.200000000011642,226971.799999999988358],[435000.299999999988358,226971.700000000011642],[435000.5,226971.6],[435001.5,226970.6],[435002.799999999988358,226968.9],[435003.900000000023283,226967.799999999988358],[435004.200000000011642,226967.6],[435004.599999999976717,226967.4],[435004.700000000011642,226967.299999999988358],[435005.200000000011642,226967.0],[435006.700000000011642,226966.4],[435006.900000000023283,226966.4],[435024.07,226960.46],[435025.224999999976717,226960.063],[435025.700000000011642,226959.9],[435028.21999999997206,226959.04],[435032.26,226957.66],[435033.599999999976717,226957.200000000011642],[435034.830000000016298,226956.85],[435034.10999999998603,226957.81],[435033.289999999979045,226960.74],[435033.330000000016298,226961.14000000001397],[435033.549999999988358,226963.03],[435033.62,226963.66],[435033.85999999998603,226970.44],[435034.099999999976717,226973.170000000012806],[435034.270000000018626,226974.5],[435034.849999999976717,226976.549999999988358],[435035.56,226977.920000000012806],[435036.900000000023283,226980.16],[435038.549999999988358,226981.829999999987194],[435042.849999999976717,226986.18],[435044.44,226987.88],[435046.76,226990.53],[435047.68,226991.59],[435048.700000000011642,226992.76],[435049.200000000011642,226993.329999999987194],[435054.289999999979045,227000.0],[435057.080000000016298,227002.68],[435063.400000000023283,227009.079999999987194],[435066.729999999981374,227012.79],[435075.229999999981374,227014.29],[435081.74,227018.200000000011642],[435087.479999999981374,227024.71],[435092.31,227030.88],[435090.520000000018626,227032.26],[435084.349999999976717,227024.450000000011642],[435080.960000000020955,227020.54],[435076.01,227017.420000000012806],[435072.099999999976717,227016.10999999998603],[435067.93,227015.59],[435064.44,227013.579999999987194],[435064.099999999976717,227014.230000000010477],[435062.64000000001397,227015.4],[435060.88,227017.16],[435057.07,227019.700000000011642],[435054.43,227022.14000000001397],[435052.87,227025.66],[435051.10999999998603,227029.18],[435049.64000000001397,227033.57],[435049.209800000011455,227035.185999999986961],[435048.080000000016298,227039.43],[435044.35999999998603,227042.29],[435037.520000000018626,227046.980000000010477],[435032.099999999976717,227051.269999999989523],[435027.919999999983702,227053.82],[435046.303200000023935,227068.190200000011828],[435048.423400000028778,227070.1883],[435048.580000000016298,227069.97],[435052.849999999976717,227065.420000000012806],[435057.28000000002794,227061.769999999989523],[435062.710000000020955,227057.269999999989523],[435067.5,227053.549999999988358],[435073.340000000025611,227048.47],[435079.599999999976717,227043.97],[435083.799999999988358,227040.81],[435089.75,227036.41],[435095.799999999988358,227031.519999999989523],[435102.789999999979045,227026.21],[435113.799999999988358,227018.09],[435121.12,227012.6],[435127.89000000001397,227007.24],[435132.169999999983702,227004.12],[435136.450000000011642,227001.47],[435138.99,227000.0],[435151.479999999981374,226993.5],[435158.51,226989.920000000012806],[435173.35999999998603,226984.700000000011642],[435187.400000000023283,226980.29],[435196.729999999981374,226978.269999999989523],[435202.960000000020955,226977.769999999989523],[435204.88,226977.76],[435208.35999999998603,226989.34],[435211.76,227000.0],[435217.400000000023283,227015.96],[435219.909999999974389,227025.519999999989523],[435221.830000000016298,227034.59],[435222.169999999983702,227043.88],[435221.87,227050.68],[435220.68,227062.12],[435227.093999999982771,227070.973300000012387],[435229.2708,227073.978],[435215.18,227093.99],[435223.659999999974389,227099.28],[435239.270000000018626,227087.78],[435244.158,227098.1233],[435248.46999999997206,227097.88],[435298.57,227094.68],[435298.270000000018626,227080.18],[435291.96999999997206,227070.579999999987194],[435285.900000000023283,227061.09],[435282.37,227055.579999999987194],[435281.32,227053.920000000012806],[435273.650000000023283,227041.87],[435283.770000000018626,227018.079999999987194],[435291.76,227000.0],[435292.44,226998.420000000012806],[435313.0,226950.9],[435315.5,226945.26],[435318.419999999983702,226938.65],[435365.0,226833.4],[435368.0,226826.5],[435371.445,226819.717],[435377.599999999976717,226807.6],[435379.799999999988358,226803.799999999988358],[435382.200000000011642,226800.1],[435384.299999999988358,226797.200000000011642],[435387.0,226793.700000000011642],[435389.299999999988358,226790.9],[435392.299999999988358,226787.700000000011642],[435394.299999999988358,226785.700000000011642],[435397.5,226783.299999999988358],[435399.099999999976717,226782.200000000011642],[435400.0,226781.6],[435425.700000000011642,226766.6],[435434.12,226761.666999999986729],[435435.599999999976717,226760.799999999988358],[435439.799999999988358,226758.299999999988358],[435441.099999999976717,226757.4],[435445.200000000011642,226754.6],[435446.200000000011642,226753.9],[435452.799999999988358,226749.0],[435455.299999999988358,226747.0],[435460.900000000023283,226742.299999999988358],[435463.200000000011642,226740.200000000011642],[435468.799999999988358,226735.1],[435473.900000000023283,226730.4],[435474.5,226729.799999999988358],[435478.799999999988358,226725.4],[435482.200000000011642,226719.799999999988358],[435485.0,226714.700000000011642],[435494.400000000023283,226697.5],[435503.0,226683.5],[435504.13,226681.72],[435504.599999999976717,226680.980000000010477],[435509.900000000023283,226672.6],[435518.400000000023283,226661.200000000011642],[435527.099999999976717,226650.9],[435535.299999999988358,226641.4],[435538.599999999976717,226638.299999999988358],[435541.700000000011642,226635.5],[435543.099999999976717,226634.4],[435544.599999999976717,226633.299999999988358],[435546.099999999976717,226632.4],[435547.700000000011642,226631.5],[435549.299999999988358,226630.700000000011642],[435549.900000000023283,226630.5],[435571.700000000011642,226618.799999999988358],[435593.299999999988358,226607.299999999988358],[435604.599999999976717,226601.799999999988358],[435621.799999999988358,226594.0],[435658.5,226597.700000000011642],[435671.799999999988358,226597.799999999988358],[435680.0,226597.6],[435688.700000000011642,226597.200000000011642],[435693.81,226594.31],[435694.659999999974389,226593.829999999987194],[435697.200000000011642,226592.4],[435710.599999999976717,226583.200000000011642],[435728.400000000023283,226568.799999999988358],[435744.700000000011642,226556.1],[435747.700000000011642,226547.200000000011642],[435757.900000000023283,226540.4],[435758.700000000011642,226539.87],[435778.419999999983702,226562.38],[435787.12,226555.579999999987194],[435811.539999999979045,226544.230000000010477],[435814.46999999997206,226541.019999999989523],[435817.710000000020955,226537.47],[435817.62,226537.38],[435814.919999999983702,226534.980000000010477],[435807.21999999997206,226529.079999999987194],[435785.653999999980442,226512.809],[435784.409999999974389,226511.87],[435782.971000000019558,226512.962],[435782.960000000020955,226512.950000000011642],[435782.099999999976717,226512.0],[435781.590000000025611,226511.71],[435780.628000000026077,226511.141],[435781.884000000020023,226509.853],[435779.031000000017229,226507.595],[435777.900000000023283,226506.700000000011642],[435769.5,226499.799999999988358],[435749.900000000023283,226484.299999999988358],[435748.28000000002794,226482.96],[435742.26,226477.53],[435734.900000000023283,226470.519999999989523],[435732.68,226467.230000000010477],[435732.090000000025611,226466.03],[435731.28000000002794,226465.59],[435729.85999999998603,226465.579999999987194],[435715.69,226477.829999999987194],[435708.10999999998603,226482.76],[435707.64000000001397,226482.89000000001397],[435704.5,226483.81],[435700.659999999974389,226484.200000000011642],[435695.789999999979045,226484.480000000010477],[435693.099999999976717,226484.200000000011642],[435689.950000000011642,226483.91],[435686.349999999976717,226483.82],[435683.099999999976717,226485.31],[435682.392999999981839,226485.634],[435682.695,226486.179],[435684.61099999997532,226489.636999999987893],[435681.120999999984633,226491.571],[435680.590000000025611,226493.78],[435678.799999999988358,226496.85999999998603],[435677.419999999983702,226498.79],[435676.03000000002794,226500.480000000010477],[435673.950000000011642,226501.519999999989523],[435669.5,226504.38],[435646.19,226516.29],[435641.07,226517.920000000012806],[435636.409999999974389,226518.1],[435633.419999999983702,226517.04],[435631.150000000023283,226515.54],[435629.49,226513.480000000010477],[435627.830000000016298,226511.170000000012806],[435624.03000000002794,226506.43],[435621.44,226503.13],[435618.78000000002794,226500.69],[435615.38,226496.88],[435612.19,226493.700000000011642],[435610.278,226492.009],[435606.450000000011642,226493.654],[435607.299,226496.856999999989057],[435620.830000000016298,226547.9],[435608.5,226549.9],[435595.400000000023283,226552.5],[435579.5,226556.4],[435574.599999999976717,226557.700000000011642],[435564.099999999976717,226560.6],[435561.299999999988358,226561.5],[435551.0,226565.1],[435548.24,226566.13],[435545.909999999974389,226562.85],[435544.270000000018626,226561.15],[435541.150000000023283,226559.920000000012806],[435539.01,226558.69],[435537.53000000002794,226556.99],[435534.85999999998603,226552.53],[435533.710000000020955,226550.68],[435533.21999999997206,226548.829999999987194],[435533.049999999988358,226546.68],[435534.039999999979045,226544.829999999987194],[435536.01,226543.13],[435537.32,226541.13],[435537.650000000023283,226538.670000000012806],[435537.650000000023283,226536.670000000012806],[435537.49,226533.579999999987194],[435536.378199999977369,226531.347199999989243],[435531.07,226528.51],[435529.43,226528.9],[435522.31,226530.65],[435514.53000000002794,226532.21],[435505.830000000016298,226533.47],[435502.900000000023283,226534.01],[435499.150000000023283,226534.85],[435496.35999999998603,226535.93],[435495.38,226532.99],[435494.94,226531.0],[435491.520000000018626,226531.75],[435446.51,226556.84],[435452.24,226564.22],[435454.039999999979045,226566.72],[435458.89000000001397,226573.74],[435459.789999999979045,226575.43],[435462.849999999976717,226583.29],[435465.729999999981374,226591.18],[435471.299999999988358,226602.9],[435471.400000000023283,226603.5],[435471.400000000023283,226603.799999999988358],[435471.599999999976717,226604.5],[435472.0,226605.700000000011642],[435472.5,226606.700000000011642],[435472.799999999988358,226607.200000000011642],[435475.799999999988358,226611.5],[435478.700000000011642,226615.0],[435474.700000000011642,226619.299999999988358],[435474.599999999976717,226619.4],[435472.700000000011642,226621.700000000011642],[435470.700000000011642,226623.9],[435468.299999999988358,226626.299999999988358],[435465.5,226628.799999999988358],[435462.5,226631.1],[435460.299999999988358,226632.799999999988358],[435456.299999999988358,226635.5],[435452.299999999988358,226638.0],[435448.099999999976717,226640.299999999988358],[435433.5,226649.200000000011642],[435425.400000000023283,226654.1],[435423.090000000025611,226656.480000000010477],[435422.299999999988358,226657.299999999988358],[435420.900000000023283,226658.799999999988358],[435418.700000000011642,226661.299999999988358],[435416.599999999976717,226664.0],[435415.299999999988358,226665.700000000011642],[435412.400000000023283,226670.200000000011642],[435410.799999999988358,226672.799999999988358],[435408.200000000011642,226677.4],[435406.400000000023283,226681.0],[435404.900000000023283,226684.200000000011642],[435402.299999999988358,226689.1],[435401.799999999988358,226690.1],[435399.700000000011642,226693.9],[435397.400000000023283,226697.700000000011642],[435394.900000000023283,226701.299999999988358],[435393.200000000011642,226703.6],[435390.200000000011642,226707.299999999988358],[435387.099999999976717,226710.9],[435384.0,226714.299999999988358],[435380.5,226717.6],[435377.0,226720.700000000011642],[435363.299999999988358,226733.700000000011642],[435362.900000000023283,226734.200000000011642],[435361.900000000023283,226735.299999999988358],[435360.900000000023283,226736.5],[435360.799999999988358,226736.700000000011642],[435359.900000000023283,226738.0],[435359.099999999976717,226739.299999999988358],[435356.700000000011642,226743.799999999988358],[435349.5,226756.4],[435348.299999999988358,226758.4],[435346.299999999988358,226762.0],[435344.5,226765.6],[435342.799999999988358,226769.299999999988358],[435342.5,226770.1],[435340.400000000023283,226775.5],[435339.0,226779.799999999988358],[435336.0,226794.200000000011642],[435331.87,226797.49],[435331.299999999988358,226797.94]]]]}},
{"type":"Feature","properties":{"mainhabs":"Lowland meadows","habcodes":"LMEAD","featdesc":null,"featcodes":null,"otherclass":null,"addhabs":null,"primsource":"Vegetation survey from or on behalf of landowner 2024 (LMEAD)","areaha":4.86,"version":"Sep_25","uid":"PHID43489120_022719782","shape_length":null,"shape_area":null},"geometry":{"type":"MultiPolygon","coordinates":[[[[434830.590000000025611,227415.99],[434863.88,227366.32],[434876.049999999988358,227349.769999999989523],[434880.979999999981374,227344.38],[434892.229999999981374,227336.329999999987194],[434916.19,227319.32],[434961.68,227285.829999999987194],[435000.0,227257.65],[435004.729999999981374,227254.28],[435025.789999999979045,227238.829999999987194],[435043.849999999976717,227226.019999999989523],[435000.0,227132.76],[434993.539999999979045,227119.019999999989523],[435000.0,227114.04],[435026.099999999976717,227093.89000000001397],[435025.03000000002794,227091.43],[435024.13,227092.230000000010477],[435019.26,227095.60999999998603],[435015.039999999979045,227098.269999999989523],[435012.25,227100.4],[435009.349999999976717,227102.84],[435003.520000000018626,227107.19],[435000.0,227109.549999999988358],[434991.99,227116.99],[434990.76,227117.980000000010477],[434987.169999999983702,227120.87],[434985.28000000002794,227118.01],[434984.066999999980908,227113.408],[434983.409999999974389,227113.85],[434981.49,227114.6],[434978.93,227115.200000000011642],[434975.900000000023283,227115.799999999988358],[434973.51,227116.39000000001397],[434970.44,227117.32],[434965.799999999988358,227118.85999999998603],[434963.729999999981374,227119.31],[434961.330000000016298,227119.76],[434959.26,227120.35999999998603],[434957.020000000018626,227121.41],[434956.06,227122.16],[434954.150000000023283,227123.5],[434951.43,227124.549999999988358],[434949.840000000025611,227124.85],[434942.169999999983702,227124.85],[434940.26,227125.15],[434938.020000000018626,227125.6],[434935.94,227125.9],[434934.669999999983702,227125.75],[434932.909999999974389,227125.299999999988358],[434930.830000000016298,227124.85],[434926.840000000025611,227124.549999999988358],[434924.770000000018626,227124.549999999988358],[434923.01,227125.15],[434920.299999999988358,227125.450000000011642],[434917.74,227125.6],[434913.590000000025611,227125.6],[434910.88,227125.0],[434909.76,227124.549999999988358],[434907.200000000011642,227124.1],[434901.770000000018626,227124.1],[434898.580000000016298,227123.950000000011642],[434896.659999999974389,227123.950000000011642],[434894.75,227124.549999999988358],[434892.669999999983702,227125.0],[434891.080000000016298,227125.6],[434889.32,227125.9],[434886.770000000018626,227126.200000000011642],[434884.849999999976717,227126.35],[434882.289999999979045,227126.5],[434880.85999999998603,227126.950000000011642],[434879.26,227127.549999999988358],[434877.340000000025611,227128.15],[434876.099999999976717,227128.93],[434874.349999999976717,227129.920000000012806],[434872.549999999988358,227130.91],[434870.32,227131.59],[434868.5,227131.72],[434864.60999999998603,227132.12],[434859.400000000023283,227131.9],[434854.400000000023283,227132.700000000011642],[434848.599999999976717,227133.799999999988358],[434843.599999999976717,227134.6],[434839.299999999988358,227135.4],[434835.400000000023283,227136.5],[434831.400000000023283,227137.5],[434827.0,227139.0],[434823.400000000023283,227140.299999999988358],[434820.299999999988358,227141.200000000011642],[434818.200000000011642,227141.6],[434818.0,227141.6],[434816.599999999976717,227141.5],[434813.400000000023283,227142.1],[434810.599999999976717,227142.5],[434806.599999999976717,227143.799999999988358],[434802.599999999976717,227145.200000000011642],[434801.5,227145.4],[434799.200000000011642,227145.9],[434797.799999999988358,227145.9],[434796.400000000023283,227146.0],[434793.299999999988358,227146.799999999988358],[434789.200000000011642,227147.6],[434785.099999999976717,227148.799999999988358],[434780.400000000023283,227149.9],[434777.200000000011642,227150.4],[434775.599999999976717,227150.299999999988358],[434774.299999999988358,227150.1],[434771.400000000023283,227149.200000000011642],[434766.900000000023283,227148.0],[434765.099999999976717,227147.6],[434762.799999999988358,227147.299999999988358],[434762.599999999976717,227147.299999999988358],[434761.299999999988358,227146.9],[434761.099999999976717,227146.9],[434760.0,227147.1],[434758.400000000023283,227147.6],[434755.5,227149.0],[434753.200000000011642,227150.200000000011642],[434750.599999999976717,227151.299999999988358],[434747.400000000023283,227152.700000000011642],[434745.400000000023283,227153.0],[434743.0,227153.4],[434740.229999999981374,227153.88],[434738.56,227154.170000000012806],[434739.669999999983702,227159.269999999989523],[434740.57,227165.07],[434741.770000000018626,227171.170000000012806],[434743.46999999997206,227179.269999999989523],[434745.07,227187.47],[434748.07,227203.97],[434748.96999999997206,227210.07],[434749.87,227213.47],[434750.07,227214.170000000012806],[434751.07,227219.87],[434752.669999999983702,227227.07],[434753.57,227233.269999999989523],[434753.669999999983702,227233.47],[434755.07,227239.670000000012806],[434755.37,227241.07],[434756.669999999983702,227248.97],[434758.37,227258.07],[434759.96999999997206,227266.57],[434761.270000000018626,227273.670000000012806],[434762.169999999983702,227279.769999999989523],[434763.57,227286.269999999989523],[434763.96999999997206,227288.07],[434765.07,227296.07],[434767.46999999997206,227308.87],[434769.87,227321.170000000012806],[434771.46999999997206,227331.87],[434774.07,227345.769999999989523],[434776.37,227359.57],[434777.96999999997206,227368.670000000012806],[434780.270000000018626,227380.07],[434782.07,227389.269999999989523],[434783.57,227397.47],[434784.96999999997206,227406.170000000012806],[434786.770000000018626,227415.670000000012806],[434788.46999999997206,227425.769999999989523],[434790.270000000018626,227436.57],[434792.270000000018626,227449.97],[434793.068000000028405,227454.174999999988358],[434793.37,227455.769999999989523],[434794.96999999997206,227462.57],[434795.96999999997206,227465.769999999989523],[434796.87,227467.97],[434798.37,227470.37],[434799.37,227472.07],[434799.46999999997206,227472.170000000012806],[434799.770000000018626,227472.37],[434800.07,227472.47],[434800.409999999974389,227472.57],[434801.409999999974389,227472.230000000010477],[434801.24,227464.549999999988358],[434802.06,227460.16],[434807.909999999974389,227450.93],[434830.590000000025611,227415.99]],[[434789.07,227311.12],[434940.39000000001397,227250.34],[434951.419999999983702,227269.28],[434804.99,227376.47],[434801.349999999976717,227375.329999999987194],[434789.07,227311.12]]]]}}
]
}
