{
"type": "FeatureCollection",
"crs": { "type": "name", "properties": { "name": "urn:ogc:def:crs:EPSG::27700" } },
"features": [
{ "type": "Feature", "properties": { "mainhabs": "Deciduous woodland", "habcodes": "DWOOD", "featdesc": null, "featcodes": null, "otherclass": null, "addhabs": null, "primsource": "National Forest Inventory 2023 (DWOOD)", "areaha": "9.99", "version": "Sep_25", "uid": "PHID43523506_022698084", "shape_length": null, "shape_area": null, "site": "dunthropfarm", "pid": 0, "method": "sam2" }, "geometry": { "type": "Polygon", "coordinates": [ [ [ 435189.43, 226981.42509135324508 ], [ 435190.43, 226981.42509135324508 ], [ 435190.93, 226982.92509135324508 ], [ 435192.43, 226982.92509135324508 ], [ 435193.93, 226981.42509135324508 ], [ 435195.43, 226981.42509135324508 ], [ 435197.93, 226977.92509135324508 ], [ 435201.43, 226977.92509135324508 ], [ 435198.93, 226978.42509135324508 ], [ 435198.43, 226979.42509135324508 ], [ 435199.93, 226979.92509135324508 ], [ 435200.43, 226981.42509135324508 ], [ 435201.93, 226981.42509135324508 ], [ 435202.43, 226983.92509135324508 ], [ 435203.93, 226983.92509135324508 ], [ 435203.43, 226985.42509135324508 ], [ 435205.43, 226986.42509135324508 ], [ 435208.43, 226985.42509135324508 ], [ 435211.93, 226981.92509135324508 ], [ 435212.43, 226984.92509135324508 ], [ 435213.93, 226986.92509135324508 ], [ 435212.93, 226991.92509135324508 ], [ 435215.43, 226991.92509135324508 ], [ 435215.43, 226994.42509135324508 ], [ 435218.43, 227001.42509135324508 ], [ 435218.43, 227003.42509135324508 ], [ 435222.43, 227012.42509135324508 ], [ 435226.93, 227031.42509135324508 ], [ 435226.93, 227056.42509135324508 ], [ 435225.93, 227059.92509135324508 ], [ 435226.43, 227063.42509135324508 ], [ 435225.43, 227064.42509135324508 ], [ 435224.93, 227068.42509135324508 ], [ 435228.93, 227072.92509135324508 ], [ 435228.93, 227074.92509135324508 ], [ 435215.43, 227093.42509135324508 ], [ 435215.43, 227094.42509135324508 ], [ 435223.43, 227099.42509135324508 ], [ 435238.93, 227087.92509135324508 ], [ 435239.93, 227088.42509135324508 ], [ 435243.93, 227097.92509135324508 ], [ 435298.43, 227094.92509135324508 ], [ 435298.43, 227079.92509135324508 ], [ 435273.93, 227042.92509135324508 ], [ 435273.93, 227040.42509135324508 ], [ 435291.93, 227000.42509135324508 ], [ 435312.43, 226951.42509135324508 ], [ 435318.43, 226939.42509135324508 ], [ 435319.93, 226934.42509135324508 ], [ 435366.43, 226830.92509135324508 ], [ 435367.93, 226825.92509135324508 ], [ 435369.43, 226824.42509135324508 ], [ 435377.93, 226806.42509135324508 ], [ 435386.43, 226793.92509135324508 ], [ 435395.43, 226784.42509135324508 ], [ 435445.93, 226754.42509135324508 ], [ 435455.93, 226746.92509135324508 ], [ 435462.43, 226740.42509135324508 ], [ 435463.43, 226740.42509135324508 ], [ 435479.43, 226724.92509135324508 ], [ 435494.43, 226696.92509135324508 ], [ 435510.43, 226671.42509135324508 ], [ 435516.43, 226664.42509135324508 ], [ 435517.43, 226661.92509135324508 ], [ 435537.43, 226638.92509135324508 ], [ 435538.43, 226638.92509135324508 ], [ 435545.43, 226632.42509135324508 ], [ 435554.43, 226628.42509135324508 ], [ 435554.93, 226627.42509135324508 ], [ 435568.43, 226620.92509135324508 ], [ 435568.93, 226619.92509135324508 ], [ 435590.93, 226608.92509135324508 ], [ 435591.43, 226607.92509135324508 ], [ 435621.43, 226593.92509135324508 ], [ 435658.43, 226597.92509135324508 ], [ 435688.93, 226597.42509135324508 ], [ 435711.43, 226582.92509135324508 ], [ 435730.93, 226566.42509135324508 ], [ 435743.43, 226557.42509135324508 ], [ 435745.43, 226554.92509135324508 ], [ 435747.43, 226547.42509135324508 ], [ 435758.43, 226539.92509135324508 ], [ 435778.93, 226562.42509135324508 ], [ 435786.93, 226555.42509135324508 ], [ 435811.43, 226544.42509135324508 ], [ 435815.93, 226539.92509135324508 ], [ 435817.43, 226536.92509135324508 ], [ 435784.93, 226511.92509135324508 ], [ 435782.93, 226512.92509135324508 ], [ 435781.43, 226511.92509135324508 ], [ 435781.43, 226509.42509135324508 ], [ 435779.93, 226507.92509135324508 ], [ 435776.43, 226505.92509135324508 ], [ 435774.43, 226503.42509135324508 ], [ 435758.43, 226491.42509135324508 ], [ 435756.93, 226489.42509135324508 ], [ 435753.93, 226487.92509135324508 ], [ 435752.43, 226485.92509135324508 ], [ 435751.43, 226485.92509135324508 ], [ 435749.93, 226483.92509135324508 ], [ 435748.93, 226483.92509135324508 ], [ 435734.43, 226470.42509135324508 ], [ 435731.43, 226465.42509135324508 ], [ 435728.93, 226465.92509135324508 ], [ 435718.43, 226475.92509135324508 ], [ 435708.43, 226482.92509135324508 ], [ 435700.93, 226484.42509135324508 ], [ 435685.43, 226483.92509135324508 ], [ 435682.43, 226485.42509135324508 ], [ 435684.43, 226489.92509135324508 ], [ 435680.93, 226491.42509135324508 ], [ 435679.43, 226496.42509135324508 ], [ 435676.43, 226500.42509135324508 ], [ 435656.93, 226510.42509135324508 ], [ 435656.43, 226511.42509135324508 ], [ 435641.93, 226517.92509135324508 ], [ 435635.43, 226517.92509135324508 ], [ 435631.93, 226516.42509135324508 ], [ 435622.43, 226504.92509135324508 ], [ 435622.43, 226503.92509135324508 ], [ 435610.43, 226491.92509135324508 ], [ 435606.43, 226493.42509135324508 ], [ 435620.93, 226547.92509135324508 ], [ 435592.43, 226552.92509135324508 ], [ 435565.43, 226559.92509135324508 ], [ 435547.93, 226565.92509135324508 ], [ 435544.43, 226560.92509135324508 ], [ 435542.93, 226560.92509135324508 ], [ 435537.93, 226557.92509135324508 ], [ 435533.43, 226550.42509135324508 ], [ 435532.93, 226546.42509135324508 ], [ 435537.43, 226541.42509135324508 ], [ 435537.43, 226532.92509135324508 ], [ 435534.43, 226529.92509135324508 ], [ 435530.43, 226528.42509135324508 ], [ 435514.93, 226532.42509135324508 ], [ 435501.93, 226533.92509135324508 ], [ 435496.93, 226535.92509135324508 ], [ 435495.93, 226535.42509135324508 ], [ 435494.93, 226530.92509135324508 ], [ 435491.93, 226531.42509135324508 ], [ 435446.93, 226556.42509135324508 ], [ 435446.93, 226557.92509135324508 ], [ 435452.43, 226563.92509135324508 ], [ 435458.93, 226573.42509135324508 ], [ 435466.43, 226593.42509135324508 ], [ 435471.43, 226602.42509135324508 ], [ 435471.43, 226604.92509135324508 ], [ 435478.43, 226615.42509135324508 ], [ 435463.93, 226630.42509135324508 ], [ 435455.43, 226636.42509135324508 ], [ 435425.93, 226653.42509135324508 ], [ 435417.43, 226662.42509135324508 ], [ 435408.93, 226675.42509135324508 ], [ 435399.43, 226694.92509135324508 ], [ 435392.93, 226704.42509135324508 ], [ 435378.93, 226719.42509135324508 ], [ 435377.93, 226719.42509135324508 ], [ 435360.93, 226735.92509135324508 ], [ 435358.93, 226738.92509135324508 ], [ 435356.43, 226744.92509135324508 ], [ 435347.93, 226758.42509135324508 ], [ 435342.43, 226769.42509135324508 ], [ 435338.93, 226779.42509135324508 ], [ 435335.93, 226794.42509135324508 ], [ 435330.93, 226798.42509135324508 ], [ 435327.93, 226799.42509135324508 ], [ 435327.93, 226755.42509135324508 ], [ 435326.93, 226743.42509135324508 ], [ 435324.93, 226743.42509135324508 ], [ 435314.43, 226760.92509135324508 ], [ 435310.43, 226775.92509135324508 ], [ 435309.43, 226790.92509135324508 ], [ 435305.43, 226796.42509135324508 ], [ 435283.43, 226819.42509135324508 ], [ 435283.43, 226820.42509135324508 ], [ 435267.93, 226836.92509135324508 ], [ 435267.93, 226837.92509135324508 ], [ 435263.93, 226841.42509135324508 ], [ 435263.93, 226842.42509135324508 ], [ 435251.43, 226854.92509135324508 ], [ 435251.43, 226855.92509135324508 ], [ 435244.93, 226861.92509135324508 ], [ 435242.93, 226864.92509135324508 ], [ 435226.93, 226876.92509135324508 ], [ 435225.43, 226878.92509135324508 ], [ 435224.43, 226878.92509135324508 ], [ 435222.43, 226881.42509135324508 ], [ 435221.43, 226881.42509135324508 ], [ 435197.93, 226900.92509135324508 ], [ 435160.93, 226917.42509135324508 ], [ 435144.43, 226919.92509135324508 ], [ 435138.43, 226919.92509135324508 ], [ 435124.93, 226916.42509135324508 ], [ 435081.93, 226916.92509135324508 ], [ 435080.93, 226915.92509135324508 ], [ 435068.93, 226912.42509135324508 ], [ 435061.93, 226912.42509135324508 ], [ 435035.43, 226924.92509135324508 ], [ 435033.43, 226927.92509135324508 ], [ 435034.93, 226939.42509135324508 ], [ 435033.43, 226941.92509135324508 ], [ 435024.43, 226946.92509135324508 ], [ 435018.43, 226948.42509135324508 ], [ 435015.93, 226948.42509135324508 ], [ 435014.43, 226946.42509135324508 ], [ 435012.43, 226945.92509135324508 ], [ 435004.43, 226927.42509135324508 ], [ 435002.93, 226921.42509135324508 ], [ 434999.43, 226920.92509135324508 ], [ 434954.43, 226940.42509135324508 ], [ 434932.93, 226947.92509135324508 ], [ 434914.93, 226956.42509135324508 ], [ 434891.43, 226965.92509135324508 ], [ 434890.93, 226966.92509135324508 ], [ 434883.93, 226969.92509135324508 ], [ 434874.43, 226976.92509135324508 ], [ 434862.93, 226982.92509135324508 ], [ 434853.43, 226989.92509135324508 ], [ 434837.43, 226998.92509135324508 ], [ 434833.43, 227002.42509135324508 ], [ 434823.93, 227004.92509135324508 ], [ 434809.43, 227011.92509135324508 ], [ 434777.93, 227019.42509135324508 ], [ 434756.43, 227023.42509135324508 ], [ 434701.93, 227027.92509135324508 ], [ 434680.43, 227039.42509135324508 ], [ 434675.43, 227033.42509135324508 ], [ 434669.93, 227030.92509135324508 ], [ 434659.93, 227031.42509135324508 ], [ 434652.43, 227033.92509135324508 ], [ 434657.93, 227071.42509135324508 ], [ 434662.93, 227069.42509135324508 ], [ 434674.43, 227068.92509135324508 ], [ 434686.93, 227064.92509135324508 ], [ 434693.93, 227063.92509135324508 ], [ 434709.93, 227058.92509135324508 ], [ 434714.43, 227058.42509135324508 ], [ 434724.43, 227054.92509135324508 ], [ 434764.93, 227046.42509135324508 ], [ 434774.93, 227042.92509135324508 ], [ 434780.93, 227041.92509135324508 ], [ 434795.93, 227036.42509135324508 ], [ 434815.43, 227032.42509135324508 ], [ 434826.93, 227028.92509135324508 ], [ 434856.43, 227023.42509135324508 ], [ 434871.43, 227019.42509135324508 ], [ 434887.43, 227013.42509135324508 ], [ 434903.93, 227004.42509135324508 ], [ 434929.43, 226997.92509135324508 ], [ 434935.43, 226994.42509135324508 ], [ 434948.93, 226989.92509135324508 ], [ 434958.93, 226984.92509135324508 ], [ 434974.43, 226979.42509135324508 ], [ 434980.93, 226979.42509135324508 ], [ 434983.93, 226978.42509135324508 ], [ 434994.93, 226973.42509135324508 ], [ 435000.43, 226971.92509135324508 ], [ 435003.93, 226967.42509135324508 ], [ 435005.93, 226966.42509135324508 ], [ 435034.43, 226956.92509135324508 ], [ 435033.43, 226959.42509135324508 ], [ 435033.93, 226973.92509135324508 ], [ 435036.43, 226979.92509135324508 ], [ 435044.93, 226987.92509135324508 ], [ 435053.43, 226999.42509135324508 ], [ 435065.93, 227011.42509135324508 ], [ 435066.43, 227012.92509135324508 ], [ 435074.43, 227013.92509135324508 ], [ 435079.93, 227016.92509135324508 ], [ 435078.93, 227018.92509135324508 ], [ 435077.93, 227018.92509135324508 ], [ 435075.43, 227016.92509135324508 ], [ 435068.43, 227015.92509135324508 ], [ 435065.43, 227013.92509135324508 ], [ 435063.93, 227013.92509135324508 ], [ 435060.93, 227017.42509135324508 ], [ 435056.93, 227019.42509135324508 ], [ 435054.43, 227021.92509135324508 ], [ 435050.93, 227028.92509135324508 ], [ 435047.93, 227039.92509135324508 ], [ 435036.43, 227047.42509135324508 ], [ 435032.43, 227051.42509135324508 ], [ 435027.93, 227053.42509135324508 ], [ 435029.43, 227055.42509135324508 ], [ 435035.43, 227059.42509135324508 ], [ 435032.93, 227062.92509135324508 ], [ 435039.43, 227067.42509135324508 ], [ 435039.43, 227068.42509135324508 ], [ 435040.93, 227068.42509135324508 ], [ 435041.43, 227069.92509135324508 ], [ 435046.93, 227073.92509135324508 ], [ 435050.43, 227071.42509135324508 ], [ 435050.43, 227067.92509135324508 ], [ 435052.93, 227064.42509135324508 ], [ 435055.43, 227062.92509135324508 ], [ 435060.93, 227062.92509135324508 ], [ 435066.43, 227056.92509135324508 ], [ 435069.43, 227057.42509135324508 ], [ 435073.93, 227052.92509135324508 ], [ 435074.93, 227052.92509135324508 ], [ 435075.43, 227051.42509135324508 ], [ 435076.93, 227050.92509135324508 ], [ 435076.93, 227048.42509135324508 ], [ 435075.93, 227047.92509135324508 ], [ 435076.93, 227046.42509135324508 ], [ 435075.93, 227045.42509135324508 ], [ 435076.93, 227044.42509135324508 ], [ 435084.93, 227045.42509135324508 ], [ 435086.93, 227043.92509135324508 ], [ 435086.93, 227042.92509135324508 ], [ 435090.43, 227041.42509135324508 ], [ 435090.93, 227039.92509135324508 ], [ 435092.43, 227039.92509135324508 ], [ 435092.93, 227038.42509135324508 ], [ 435097.93, 227035.42509135324508 ], [ 435097.93, 227034.42509135324508 ], [ 435099.43, 227034.42509135324508 ], [ 435099.93, 227032.92509135324508 ], [ 435108.43, 227027.42509135324508 ], [ 435113.93, 227022.42509135324508 ], [ 435116.93, 227021.42509135324508 ], [ 435117.43, 227019.92509135324508 ], [ 435122.43, 227016.42509135324508 ], [ 435122.43, 227014.42509135324508 ], [ 435123.43, 227013.92509135324508 ], [ 435122.93, 227012.92509135324508 ], [ 435129.43, 227011.42509135324508 ], [ 435132.43, 227008.92509135324508 ], [ 435132.93, 227007.42509135324508 ], [ 435136.43, 227006.42509135324508 ], [ 435137.93, 227004.42509135324508 ], [ 435143.43, 227002.42509135324508 ], [ 435143.93, 227001.42509135324508 ], [ 435145.43, 227001.42509135324508 ], [ 435145.43, 227000.42509135324508 ], [ 435149.43, 226997.92509135324508 ], [ 435151.93, 226997.92509135324508 ], [ 435160.93, 226992.42509135324508 ], [ 435162.93, 226992.92509135324508 ], [ 435164.93, 226988.42509135324508 ], [ 435165.93, 226988.42509135324508 ], [ 435165.93, 226989.92509135324508 ], [ 435167.93, 226990.42509135324508 ], [ 435168.93, 226988.92509135324508 ], [ 435172.43, 226988.42509135324508 ], [ 435173.43, 226986.42509135324508 ], [ 435171.93, 226984.92509135324508 ], [ 435183.43, 226981.42509135324508 ], [ 435183.93, 226982.42509135324508 ], [ 435180.43, 226983.42509135324508 ], [ 435180.93, 226984.92509135324508 ], [ 435184.43, 226984.92509135324508 ], [ 435186.43, 226982.92509135324508 ], [ 435188.43, 226983.42509135324508 ], [ 435189.43, 226982.92509135324508 ], [ 435189.43, 226981.42509135324508 ] ], [ [ 435188.43, 226981.42509135324508 ], [ 435188.43, 226980.92509135324508 ], [ 435189.43, 226980.92509135324508 ], [ 435189.43, 226981.42509135324508 ], [ 435188.43, 226981.42509135324508 ] ], [ [ 435327.93, 226799.42509135324508 ], [ 435327.93, 226799.92509135324508 ], [ 435327.43, 226799.92509135324508 ], [ 435327.43, 226799.42509135324508 ], [ 435327.93, 226799.42509135324508 ] ], [ [ 435194.93, 226979.42509135324508 ], [ 435194.93, 226978.42509135324508 ], [ 435195.43, 226978.42509135324508 ], [ 435195.43, 226979.42509135324508 ], [ 435194.93, 226979.42509135324508 ] ], [ [ 435190.43, 226979.92509135324508 ], [ 435190.43, 226979.42509135324508 ], [ 435190.93, 226979.42509135324508 ], [ 435190.93, 226979.92509135324508 ], [ 435190.43, 226979.92509135324508 ] ], [ [ 435187.93, 226980.42509135324508 ], [ 435187.93, 226979.92509135324508 ], [ 435188.43, 226979.92509135324508 ], [ 435188.43, 226980.42509135324508 ], [ 435187.93, 226980.42509135324508 ] ], [ [ 435185.93, 226980.92509135324508 ], [ 435185.93, 226980.42509135324508 ], [ 435186.43, 226980.42509135324508 ], [ 435186.43, 226980.92509135324508 ], [ 435185.93, 226980.92509135324508 ] ], [ [ 435184.43, 226981.42509135324508 ], [ 435184.43, 226980.92509135324508 ], [ 435185.43, 226980.92509135324508 ], [ 435185.43, 226981.42509135324508 ], [ 435184.43, 226981.42509135324508 ] ], [ [ 435169.43, 226986.92509135324508 ], [ 435169.43, 226986.42509135324508 ], [ 435169.93, 226986.42509135324508 ], [ 435169.93, 226986.92509135324508 ], [ 435169.43, 226986.92509135324508 ] ], [ [ 435167.93, 226986.92509135324508 ], [ 435167.93, 226986.42509135324508 ], [ 435168.43, 226986.42509135324508 ], [ 435168.43, 226986.92509135324508 ], [ 435167.93, 226986.92509135324508 ] ], [ [ 435168.43, 226986.92509135324508 ], [ 435168.93, 226986.92509135324508 ], [ 435168.93, 226987.42509135324508 ], [ 435168.43, 226987.42509135324508 ], [ 435168.43, 226986.92509135324508 ] ], [ [ 435166.93, 226988.42509135324508 ], [ 435166.93, 226987.92509135324508 ], [ 435167.43, 226987.92509135324508 ], [ 435167.43, 226988.42509135324508 ], [ 435166.93, 226988.42509135324508 ] ], [ [ 435162.43, 226990.92509135324508 ], [ 435162.43, 226989.92509135324508 ], [ 435162.93, 226989.92509135324508 ], [ 435162.93, 226990.92509135324508 ], [ 435162.43, 226990.92509135324508 ] ], [ [ 435162.93, 226990.92509135324508 ], [ 435163.43, 226990.92509135324508 ], [ 435163.43, 226991.42509135324508 ], [ 435162.93, 226991.42509135324508 ], [ 435162.93, 226990.92509135324508 ] ], [ [ 435159.43, 226991.42509135324508 ], [ 435157.43, 226990.42509135324508 ], [ 435161.93, 226989.92509135324508 ], [ 435161.43, 226991.42509135324508 ], [ 435159.43, 226991.42509135324508 ] ], [ [ 435150.93, 226994.42509135324508 ], [ 435150.93, 226993.42509135324508 ], [ 435152.43, 226993.42509135324508 ], [ 435151.93, 226994.42509135324508 ], [ 435150.93, 226994.42509135324508 ] ], [ [ 435145.43, 226996.92509135324508 ], [ 435145.43, 226996.42509135324508 ], [ 435146.43, 226996.42509135324508 ], [ 435146.43, 226996.92509135324508 ], [ 435145.43, 226996.92509135324508 ] ], [ [ 435146.43, 226996.42509135324508 ], [ 435146.43, 226995.92509135324508 ], [ 435146.93, 226995.92509135324508 ], [ 435146.93, 226996.42509135324508 ], [ 435146.43, 226996.42509135324508 ] ], [ [ 435144.93, 226998.42509135324508 ], [ 435144.93, 226997.92509135324508 ], [ 435145.43, 226997.92509135324508 ], [ 435145.43, 226998.42509135324508 ], [ 435144.93, 226998.42509135324508 ] ], [ [ 435145.43, 226998.42509135324508 ], [ 435145.93, 226998.42509135324508 ], [ 435145.93, 226998.92509135324508 ], [ 435145.43, 226998.92509135324508 ], [ 435145.43, 226998.42509135324508 ] ], [ [ 435140.43, 227002.42509135324508 ], [ 435140.43, 227001.92509135324508 ], [ 435140.93, 227001.92509135324508 ], [ 435140.93, 227002.42509135324508 ], [ 435140.43, 227002.42509135324508 ] ], [ [ 435136.93, 227003.92509135324508 ], [ 435136.93, 227002.92509135324508 ], [ 435134.93, 227002.92509135324508 ], [ 435135.93, 227001.42509135324508 ], [ 435137.93, 227002.42509135324508 ], [ 435138.43, 227001.42509135324508 ], [ 435138.43, 227002.42509135324508 ], [ 435139.43, 227002.42509135324508 ], [ 435139.43, 227002.92509135324508 ], [ 435136.93, 227003.92509135324508 ] ], [ [ 435134.93, 227004.92509135324508 ], [ 435134.93, 227003.92509135324508 ], [ 435135.43, 227003.92509135324508 ], [ 435135.43, 227004.92509135324508 ], [ 435134.93, 227004.92509135324508 ] ], [ [ 435132.93, 227003.92509135324508 ], [ 435132.93, 227003.42509135324508 ], [ 435133.43, 227003.42509135324508 ], [ 435133.43, 227003.92509135324508 ], [ 435132.93, 227003.92509135324508 ] ], [ [ 435132.43, 227005.92509135324508 ], [ 435132.43, 227005.42509135324508 ], [ 435132.93, 227005.42509135324508 ], [ 435132.93, 227005.92509135324508 ], [ 435132.43, 227005.92509135324508 ] ], [ [ 435132.93, 227005.42509135324508 ], [ 435132.93, 227004.92509135324508 ], [ 435133.43, 227004.92509135324508 ], [ 435133.43, 227005.42509135324508 ], [ 435132.93, 227005.42509135324508 ] ], [ [ 435130.93, 227007.42509135324508 ], [ 435130.93, 227006.92509135324508 ], [ 435132.43, 227006.92509135324508 ], [ 435132.43, 227007.42509135324508 ], [ 435130.93, 227007.42509135324508 ] ], [ [ 435130.93, 227005.92509135324508 ], [ 435130.93, 227005.42509135324508 ], [ 435131.93, 227005.42509135324508 ], [ 435131.93, 227005.92509135324508 ], [ 435130.93, 227005.92509135324508 ] ], [ [ 435130.43, 227008.42509135324508 ], [ 435130.43, 227007.92509135324508 ], [ 435130.93, 227007.92509135324508 ], [ 435130.93, 227008.42509135324508 ], [ 435130.43, 227008.42509135324508 ] ], [ [ 435127.93, 227008.42509135324508 ], [ 435127.93, 227007.92509135324508 ], [ 435128.43, 227007.92509135324508 ], [ 435128.43, 227008.42509135324508 ], [ 435127.93, 227008.42509135324508 ] ], [ [ 435128.43, 227007.92509135324508 ], [ 435128.43, 227007.42509135324508 ], [ 435129.43, 227007.42509135324508 ], [ 435129.43, 227007.92509135324508 ], [ 435128.43, 227007.92509135324508 ] ], [ [ 435128.43, 227008.42509135324508 ], [ 435128.93, 227008.42509135324508 ], [ 435128.93, 227008.92509135324508 ], [ 435128.43, 227008.92509135324508 ], [ 435128.43, 227008.42509135324508 ] ], [ [ 435125.43, 227009.92509135324508 ], [ 435125.43, 227009.42509135324508 ], [ 435126.43, 227009.42509135324508 ], [ 435126.43, 227009.92509135324508 ], [ 435125.43, 227009.92509135324508 ] ], [ [ 435126.43, 227009.42509135324508 ], [ 435126.43, 227008.42509135324508 ], [ 435126.93, 227008.42509135324508 ], [ 435126.93, 227009.42509135324508 ], [ 435126.43, 227009.42509135324508 ] ], [ [ 435120.93, 227012.92509135324508 ], [ 435121.43, 227011.92509135324508 ], [ 435123.93, 227010.42509135324508 ], [ 435122.43, 227012.92509135324508 ], [ 435120.93, 227012.92509135324508 ] ], [ [ 435121.43, 227015.42509135324508 ], [ 435121.43, 227014.92509135324508 ], [ 435121.93, 227014.92509135324508 ], [ 435121.93, 227015.42509135324508 ], [ 435121.43, 227015.42509135324508 ] ], [ [ 435120.93, 227014.42509135324508 ], [ 435120.93, 227013.92509135324508 ], [ 435121.43, 227013.92509135324508 ], [ 435121.43, 227014.42509135324508 ], [ 435120.93, 227014.42509135324508 ] ], [ [ 435117.43, 227016.92509135324508 ], [ 435117.43, 227016.42509135324508 ], [ 435117.93, 227016.42509135324508 ], [ 435117.93, 227016.92509135324508 ], [ 435117.43, 227016.92509135324508 ] ], [ [ 435115.43, 227017.42509135324508 ], [ 435115.43, 227016.92509135324508 ], [ 435115.93, 227016.92509135324508 ], [ 435115.93, 227017.42509135324508 ], [ 435115.43, 227017.42509135324508 ] ], [ [ 435115.93, 227017.42509135324508 ], [ 435116.43, 227017.42509135324508 ], [ 435116.43, 227018.42509135324508 ], [ 435115.93, 227018.42509135324508 ], [ 435115.93, 227017.42509135324508 ] ], [ [ 435094.93, 227035.42509135324508 ], [ 435094.93, 227034.92509135324508 ], [ 435095.43, 227034.92509135324508 ], [ 435095.43, 227035.42509135324508 ], [ 435094.93, 227035.42509135324508 ] ], [ [ 435088.43, 227038.92509135324508 ], [ 435088.43, 227038.42509135324508 ], [ 435088.93, 227038.42509135324508 ], [ 435088.93, 227038.92509135324508 ], [ 435088.43, 227038.92509135324508 ] ], [ [ 435084.93, 227041.92509135324508 ], [ 435084.93, 227041.42509135324508 ], [ 435085.43, 227041.42509135324508 ], [ 435085.43, 227041.92509135324508 ], [ 435084.93, 227041.92509135324508 ] ], [ [ 435058.93, 227039.92509135324508 ], [ 435061.43, 227036.92509135324508 ], [ 435062.43, 227037.42509135324508 ], [ 435062.43, 227039.42509135324508 ], [ 435058.93, 227039.92509135324508 ] ] ] } },
{ "type": "Feature", "properties": { "mainhabs": "Lowland meadows", "habcodes": "LMEAD", "featdesc": null, "featcodes": null, "otherclass": null, "addhabs": null, "primsource": "Vegetation survey from or on behalf of landowner 2024 (LMEAD)", "areaha": "4.86", "version": "Sep_25", "uid": "PHID43489120_022719782", "shape_length": null, "shape_area": null, "site": "dunthropfarm", "pid": 1, "method": "sam2" }, "geometry": { "type": "MultiPolygon", "coordinates": [ [ [ [ 434808.43, 227447.92509135324508 ], [ 434809.43, 227446.92509135324508 ], [ 434811.43, 227447.42509135324508 ], [ 434811.93, 227446.42509135324508 ], [ 434810.93, 227444.92509135324508 ], [ 434813.93, 227442.42509135324508 ], [ 434815.43, 227442.92509135324508 ], [ 434817.93, 227439.42509135324508 ], [ 434819.43, 227438.92509135324508 ], [ 434819.43, 227436.92509135324508 ], [ 434821.43, 227435.92509135324508 ], [ 434823.43, 227433.42509135324508 ], [ 434823.43, 227431.92509135324508 ], [ 434824.93, 227431.42509135324508 ], [ 434823.93, 227429.42509135324508 ], [ 434824.93, 227428.92509135324508 ], [ 434824.93, 227427.42509135324508 ], [ 434826.43, 227426.92509135324508 ], [ 434827.43, 227427.92509135324508 ], [ 434828.43, 227425.92509135324508 ], [ 434830.93, 227424.42509135324508 ], [ 434830.93, 227419.92509135324508 ], [ 434836.43, 227413.92509135324508 ], [ 434835.93, 227411.42509135324508 ], [ 434836.93, 227409.42509135324508 ], [ 434839.43, 227407.92509135324508 ], [ 434838.93, 227404.42509135324508 ], [ 434840.93, 227398.92509135324508 ], [ 434840.43, 227395.92509135324508 ], [ 434842.43, 227395.92509135324508 ], [ 434842.43, 227394.92509135324508 ], [ 434844.93, 227394.42509135324508 ], [ 434848.43, 227389.42509135324508 ], [ 434850.43, 227390.92509135324508 ], [ 434852.43, 227390.92509135324508 ], [ 434854.43, 227389.42509135324508 ], [ 434853.43, 227385.92509135324508 ], [ 434854.43, 227385.92509135324508 ], [ 434854.43, 227384.42509135324508 ], [ 434856.43, 227381.42509135324508 ], [ 434859.43, 227380.42509135324508 ], [ 434860.93, 227373.42509135324508 ], [ 434863.93, 227368.92509135324508 ], [ 434867.93, 227367.92509135324508 ], [ 434869.93, 227369.92509135324508 ], [ 434872.43, 227370.42509135324508 ], [ 434873.43, 227369.42509135324508 ], [ 434872.43, 227368.92509135324508 ], [ 434873.43, 227367.42509135324508 ], [ 434874.43, 227368.42509135324508 ], [ 434875.93, 227366.92509135324508 ], [ 434877.43, 227368.42509135324508 ], [ 434877.93, 227366.92509135324508 ], [ 434876.43, 227365.92509135324508 ], [ 434877.43, 227364.42509135324508 ], [ 434876.93, 227361.92509135324508 ], [ 434879.43, 227359.92509135324508 ], [ 434879.43, 227358.92509135324508 ], [ 434880.93, 227358.42509135324508 ], [ 434880.93, 227357.42509135324508 ], [ 434882.43, 227357.42509135324508 ], [ 434882.93, 227358.92509135324508 ], [ 434885.43, 227358.92509135324508 ], [ 434890.93, 227349.92509135324508 ], [ 434893.93, 227348.92509135324508 ], [ 434900.93, 227342.92509135324508 ], [ 434902.43, 227342.92509135324508 ], [ 434902.43, 227341.92509135324508 ], [ 434904.93, 227341.42509135324508 ], [ 434907.93, 227337.42509135324508 ], [ 434909.43, 227337.42509135324508 ], [ 434912.43, 227334.42509135324508 ], [ 434915.93, 227332.92509135324508 ], [ 434918.93, 227328.92509135324508 ], [ 434922.93, 227327.42509135324508 ], [ 434924.93, 227325.42509135324508 ], [ 434924.93, 227322.92509135324508 ], [ 434927.43, 227323.42509135324508 ], [ 434930.93, 227320.42509135324508 ], [ 434933.43, 227319.92509135324508 ], [ 434936.43, 227314.42509135324508 ], [ 434939.43, 227314.42509135324508 ], [ 434939.43, 227313.42509135324508 ], [ 434940.43, 227313.42509135324508 ], [ 434943.43, 227309.92509135324508 ], [ 434944.43, 227310.92509135324508 ], [ 434946.43, 227307.42509135324508 ], [ 434947.43, 227307.92509135324508 ], [ 434950.43, 227304.92509135324508 ], [ 434950.93, 227305.92509135324508 ], [ 434952.43, 227305.92509135324508 ], [ 434954.43, 227303.92509135324508 ], [ 434954.43, 227302.92509135324508 ], [ 434952.93, 227302.42509135324508 ], [ 434949.43, 227304.42509135324508 ], [ 434946.93, 227302.92509135324508 ], [ 434945.93, 227304.42509135324508 ], [ 434945.43, 227301.92509135324508 ], [ 434947.93, 227301.42509135324508 ], [ 434948.43, 227299.92509135324508 ], [ 434949.43, 227301.42509135324508 ], [ 434950.93, 227301.42509135324508 ], [ 434951.93, 227299.92509135324508 ], [ 434952.93, 227301.42509135324508 ], [ 434953.93, 227299.92509135324508 ], [ 434955.43, 227299.92509135324508 ], [ 434955.43, 227301.42509135324508 ], [ 434957.43, 227301.42509135324508 ], [ 434959.43, 227299.42509135324508 ], [ 434963.43, 227297.92509135324508 ], [ 434966.43, 227292.42509135324508 ], [ 434968.43, 227292.92509135324508 ], [ 434972.43, 227290.92509135324508 ], [ 434977.43, 227285.92509135324508 ], [ 434981.93, 227284.42509135324508 ], [ 434982.93, 227282.92509135324508 ], [ 434982.43, 227280.42509135324508 ], [ 434983.93, 227279.92509135324508 ], [ 434983.93, 227278.92509135324508 ], [ 434985.93, 227280.42509135324508 ], [ 434988.43, 227277.42509135324508 ], [ 434989.93, 227278.42509135324508 ], [ 434992.43, 227276.92509135324508 ], [ 434992.43, 227275.92509135324508 ], [ 434993.43, 227275.92509135324508 ], [ 434992.43, 227272.92509135324508 ], [ 434992.43, 227267.92509135324508 ], [ 434993.93, 227265.92509135324508 ], [ 434996.43, 227264.42509135324508 ], [ 434996.93, 227265.92509135324508 ], [ 434998.93, 227265.42509135324508 ], [ 434999.93, 227266.92509135324508 ], [ 435001.93, 227267.42509135324508 ], [ 435002.43, 227266.42509135324508 ], [ 435000.43, 227263.92509135324508 ], [ 435000.93, 227261.42509135324508 ], [ 435002.43, 227261.42509135324508 ], [ 435002.43, 227264.42509135324508 ], [ 435003.43, 227265.42509135324508 ], [ 435003.93, 227264.42509135324508 ], [ 435005.43, 227264.42509135324508 ], [ 435005.43, 227262.92509135324508 ], [ 435006.43, 227262.92509135324508 ], [ 435005.43, 227258.92509135324508 ], [ 435007.43, 227257.42509135324508 ], [ 435010.93, 227257.42509135324508 ], [ 435012.43, 227255.42509135324508 ], [ 435011.93, 227252.92509135324508 ], [ 435012.93, 227251.42509135324508 ], [ 435015.43, 227251.92509135324508 ], [ 435016.43, 227250.92509135324508 ], [ 435020.43, 227255.42509135324508 ], [ 435021.43, 227255.42509135324508 ], [ 435021.93, 227253.92509135324508 ], [ 435020.93, 227253.42509135324508 ], [ 435020.93, 227251.92509135324508 ], [ 435024.43, 227250.92509135324508 ], [ 435024.43, 227248.92509135324508 ], [ 435025.43, 227248.42509135324508 ], [ 435024.93, 227244.42509135324508 ], [ 435026.93, 227242.92509135324508 ], [ 435026.93, 227240.92509135324508 ], [ 435027.93, 227239.92509135324508 ], [ 435032.43, 227239.42509135324508 ], [ 435033.93, 227243.42509135324508 ], [ 435035.93, 227241.92509135324508 ], [ 435036.93, 227242.42509135324508 ], [ 435036.93, 227241.42509135324508 ], [ 435039.43, 227241.42509135324508 ], [ 435039.43, 227239.92509135324508 ], [ 435036.93, 227240.92509135324508 ], [ 435036.93, 227239.92509135324508 ], [ 435035.43, 227239.42509135324508 ], [ 435035.93, 227235.92509135324508 ], [ 435038.43, 227235.92509135324508 ], [ 435040.93, 227233.42509135324508 ], [ 435040.93, 227229.92509135324508 ], [ 435039.43, 227227.92509135324508 ], [ 435039.43, 227225.92509135324508 ], [ 435037.93, 227224.92509135324508 ], [ 435037.43, 227221.42509135324508 ], [ 435035.43, 227219.92509135324508 ], [ 435035.43, 227216.42509135324508 ], [ 435033.93, 227215.92509135324508 ], [ 435033.93, 227214.42509135324508 ], [ 435032.93, 227214.42509135324508 ], [ 435031.93, 227211.42509135324508 ], [ 435030.93, 227211.42509135324508 ], [ 435030.93, 227208.42509135324508 ], [ 435029.43, 227207.42509135324508 ], [ 435028.93, 227204.92509135324508 ], [ 435026.93, 227204.42509135324508 ], [ 435025.43, 227200.42509135324508 ], [ 435023.93, 227199.42509135324508 ], [ 435022.93, 227194.92509135324508 ], [ 435020.93, 227193.42509135324508 ], [ 435020.93, 227191.92509135324508 ], [ 435018.93, 227189.42509135324508 ], [ 435016.43, 227180.92509135324508 ], [ 435012.93, 227176.92509135324508 ], [ 435012.43, 227173.42509135324508 ], [ 435010.93, 227172.92509135324508 ], [ 435010.93, 227169.92509135324508 ], [ 435009.43, 227168.42509135324508 ], [ 435009.43, 227166.42509135324508 ], [ 435007.93, 227165.92509135324508 ], [ 435006.43, 227162.92509135324508 ], [ 435005.43, 227156.92509135324508 ], [ 435003.93, 227154.42509135324508 ], [ 435003.93, 227151.42509135324508 ], [ 435002.93, 227151.42509135324508 ], [ 435000.93, 227147.92509135324508 ], [ 434998.43, 227137.42509135324508 ], [ 434995.93, 227134.42509135324508 ], [ 434994.93, 227129.92509135324508 ], [ 434993.93, 227129.92509135324508 ], [ 434994.93, 227128.42509135324508 ], [ 434993.93, 227126.42509135324508 ], [ 434993.93, 227119.42509135324508 ], [ 434992.43, 227115.92509135324508 ], [ 434991.43, 227115.92509135324508 ], [ 434990.93, 227112.92509135324508 ], [ 434989.43, 227112.92509135324508 ], [ 434987.93, 227115.92509135324508 ], [ 434987.93, 227118.42509135324508 ], [ 434984.93, 227122.92509135324508 ], [ 434979.93, 227123.42509135324508 ], [ 434979.43, 227124.42509135324508 ], [ 434976.93, 227123.42509135324508 ], [ 434973.93, 227123.92509135324508 ], [ 434972.43, 227124.92509135324508 ], [ 434972.43, 227126.42509135324508 ], [ 434970.93, 227125.92509135324508 ], [ 434966.43, 227129.92509135324508 ], [ 434961.93, 227130.42509135324508 ], [ 434961.43, 227131.42509135324508 ], [ 434959.43, 227129.92509135324508 ], [ 434955.93, 227129.92509135324508 ], [ 434954.93, 227128.42509135324508 ], [ 434953.43, 227128.42509135324508 ], [ 434952.43, 227127.42509135324508 ], [ 434952.43, 227124.92509135324508 ], [ 434949.93, 227124.42509135324508 ], [ 434948.93, 227126.42509135324508 ], [ 434947.43, 227125.92509135324508 ], [ 434943.93, 227128.92509135324508 ], [ 434943.43, 227132.92509135324508 ], [ 434941.43, 227133.42509135324508 ], [ 434940.93, 227134.92509135324508 ], [ 434937.93, 227136.92509135324508 ], [ 434935.43, 227136.42509135324508 ], [ 434936.93, 227134.42509135324508 ], [ 434934.93, 227132.42509135324508 ], [ 434932.43, 227133.42509135324508 ], [ 434932.43, 227134.92509135324508 ], [ 434933.43, 227135.42509135324508 ], [ 434932.93, 227136.92509135324508 ], [ 434929.43, 227136.92509135324508 ], [ 434928.43, 227134.92509135324508 ], [ 434925.43, 227134.92509135324508 ], [ 434923.93, 227136.92509135324508 ], [ 434917.93, 227136.92509135324508 ], [ 434915.93, 227134.42509135324508 ], [ 434913.93, 227134.42509135324508 ], [ 434910.43, 227131.92509135324508 ], [ 434907.93, 227134.42509135324508 ], [ 434905.93, 227134.42509135324508 ], [ 434903.93, 227135.92509135324508 ], [ 434894.43, 227137.42509135324508 ], [ 434890.43, 227140.92509135324508 ], [ 434887.93, 227139.92509135324508 ], [ 434887.93, 227138.92509135324508 ], [ 434885.43, 227138.42509135324508 ], [ 434884.93, 227139.92509135324508 ], [ 434882.93, 227139.92509135324508 ], [ 434880.93, 227142.92509135324508 ], [ 434879.43, 227142.92509135324508 ], [ 434878.93, 227144.42509135324508 ], [ 434876.43, 227144.42509135324508 ], [ 434875.93, 227145.92509135324508 ], [ 434872.43, 227145.92509135324508 ], [ 434871.43, 227144.92509135324508 ], [ 434861.43, 227146.42509135324508 ], [ 434856.43, 227145.92509135324508 ], [ 434855.93, 227146.92509135324508 ], [ 434853.43, 227147.42509135324508 ], [ 434852.43, 227149.42509135324508 ], [ 434842.93, 227149.92509135324508 ], [ 434840.93, 227151.42509135324508 ], [ 434819.43, 227150.42509135324508 ], [ 434818.93, 227151.42509135324508 ], [ 434814.93, 227151.42509135324508 ], [ 434814.43, 227152.42509135324508 ], [ 434812.43, 227151.92509135324508 ], [ 434809.43, 227154.42509135324508 ], [ 434809.43, 227155.92509135324508 ], [ 434806.93, 227156.92509135324508 ], [ 434805.93, 227158.42509135324508 ], [ 434803.43, 227158.42509135324508 ], [ 434802.43, 227159.92509135324508 ], [ 434799.43, 227159.92509135324508 ], [ 434796.43, 227162.92509135324508 ], [ 434794.43, 227162.42509135324508 ], [ 434791.93, 227163.92509135324508 ], [ 434790.93, 227163.92509135324508 ], [ 434790.93, 227162.92509135324508 ], [ 434787.93, 227162.92509135324508 ], [ 434784.93, 227164.42509135324508 ], [ 434777.93, 227165.42509135324508 ], [ 434773.93, 227164.92509135324508 ], [ 434772.43, 227166.92509135324508 ], [ 434771.43, 227165.92509135324508 ], [ 434769.43, 227167.42509135324508 ], [ 434769.43, 227168.42509135324508 ], [ 434767.93, 227168.42509135324508 ], [ 434767.93, 227167.42509135324508 ], [ 434766.43, 227167.42509135324508 ], [ 434766.43, 227168.42509135324508 ], [ 434763.43, 227168.42509135324508 ], [ 434764.43, 227170.42509135324508 ], [ 434762.93, 227171.92509135324508 ], [ 434756.93, 227171.92509135324508 ], [ 434760.93, 227189.92509135324508 ], [ 434760.93, 227194.42509135324508 ], [ 434761.93, 227195.92509135324508 ], [ 434761.93, 227196.92509135324508 ], [ 434759.93, 227197.42509135324508 ], [ 434759.43, 227198.42509135324508 ], [ 434760.43, 227199.42509135324508 ], [ 434761.43, 227198.42509135324508 ], [ 434762.43, 227199.92509135324508 ], [ 434764.93, 227214.42509135324508 ], [ 434766.43, 227214.42509135324508 ], [ 434765.43, 227215.92509135324508 ], [ 434766.43, 227216.92509135324508 ], [ 434766.43, 227220.92509135324508 ], [ 434769.43, 227227.42509135324508 ], [ 434769.43, 227237.92509135324508 ], [ 434770.93, 227242.42509135324508 ], [ 434772.93, 227263.92509135324508 ], [ 434773.43, 227266.42509135324508 ], [ 434774.43, 227266.92509135324508 ], [ 434773.43, 227269.42509135324508 ], [ 434774.93, 227269.92509135324508 ], [ 434774.93, 227277.92509135324508 ], [ 434776.43, 227278.92509135324508 ], [ 434775.93, 227284.92509135324508 ], [ 434776.93, 227287.42509135324508 ], [ 434776.43, 227290.92509135324508 ], [ 434777.43, 227291.42509135324508 ], [ 434777.93, 227293.42509135324508 ], [ 434777.93, 227299.42509135324508 ], [ 434780.93, 227302.42509135324508 ], [ 434780.43, 227303.92509135324508 ], [ 434781.93, 227305.42509135324508 ], [ 434784.93, 227305.42509135324508 ], [ 434788.43, 227302.92509135324508 ], [ 434792.43, 227302.42509135324508 ], [ 434794.43, 227301.42509135324508 ], [ 434794.93, 227299.92509135324508 ], [ 434797.43, 227299.92509135324508 ], [ 434797.93, 227298.92509135324508 ], [ 434802.43, 227297.92509135324508 ], [ 434803.43, 227296.42509135324508 ], [ 434807.93, 227295.92509135324508 ], [ 434807.93, 227294.92509135324508 ], [ 434810.93, 227294.42509135324508 ], [ 434812.43, 227292.92509135324508 ], [ 434816.43, 227292.42509135324508 ], [ 434819.93, 227290.92509135324508 ], [ 434820.93, 227289.42509135324508 ], [ 434829.43, 227287.42509135324508 ], [ 434830.43, 227285.92509135324508 ], [ 434834.93, 227285.92509135324508 ], [ 434834.93, 227284.92509135324508 ], [ 434837.93, 227283.92509135324508 ], [ 434837.93, 227282.92509135324508 ], [ 434844.43, 227281.92509135324508 ], [ 434847.93, 227279.42509135324508 ], [ 434852.93, 227278.92509135324508 ], [ 434853.93, 227277.42509135324508 ], [ 434862.43, 227275.42509135324508 ], [ 434862.93, 227274.42509135324508 ], [ 434864.93, 227273.92509135324508 ], [ 434864.93, 227272.92509135324508 ], [ 434870.93, 227271.42509135324508 ], [ 434870.93, 227270.42509135324508 ], [ 434873.93, 227269.92509135324508 ], [ 434875.93, 227268.42509135324508 ], [ 434881.43, 227267.42509135324508 ], [ 434882.93, 227265.92509135324508 ], [ 434884.93, 227265.92509135324508 ], [ 434884.93, 227264.92509135324508 ], [ 434887.93, 227264.42509135324508 ], [ 434888.93, 227262.92509135324508 ], [ 434890.93, 227262.92509135324508 ], [ 434891.93, 227261.42509135324508 ], [ 434897.43, 227260.92509135324508 ], [ 434901.43, 227258.42509135324508 ], [ 434905.43, 227257.92509135324508 ], [ 434908.93, 227255.92509135324508 ], [ 434911.43, 227255.92509135324508 ], [ 434912.43, 227254.42509135324508 ], [ 434914.93, 227254.42509135324508 ], [ 434915.93, 227252.92509135324508 ], [ 434917.93, 227252.92509135324508 ], [ 434920.93, 227250.92509135324508 ], [ 434923.43, 227250.92509135324508 ], [ 434924.93, 227249.42509135324508 ], [ 434929.43, 227248.42509135324508 ], [ 434929.43, 227247.42509135324508 ], [ 434932.43, 227247.42509135324508 ], [ 434933.93, 227245.92509135324508 ], [ 434937.43, 227245.42509135324508 ], [ 434938.43, 227244.42509135324508 ], [ 434940.93, 227244.42509135324508 ], [ 434946.43, 227247.42509135324508 ], [ 434946.93, 227249.42509135324508 ], [ 434949.43, 227250.92509135324508 ], [ 434951.43, 227254.42509135324508 ], [ 434952.43, 227254.42509135324508 ], [ 434952.43, 227257.42509135324508 ], [ 434955.43, 227260.42509135324508 ], [ 434955.43, 227262.92509135324508 ], [ 434957.93, 227265.92509135324508 ], [ 434958.43, 227272.92509135324508 ], [ 434955.93, 227275.92509135324508 ], [ 434955.43, 227278.92509135324508 ], [ 434951.93, 227282.42509135324508 ], [ 434950.43, 227281.92509135324508 ], [ 434949.43, 227282.92509135324508 ], [ 434949.43, 227284.92509135324508 ], [ 434946.43, 227285.92509135324508 ], [ 434946.43, 227287.42509135324508 ], [ 434945.43, 227287.42509135324508 ], [ 434944.93, 227288.92509135324508 ], [ 434943.43, 227289.92509135324508 ], [ 434941.43, 227288.92509135324508 ], [ 434940.93, 227290.92509135324508 ], [ 434938.43, 227291.92509135324508 ], [ 434934.93, 227294.92509135324508 ], [ 434934.93, 227295.92509135324508 ], [ 434932.43, 227295.92509135324508 ], [ 434930.93, 227298.92509135324508 ], [ 434929.43, 227298.92509135324508 ], [ 434928.93, 227299.92509135324508 ], [ 434926.93, 227299.42509135324508 ], [ 434923.93, 227301.92509135324508 ], [ 434923.93, 227302.92509135324508 ], [ 434920.93, 227303.92509135324508 ], [ 434919.43, 227307.42509135324508 ], [ 434916.93, 227307.42509135324508 ], [ 434913.93, 227310.92509135324508 ], [ 434912.43, 227310.42509135324508 ], [ 434911.93, 227312.92509135324508 ], [ 434908.93, 227313.42509135324508 ], [ 434904.93, 227317.42509135324508 ], [ 434903.43, 227317.42509135324508 ], [ 434902.43, 227319.92509135324508 ], [ 434897.93, 227321.42509135324508 ], [ 434897.93, 227323.42509135324508 ], [ 434896.43, 227324.92509135324508 ], [ 434894.43, 227323.92509135324508 ], [ 434890.93, 227327.92509135324508 ], [ 434888.93, 227327.92509135324508 ], [ 434884.43, 227331.92509135324508 ], [ 434883.43, 227331.42509135324508 ], [ 434881.93, 227334.42509135324508 ], [ 434879.43, 227334.42509135324508 ], [ 434875.43, 227338.42509135324508 ], [ 434873.93, 227338.42509135324508 ], [ 434871.43, 227341.42509135324508 ], [ 434868.43, 227341.92509135324508 ], [ 434866.93, 227344.42509135324508 ], [ 434864.93, 227344.42509135324508 ], [ 434864.93, 227345.42509135324508 ], [ 434860.93, 227348.92509135324508 ], [ 434858.43, 227348.92509135324508 ], [ 434856.93, 227349.92509135324508 ], [ 434854.93, 227352.92509135324508 ], [ 434852.93, 227353.42509135324508 ], [ 434852.43, 227355.42509135324508 ], [ 434849.43, 227355.92509135324508 ], [ 434849.43, 227356.92509135324508 ], [ 434847.43, 227357.42509135324508 ], [ 434846.43, 227359.42509135324508 ], [ 434843.43, 227360.42509135324508 ], [ 434841.93, 227362.92509135324508 ], [ 434838.93, 227362.92509135324508 ], [ 434837.93, 227363.92509135324508 ], [ 434837.93, 227367.42509135324508 ], [ 434836.43, 227367.42509135324508 ], [ 434835.93, 227366.42509135324508 ], [ 434834.43, 227368.92509135324508 ], [ 434832.43, 227369.42509135324508 ], [ 434832.43, 227370.42509135324508 ], [ 434830.43, 227370.42509135324508 ], [ 434829.43, 227371.42509135324508 ], [ 434829.43, 227374.42509135324508 ], [ 434826.93, 227374.42509135324508 ], [ 434826.93, 227376.42509135324508 ], [ 434825.43, 227377.92509135324508 ], [ 434821.93, 227377.92509135324508 ], [ 434820.93, 227378.92509135324508 ], [ 434820.93, 227381.42509135324508 ], [ 434819.43, 227381.92509135324508 ], [ 434817.93, 227380.42509135324508 ], [ 434814.93, 227384.42509135324508 ], [ 434812.43, 227384.42509135324508 ], [ 434811.93, 227385.92509135324508 ], [ 434809.43, 227385.92509135324508 ], [ 434809.43, 227384.92509135324508 ], [ 434807.93, 227384.42509135324508 ], [ 434805.93, 227384.42509135324508 ], [ 434805.43, 227385.42509135324508 ], [ 434804.43, 227384.42509135324508 ], [ 434802.93, 227384.42509135324508 ], [ 434802.43, 227385.42509135324508 ], [ 434801.43, 227384.92509135324508 ], [ 434799.43, 227390.42509135324508 ], [ 434797.93, 227389.92509135324508 ], [ 434796.43, 227387.42509135324508 ], [ 434793.93, 227388.42509135324508 ], [ 434794.93, 227389.92509135324508 ], [ 434794.43, 227392.42509135324508 ], [ 434795.93, 227393.42509135324508 ], [ 434794.43, 227395.92509135324508 ], [ 434796.43, 227398.92509135324508 ], [ 434796.43, 227400.92509135324508 ], [ 434794.93, 227401.92509135324508 ], [ 434794.93, 227403.42509135324508 ], [ 434796.43, 227404.42509135324508 ], [ 434797.43, 227406.92509135324508 ], [ 434799.43, 227405.92509135324508 ], [ 434800.43, 227407.42509135324508 ], [ 434799.43, 227409.42509135324508 ], [ 434796.43, 227408.42509135324508 ], [ 434794.93, 227409.92509135324508 ], [ 434796.43, 227412.92509135324508 ], [ 434795.93, 227418.92509135324508 ], [ 434796.43, 227419.92509135324508 ], [ 434798.43, 227418.92509135324508 ], [ 434799.93, 227420.42509135324508 ], [ 434798.93, 227421.92509135324508 ], [ 434798.93, 227426.42509135324508 ], [ 434800.43, 227428.92509135324508 ], [ 434799.93, 227431.42509135324508 ], [ 434800.93, 227431.92509135324508 ], [ 434800.93, 227435.42509135324508 ], [ 434801.93, 227435.92509135324508 ], [ 434800.93, 227437.92509135324508 ], [ 434801.93, 227439.92509135324508 ], [ 434803.43, 227438.92509135324508 ], [ 434804.93, 227439.42509135324508 ], [ 434805.43, 227442.42509135324508 ], [ 434806.43, 227442.92509135324508 ], [ 434806.43, 227445.92509135324508 ], [ 434807.43, 227446.42509135324508 ], [ 434807.93, 227448.42509135324508 ], [ 434808.43, 227447.92509135324508 ] ], [ [ 434934.43, 227134.92509135324508 ], [ 434934.93, 227136.42509135324508 ], [ 434933.93, 227136.92509135324508 ], [ 434933.93, 227134.92509135324508 ], [ 434934.43, 227134.92509135324508 ] ] ], [ [ [ 434896.43, 227135.42509135324508 ], [ 434898.93, 227134.92509135324508 ], [ 434899.43, 227132.92509135324508 ], [ 434898.43, 227132.42509135324508 ], [ 434899.43, 227131.42509135324508 ], [ 434901.93, 227131.42509135324508 ], [ 434902.43, 227129.92509135324508 ], [ 434903.93, 227130.92509135324508 ], [ 434904.93, 227130.42509135324508 ], [ 434905.93, 227131.92509135324508 ], [ 434907.43, 227131.42509135324508 ], [ 434907.43, 227129.92509135324508 ], [ 434910.93, 227130.42509135324508 ], [ 434910.93, 227126.92509135324508 ], [ 434909.93, 227127.92509135324508 ], [ 434907.93, 227126.92509135324508 ], [ 434907.43, 227127.92509135324508 ], [ 434903.93, 227127.92509135324508 ], [ 434902.93, 227128.92509135324508 ], [ 434896.93, 227128.42509135324508 ], [ 434896.43, 227130.42509135324508 ], [ 434897.43, 227130.92509135324508 ], [ 434897.93, 227132.92509135324508 ], [ 434894.93, 227134.42509135324508 ], [ 434895.93, 227135.92509135324508 ], [ 434896.43, 227135.42509135324508 ] ] ], [ [ [ 434881.43, 227138.92509135324508 ], [ 434883.43, 227137.92509135324508 ], [ 434882.43, 227135.92509135324508 ], [ 434883.93, 227134.92509135324508 ], [ 434883.93, 227137.42509135324508 ], [ 434885.43, 227135.42509135324508 ], [ 434886.93, 227135.92509135324508 ], [ 434887.93, 227134.92509135324508 ], [ 434886.43, 227133.92509135324508 ], [ 434886.43, 227131.42509135324508 ], [ 434883.93, 227130.42509135324508 ], [ 434885.93, 227130.42509135324508 ], [ 434886.43, 227128.42509135324508 ], [ 434884.93, 227128.42509135324508 ], [ 434884.93, 227129.42509135324508 ], [ 434882.43, 227128.42509135324508 ], [ 434882.43, 227129.92509135324508 ], [ 434879.43, 227131.42509135324508 ], [ 434880.93, 227133.42509135324508 ], [ 434877.93, 227134.92509135324508 ], [ 434878.93, 227135.92509135324508 ], [ 434878.43, 227137.42509135324508 ], [ 434879.43, 227137.92509135324508 ], [ 434879.93, 227135.42509135324508 ], [ 434880.93, 227136.42509135324508 ], [ 434879.93, 227138.92509135324508 ], [ 434881.43, 227138.92509135324508 ] ], [ [ 434883.93, 227133.92509135324508 ], [ 434883.93, 227133.42509135324508 ], [ 434884.43, 227133.42509135324508 ], [ 434884.43, 227133.92509135324508 ], [ 434883.93, 227133.92509135324508 ] ], [ [ 434884.43, 227133.92509135324508 ], [ 434884.93, 227133.92509135324508 ], [ 434884.93, 227134.42509135324508 ], [ 434884.43, 227134.42509135324508 ], [ 434884.43, 227133.92509135324508 ] ], [ [ 434882.93, 227132.42509135324508 ], [ 434883.43, 227132.42509135324508 ], [ 434883.93, 227131.92509135324508 ], [ 434883.93, 227132.92509135324508 ], [ 434882.93, 227132.42509135324508 ] ], [ [ 434883.93, 227130.92509135324508 ], [ 434883.93, 227131.42509135324508 ], [ 434883.43, 227131.42509135324508 ], [ 434883.43, 227130.92509135324508 ], [ 434883.93, 227130.92509135324508 ] ], [ [ 434882.43, 227133.42509135324508 ], [ 434882.43, 227132.92509135324508 ], [ 434882.93, 227132.92509135324508 ], [ 434882.93, 227133.42509135324508 ], [ 434882.43, 227133.42509135324508 ] ] ], [ [ [ 434759.93, 227156.92509135324508 ], [ 434760.93, 227156.92509135324508 ], [ 434760.43, 227154.42509135324508 ], [ 434759.43, 227153.42509135324508 ], [ 434757.43, 227153.92509135324508 ], [ 434755.93, 227151.92509135324508 ], [ 434753.93, 227152.42509135324508 ], [ 434750.93, 227154.92509135324508 ], [ 434751.43, 227155.92509135324508 ], [ 434753.93, 227154.92509135324508 ], [ 434754.93, 227155.92509135324508 ], [ 434758.43, 227155.92509135324508 ], [ 434758.43, 227156.92509135324508 ], [ 434759.93, 227156.92509135324508 ] ] ] ] } }
]
}
