{
"type": "FeatureCollection",
"crs": { "type": "name", "properties": { "name": "urn:ogc:def:crs:EPSG::27700" } },
"features": [
{ "type": "Feature", "properties": { "mainhabs": "Coastal vegetated shingle", "habcodes": "CVSHI", "featdesc": null, "featcodes": null, "otherclass": null, "addhabs": null, "primsource": "exeGesIS and Pat Doody - 1990 Phase 2 Inventory (CVSHI)", "areaha": "10.22", "version": "Sep_25", "uid": "PHID59291584_018412604", "shape_length": null, "shape_area": null, "site": "essex", "pid": 0, "method": "sam2iter" }, "geometry": { "type": "MultiPolygon", "coordinates": [ [ [ [ 592980.761382979224436, 184286.653181609057356 ], [ 592985.761382979224436, 184285.153181609057356 ], [ 592987.761382979224436, 184283.653181609057356 ], [ 592986.261382979224436, 184282.153181609057356 ], [ 592986.761382979224436, 184281.153181609057356 ], [ 592990.761382979224436, 184280.153181609057356 ], [ 592992.761382979224436, 184278.653181609057356 ], [ 592995.261382979224436, 184278.653181609057356 ], [ 592997.261382979224436, 184275.653181609057356 ], [ 593005.761382979224436, 184272.653181609057356 ], [ 593008.761382979224436, 184270.153181609057356 ], [ 593015.261382979224436, 184268.153181609057356 ], [ 593016.761382979224436, 184266.653181609057356 ], [ 593019.261382979224436, 184266.653181609057356 ], [ 593023.761382979224436, 184264.153181609057356 ], [ 593031.261382979224436, 184262.653181609057356 ], [ 593033.761382979224436, 184260.153181609057356 ], [ 593037.261382979224436, 184260.153181609057356 ], [ 593038.261382979224436, 184258.653181609057356 ], [ 593040.761382979224436, 184261.153181609057356 ], [ 593056.761382979224436, 184261.153181609057356 ], [ 593064.261382979224436, 184259.653181609057356 ], [ 593078.261382979224436, 184259.653181609057356 ], [ 593081.761382979224436, 184258.653181609057356 ], [ 593084.261382979224436, 184259.653181609057356 ], [ 593091.761382979224436, 184258.653181609057356 ], [ 593093.761382979224436, 184259.653181609057356 ], [ 593108.261382979224436, 184257.653181609057356 ], [ 593121.261382979224436, 184258.153181609057356 ], [ 593126.761382979224436, 184257.153181609057356 ], [ 593128.761382979224436, 184258.153181609057356 ], [ 593140.261382979224436, 184256.153181609057356 ], [ 593150.761382979224436, 184256.653181609057356 ], [ 593158.761382979224436, 184255.153181609057356 ], [ 593163.261382979224436, 184255.653181609057356 ], [ 593167.261382979224436, 184255.153181609057356 ], [ 593169.261382979224436, 184253.653181609057356 ], [ 593176.761382979224436, 184253.653181609057356 ], [ 593177.761382979224436, 184252.653181609057356 ], [ 593185.261382979224436, 184252.153181609057356 ], [ 593187.261382979224436, 184250.653181609057356 ], [ 593190.761382979224436, 184250.653181609057356 ], [ 593196.761382979224436, 184248.153181609057356 ], [ 593197.761382979224436, 184245.153181609057356 ], [ 593200.261382979224436, 184243.653181609057356 ], [ 593200.261382979224436, 184237.153181609057356 ], [ 593198.261382979224436, 184234.653181609057356 ], [ 593197.761382979224436, 184231.653181609057356 ], [ 593196.761382979224436, 184231.153181609057356 ], [ 593195.761382979224436, 184214.653181609057356 ], [ 593194.261382979224436, 184212.153181609057356 ], [ 593193.761382979224436, 184208.653181609057356 ], [ 593192.261382979224436, 184207.653181609057356 ], [ 593191.261382979224436, 184197.153181609057356 ], [ 593188.761382979224436, 184196.153181609057356 ], [ 593187.761382979224436, 184198.653181609057356 ], [ 593186.261382979224436, 184199.153181609057356 ], [ 593184.261382979224436, 184192.153181609057356 ], [ 593185.261382979224436, 184190.153181609057356 ], [ 593184.261382979224436, 184186.653181609057356 ], [ 593185.261382979224436, 184185.153181609057356 ], [ 593187.261382979224436, 184184.653181609057356 ], [ 593187.261382979224436, 184175.653181609057356 ], [ 593185.261382979224436, 184172.153181609057356 ], [ 593185.261382979224436, 184168.153181609057356 ], [ 593183.761382979224436, 184167.153181609057356 ], [ 593183.761382979224436, 184163.153181609057356 ], [ 593181.761382979224436, 184160.653181609057356 ], [ 593179.761382979224436, 184160.153181609057356 ], [ 593177.761382979224436, 184161.153181609057356 ], [ 593175.761382979224436, 184159.153181609057356 ], [ 593175.761382979224436, 184157.153181609057356 ], [ 593177.261382979224436, 184156.153181609057356 ], [ 593177.761382979224436, 184152.153181609057356 ], [ 593174.761382979224436, 184150.653181609057356 ], [ 593171.761382979224436, 184150.653181609057356 ], [ 593171.761382979224436, 184148.653181609057356 ], [ 593169.261382979224436, 184146.653181609057356 ], [ 593169.761382979224436, 184145.153181609057356 ], [ 593171.761382979224436, 184145.653181609057356 ], [ 593174.761382979224436, 184144.653181609057356 ], [ 593173.261382979224436, 184141.653181609057356 ], [ 593171.761382979224436, 184141.153181609057356 ], [ 593171.761382979224436, 184140.153181609057356 ], [ 593173.761382979224436, 184139.153181609057356 ], [ 593173.261382979224436, 184136.153181609057356 ], [ 593172.261382979224436, 184135.653181609057356 ], [ 593173.261382979224436, 184133.153181609057356 ], [ 593171.261382979224436, 184129.653181609057356 ], [ 593173.261382979224436, 184126.153181609057356 ], [ 593170.261382979224436, 184123.653181609057356 ], [ 593171.761382979224436, 184121.153181609057356 ], [ 593170.261382979224436, 184120.653181609057356 ], [ 593167.761382979224436, 184106.653181609057356 ], [ 593166.761382979224436, 184106.153181609057356 ], [ 593167.261382979224436, 184104.653181609057356 ], [ 593166.261382979224436, 184104.153181609057356 ], [ 593164.761382979224436, 184096.653181609057356 ], [ 593163.261382979224436, 184096.153181609057356 ], [ 593163.261382979224436, 184094.153181609057356 ], [ 593165.261382979224436, 184093.153181609057356 ], [ 593164.761382979224436, 184090.653181609057356 ], [ 593163.261382979224436, 184089.153181609057356 ], [ 593164.761382979224436, 184086.653181609057356 ], [ 593162.761382979224436, 184083.653181609057356 ], [ 593161.761382979224436, 184083.653181609057356 ], [ 593161.261382979224436, 184085.153181609057356 ], [ 593159.761382979224436, 184083.653181609057356 ], [ 593160.261382979224436, 184082.153181609057356 ], [ 593163.261382979224436, 184082.153181609057356 ], [ 593163.261382979224436, 184080.653181609057356 ], [ 593161.761382979224436, 184080.153181609057356 ], [ 593161.761382979224436, 184075.153181609057356 ], [ 593159.761382979224436, 184072.153181609057356 ], [ 593160.261382979224436, 184069.653181609057356 ], [ 593157.761382979224436, 184066.653181609057356 ], [ 593158.761382979224436, 184064.153181609057356 ], [ 593155.761382979224436, 184061.653181609057356 ], [ 593155.761382979224436, 184059.653181609057356 ], [ 593156.761382979224436, 184058.653181609057356 ], [ 593154.261382979224436, 184054.653181609057356 ], [ 593154.761382979224436, 184052.153181609057356 ], [ 593153.761382979224436, 184050.653181609057356 ], [ 593153.261382979224436, 184045.653181609057356 ], [ 593151.761382979224436, 184044.153181609057356 ], [ 593151.761382979224436, 184039.153181609057356 ], [ 593150.761382979224436, 184037.653181609057356 ], [ 593151.761382979224436, 184034.153181609057356 ], [ 593150.261382979224436, 184032.153181609057356 ], [ 593150.261382979224436, 184028.153181609057356 ], [ 593149.261382979224436, 184028.153181609057356 ], [ 593147.761382979224436, 184026.153181609057356 ], [ 593137.761382979224436, 184026.153181609057356 ], [ 593137.761382979224436, 184019.153181609057356 ], [ 593138.261382979224436, 184016.653181609057356 ], [ 593139.761382979224436, 184015.153181609057356 ], [ 593138.261382979224436, 184010.653181609057356 ], [ 593138.261382979224436, 184006.653181609057356 ], [ 593137.261382979224436, 184003.653181609057356 ], [ 593135.261382979224436, 184005.153181609057356 ], [ 593133.761382979224436, 184004.653181609057356 ], [ 593132.761382979224436, 184000.653181609057356 ], [ 593131.261382979224436, 183999.153181609057356 ], [ 593131.261382979224436, 183994.653181609057356 ], [ 593128.761382979224436, 183988.153181609057356 ], [ 593126.761382979224436, 183989.153181609057356 ], [ 593126.761382979224436, 183992.153181609057356 ], [ 593124.761382979224436, 183993.153181609057356 ], [ 593123.261382979224436, 183993.153181609057356 ], [ 593122.761382979224436, 183992.153181609057356 ], [ 593119.261382979224436, 183992.653181609057356 ], [ 593118.261382979224436, 183991.153181609057356 ], [ 593110.761382979224436, 183990.653181609057356 ], [ 593109.261382979224436, 183987.153181609057356 ], [ 593109.261382979224436, 183985.153181609057356 ], [ 593110.261382979224436, 183984.653181609057356 ], [ 593109.261382979224436, 183983.153181609057356 ], [ 593109.261382979224436, 183979.153181609057356 ], [ 593099.761382979224436, 183979.653181609057356 ], [ 593097.761382979224436, 183978.153181609057356 ], [ 593097.761382979224436, 183977.153181609057356 ], [ 593093.761382979224436, 183975.653181609057356 ], [ 593091.761382979224436, 183972.153181609057356 ], [ 593084.761382979224436, 183967.653181609057356 ], [ 593071.761382979224436, 183968.653181609057356 ], [ 593068.761382979224436, 183970.153181609057356 ], [ 593058.261382979224436, 183972.153181609057356 ], [ 593056.761382979224436, 183973.653181609057356 ], [ 593040.761382979224436, 183976.653181609057356 ], [ 593036.261382979224436, 183978.653181609057356 ], [ 593032.261382979224436, 183978.653181609057356 ], [ 593030.761382979224436, 183980.153181609057356 ], [ 593028.261382979224436, 183980.153181609057356 ], [ 593025.761382979224436, 183981.653181609057356 ], [ 593022.261382979224436, 183981.653181609057356 ], [ 593013.261382979224436, 183985.153181609057356 ], [ 592997.261382979224436, 183988.653181609057356 ], [ 592994.761382979224436, 183990.653181609057356 ], [ 592991.261382979224436, 183990.653181609057356 ], [ 592984.761382979224436, 183993.153181609057356 ], [ 592981.261382979224436, 183993.153181609057356 ], [ 592975.761382979224436, 183996.153181609057356 ], [ 592962.261382979224436, 183997.653181609057356 ], [ 592959.761382979224436, 183999.153181609057356 ], [ 592953.761382979224436, 183999.153181609057356 ], [ 592951.761382979224436, 184000.653181609057356 ], [ 592943.761382979224436, 184002.153181609057356 ], [ 592935.761382979224436, 184005.153181609057356 ], [ 592934.761382979224436, 184006.653181609057356 ], [ 592932.261382979224436, 184007.653181609057356 ], [ 592928.761382979224436, 184007.653181609057356 ], [ 592926.261382979224436, 184009.153181609057356 ], [ 592926.261382979224436, 184010.153181609057356 ], [ 592918.761382979224436, 184012.153181609057356 ], [ 592917.761382979224436, 184013.653181609057356 ], [ 592914.761382979224436, 184013.653181609057356 ], [ 592909.261382979224436, 184016.653181609057356 ], [ 592901.261382979224436, 184018.153181609057356 ], [ 592900.261382979224436, 184019.653181609057356 ], [ 592897.261382979224436, 184019.653181609057356 ], [ 592895.761382979224436, 184021.153181609057356 ], [ 592893.261382979224436, 184021.153181609057356 ], [ 592892.761382979224436, 184022.153181609057356 ], [ 592889.261382979224436, 184022.653181609057356 ], [ 592888.761382979224436, 184023.653181609057356 ], [ 592885.261382979224436, 184023.653181609057356 ], [ 592883.761382979224436, 184025.153181609057356 ], [ 592880.761382979224436, 184025.153181609057356 ], [ 592879.261382979224436, 184026.653181609057356 ], [ 592872.261382979224436, 184028.653181609057356 ], [ 592871.761382979224436, 184029.653181609057356 ], [ 592866.761382979224436, 184030.153181609057356 ], [ 592866.261382979224436, 184031.153181609057356 ], [ 592860.261382979224436, 184031.153181609057356 ], [ 592847.761382979224436, 184036.653181609057356 ], [ 592841.261382979224436, 184037.153181609057356 ], [ 592840.261382979224436, 184038.653181609057356 ], [ 592834.261382979224436, 184039.653181609057356 ], [ 592827.761382979224436, 184042.653181609057356 ], [ 592824.761382979224436, 184042.653181609057356 ], [ 592824.261382979224436, 184043.653181609057356 ], [ 592813.761382979224436, 184045.653181609057356 ], [ 592812.261382979224436, 184047.153181609057356 ], [ 592810.261382979224436, 184047.153181609057356 ], [ 592800.761382979224436, 184051.653181609057356 ], [ 592798.261382979224436, 184051.653181609057356 ], [ 592796.761382979224436, 184053.153181609057356 ], [ 592787.761382979224436, 184054.653181609057356 ], [ 592787.761382979224436, 184055.653181609057356 ], [ 592780.761382979224436, 184057.153181609057356 ], [ 592779.261382979224436, 184058.653181609057356 ], [ 592771.761382979224436, 184060.153181609057356 ], [ 592765.761382979224436, 184064.153181609057356 ], [ 592762.261382979224436, 184064.653181609057356 ], [ 592758.261382979224436, 184067.653181609057356 ], [ 592753.261382979224436, 184069.153181609057356 ], [ 592752.761382979224436, 184070.653181609057356 ], [ 592745.761382979224436, 184073.153181609057356 ], [ 592743.261382979224436, 184076.153181609057356 ], [ 592741.261382979224436, 184076.153181609057356 ], [ 592740.761382979224436, 184077.153181609057356 ], [ 592735.261382979224436, 184079.153181609057356 ], [ 592734.261382979224436, 184080.653181609057356 ], [ 592732.761382979224436, 184080.653181609057356 ], [ 592732.761382979224436, 184081.653181609057356 ], [ 592726.761382979224436, 184084.153181609057356 ], [ 592726.761382979224436, 184085.153181609057356 ], [ 592725.261382979224436, 184085.153181609057356 ], [ 592723.261382979224436, 184087.653181609057356 ], [ 592722.261382979224436, 184087.653181609057356 ], [ 592722.261382979224436, 184088.653181609057356 ], [ 592719.261382979224436, 184090.153181609057356 ], [ 592719.261382979224436, 184097.153181609057356 ], [ 592720.761382979224436, 184099.653181609057356 ], [ 592722.261382979224436, 184100.153181609057356 ], [ 592724.261382979224436, 184106.653181609057356 ], [ 592723.761382979224436, 184110.653181609057356 ], [ 592719.261382979224436, 184113.653181609057356 ], [ 592718.261382979224436, 184115.653181609057356 ], [ 592718.261382979224436, 184128.653181609057356 ], [ 592719.261382979224436, 184134.653181609057356 ], [ 592720.761382979224436, 184135.653181609057356 ], [ 592722.261382979224436, 184145.153181609057356 ], [ 592728.261382979224436, 184150.653181609057356 ], [ 592733.761382979224436, 184152.153181609057356 ], [ 592735.261382979224436, 184154.653181609057356 ], [ 592735.761382979224436, 184164.653181609057356 ], [ 592738.261382979224436, 184170.653181609057356 ], [ 592738.261382979224436, 184173.653181609057356 ], [ 592740.261382979224436, 184179.653181609057356 ], [ 592741.761382979224436, 184181.653181609057356 ], [ 592741.761382979224436, 184184.653181609057356 ], [ 592746.261382979224436, 184185.153181609057356 ], [ 592749.761382979224436, 184186.653181609057356 ], [ 592750.761382979224436, 184188.153181609057356 ], [ 592757.761382979224436, 184189.653181609057356 ], [ 592758.761382979224436, 184190.653181609057356 ], [ 592765.261382979224436, 184191.153181609057356 ], [ 592768.261382979224436, 184192.653181609057356 ], [ 592768.761382979224436, 184194.153181609057356 ], [ 592773.761382979224436, 184194.653181609057356 ], [ 592776.761382979224436, 184196.653181609057356 ], [ 592783.261382979224436, 184197.153181609057356 ], [ 592784.261382979224436, 184198.653181609057356 ], [ 592790.761382979224436, 184199.153181609057356 ], [ 592792.761382979224436, 184200.153181609057356 ], [ 592799.261382979224436, 184200.153181609057356 ], [ 592805.761382979224436, 184202.153181609057356 ], [ 592814.261382979224436, 184202.653181609057356 ], [ 592815.761382979224436, 184204.153181609057356 ], [ 592822.261382979224436, 184205.653181609057356 ], [ 592824.261382979224436, 184208.153181609057356 ], [ 592826.761382979224436, 184208.153181609057356 ], [ 592830.261382979224436, 184210.153181609057356 ], [ 592834.261382979224436, 184208.653181609057356 ], [ 592837.761382979224436, 184209.653181609057356 ], [ 592838.761382979224436, 184208.653181609057356 ], [ 592839.261382979224436, 184210.153181609057356 ], [ 592837.761382979224436, 184211.653181609057356 ], [ 592839.261382979224436, 184211.653181609057356 ], [ 592840.261382979224436, 184213.153181609057356 ], [ 592843.261382979224436, 184213.153181609057356 ], [ 592844.261382979224436, 184214.653181609057356 ], [ 592847.761382979224436, 184215.153181609057356 ], [ 592849.261382979224436, 184218.653181609057356 ], [ 592857.261382979224436, 184219.653181609057356 ], [ 592858.761382979224436, 184221.653181609057356 ], [ 592862.261382979224436, 184221.653181609057356 ], [ 592862.261382979224436, 184224.153181609057356 ], [ 592865.261382979224436, 184224.153181609057356 ], [ 592864.761382979224436, 184226.153181609057356 ], [ 592869.761382979224436, 184229.153181609057356 ], [ 592876.761382979224436, 184229.653181609057356 ], [ 592880.761382979224436, 184231.653181609057356 ], [ 592891.261382979224436, 184232.153181609057356 ], [ 592892.761382979224436, 184231.153181609057356 ], [ 592896.261382979224436, 184231.153181609057356 ], [ 592897.261382979224436, 184232.153181609057356 ], [ 592899.761382979224436, 184232.153181609057356 ], [ 592901.761382979224436, 184234.153181609057356 ], [ 592902.761382979224436, 184234.153181609057356 ], [ 592902.761382979224436, 184233.153181609057356 ], [ 592905.761382979224436, 184233.153181609057356 ], [ 592906.261382979224436, 184235.653181609057356 ], [ 592908.761382979224436, 184234.153181609057356 ], [ 592910.261382979224436, 184237.653181609057356 ], [ 592917.261382979224436, 184237.653181609057356 ], [ 592919.761382979224436, 184236.653181609057356 ], [ 592920.261382979224436, 184238.153181609057356 ], [ 592918.261382979224436, 184239.653181609057356 ], [ 592918.261382979224436, 184242.153181609057356 ], [ 592917.261382979224436, 184243.153181609057356 ], [ 592926.261382979224436, 184243.153181609057356 ], [ 592927.761382979224436, 184246.653181609057356 ], [ 592926.761382979224436, 184249.153181609057356 ], [ 592927.761382979224436, 184249.653181609057356 ], [ 592928.261382979224436, 184252.653181609057356 ], [ 592930.261382979224436, 184252.653181609057356 ], [ 592932.261382979224436, 184254.653181609057356 ], [ 592935.261382979224436, 184252.653181609057356 ], [ 592936.261382979224436, 184253.653181609057356 ], [ 592936.261382979224436, 184258.653181609057356 ], [ 592937.261382979224436, 184259.653181609057356 ], [ 592942.261382979224436, 184259.653181609057356 ], [ 592942.261382979224436, 184256.653181609057356 ], [ 592944.761382979224436, 184256.653181609057356 ], [ 592946.261382979224436, 184258.153181609057356 ], [ 592946.261382979224436, 184261.153181609057356 ], [ 592947.761382979224436, 184261.153181609057356 ], [ 592949.761382979224436, 184264.653181609057356 ], [ 592953.761382979224436, 184265.153181609057356 ], [ 592954.261382979224436, 184266.653181609057356 ], [ 592956.761382979224436, 184266.653181609057356 ], [ 592957.761382979224436, 184269.153181609057356 ], [ 592960.761382979224436, 184269.653181609057356 ], [ 592962.261382979224436, 184271.153181609057356 ], [ 592962.261382979224436, 184272.653181609057356 ], [ 592964.761382979224436, 184273.653181609057356 ], [ 592965.261382979224436, 184275.153181609057356 ], [ 592966.761382979224436, 184275.653181609057356 ], [ 592966.761382979224436, 184277.153181609057356 ], [ 592971.261382979224436, 184281.653181609057356 ], [ 592973.761382979224436, 184281.653181609057356 ], [ 592975.261382979224436, 184284.153181609057356 ], [ 592978.261382979224436, 184284.653181609057356 ], [ 592980.761382979224436, 184286.653181609057356 ] ], [ [ 593109.261382979224436, 184111.653181609057356 ], [ 593109.761382979224436, 184111.653181609057356 ], [ 593109.761382979224436, 184112.153181609057356 ], [ 593109.261382979224436, 184112.153181609057356 ], [ 593109.261382979224436, 184111.653181609057356 ] ] ], [ [ [ 592823.761382979224436, 184209.653181609057356 ], [ 592815.761382979224436, 184204.653181609057356 ], [ 592806.261382979224436, 184203.653181609057356 ], [ 592811.761382979224436, 184206.153181609057356 ], [ 592823.761382979224436, 184209.653181609057356 ] ] ] ] } },
{ "type": "Feature", "properties": { "mainhabs": "Deciduous woodland", "habcodes": "DWOOD", "featdesc": null, "featcodes": null, "otherclass": null, "addhabs": null, "primsource": "National Forest Inventory 2023 (DWOOD)", "areaha": "0.03", "version": "Sep_25", "uid": "PHID59332258_018446712", "shape_length": null, "shape_area": null, "site": "essex", "pid": 1, "method": "sam2iter" }, "geometry": { "type": "Polygon", "coordinates": [ [ [ 593324.761382979224436, 184490.153181609057356 ], [ 593326.761382979224436, 184489.653181609057356 ], [ 593327.761382979224436, 184488.153181609057356 ], [ 593329.261382979224436, 184488.153181609057356 ], [ 593331.761382979224436, 184484.653181609057356 ], [ 593330.761382979224436, 184477.653181609057356 ], [ 593329.761382979224436, 184477.153181609057356 ], [ 593329.761382979224436, 184472.653181609057356 ], [ 593331.261382979224436, 184470.653181609057356 ], [ 593331.261382979224436, 184468.153181609057356 ], [ 593329.761382979224436, 184466.653181609057356 ], [ 593330.761382979224436, 184465.153181609057356 ], [ 593329.261382979224436, 184464.653181609057356 ], [ 593329.761382979224436, 184463.653181609057356 ], [ 593326.261382979224436, 184463.653181609057356 ], [ 593326.761382979224436, 184462.153181609057356 ], [ 593325.761382979224436, 184461.653181609057356 ], [ 593324.761382979224436, 184458.653181609057356 ], [ 593322.261382979224436, 184457.653181609057356 ], [ 593323.261382979224436, 184456.653181609057356 ], [ 593322.761382979224436, 184454.153181609057356 ], [ 593318.761382979224436, 184453.653181609057356 ], [ 593317.761382979224436, 184458.653181609057356 ], [ 593313.261382979224436, 184459.653181609057356 ], [ 593312.261382979224436, 184461.153181609057356 ], [ 593318.261382979224436, 184470.153181609057356 ], [ 593318.261382979224436, 184478.153181609057356 ], [ 593322.761382979224436, 184484.153181609057356 ], [ 593323.261382979224436, 184488.153181609057356 ], [ 593324.761382979224436, 184490.153181609057356 ] ] ] } },
{ "type": "Feature", "properties": { "mainhabs": "Deciduous woodland", "habcodes": "DWOOD", "featdesc": null, "featcodes": null, "otherclass": null, "addhabs": null, "primsource": "National Forest Inventory 2023 (DWOOD)", "areaha": "0.46", "version": "Sep_25", "uid": "PHID59337958_018448393", "shape_length": null, "shape_area": null, "site": "essex", "pid": 2, "method": "sam2iter" }, "geometry": { "type": "Polygon", "coordinates": [ [ [ 593346.261382979224436, 184514.653181609057356 ], [ 593364.761382979224436, 184514.653181609057356 ], [ 593365.261382979224436, 184512.653181609057356 ], [ 593366.761382979224436, 184513.653181609057356 ], [ 593367.761382979224436, 184511.653181609057356 ], [ 593368.761382979224436, 184511.653181609057356 ], [ 593369.261382979224436, 184513.153181609057356 ], [ 593371.261382979224436, 184512.653181609057356 ], [ 593371.761382979224436, 184514.153181609057356 ], [ 593373.261382979224436, 184513.653181609057356 ], [ 593373.261382979224436, 184514.653181609057356 ], [ 593375.261382979224436, 184514.653181609057356 ], [ 593376.261382979224436, 184512.653181609057356 ], [ 593378.761382979224436, 184514.153181609057356 ], [ 593379.261382979224436, 184510.653181609057356 ], [ 593381.761382979224436, 184512.153181609057356 ], [ 593380.761382979224436, 184514.653181609057356 ], [ 593383.261382979224436, 184513.653181609057356 ], [ 593383.261382979224436, 184514.653181609057356 ], [ 593386.761382979224436, 184514.653181609057356 ], [ 593387.761382979224436, 184512.653181609057356 ], [ 593392.761382979224436, 184512.653181609057356 ], [ 593399.761382979224436, 184511.153181609057356 ], [ 593403.261382979224436, 184512.153181609057356 ], [ 593408.761382979224436, 184512.153181609057356 ], [ 593409.261382979224436, 184511.153181609057356 ], [ 593411.761382979224436, 184511.153181609057356 ], [ 593412.761382979224436, 184512.153181609057356 ], [ 593417.261382979224436, 184512.153181609057356 ], [ 593419.761382979224436, 184509.153181609057356 ], [ 593425.261382979224436, 184508.153181609057356 ], [ 593427.261382979224436, 184506.153181609057356 ], [ 593427.261382979224436, 184503.153181609057356 ], [ 593425.261382979224436, 184501.153181609057356 ], [ 593423.261382979224436, 184489.653181609057356 ], [ 593426.261382979224436, 184487.153181609057356 ], [ 593426.761382979224436, 184483.653181609057356 ], [ 593424.761382979224436, 184481.653181609057356 ], [ 593422.761382979224436, 184481.153181609057356 ], [ 593423.261382979224436, 184477.153181609057356 ], [ 593424.261382979224436, 184477.153181609057356 ], [ 593422.761382979224436, 184476.153181609057356 ], [ 593423.261382979224436, 184474.653181609057356 ], [ 593419.761382979224436, 184471.653181609057356 ], [ 593419.261382979224436, 184472.653181609057356 ], [ 593414.261382979224436, 184472.153181609057356 ], [ 593413.261382979224436, 184473.653181609057356 ], [ 593411.261382979224436, 184473.653181609057356 ], [ 593409.261382979224436, 184472.153181609057356 ], [ 593409.261382979224436, 184471.153181609057356 ], [ 593408.261382979224436, 184471.153181609057356 ], [ 593407.761382979224436, 184467.653181609057356 ], [ 593406.761382979224436, 184467.653181609057356 ], [ 593406.261382979224436, 184466.153181609057356 ], [ 593402.761382979224436, 184465.653181609057356 ], [ 593402.261382979224436, 184464.653181609057356 ], [ 593396.761382979224436, 184464.153181609057356 ], [ 593395.761382979224436, 184462.653181609057356 ], [ 593393.761382979224436, 184463.153181609057356 ], [ 593382.261382979224436, 184461.653181609057356 ], [ 593376.261382979224436, 184462.153181609057356 ], [ 593368.761382979224436, 184464.653181609057356 ], [ 593351.761382979224436, 184464.653181609057356 ], [ 593341.761382979224436, 184466.653181609057356 ], [ 593341.761382979224436, 184467.653181609057356 ], [ 593338.761382979224436, 184469.153181609057356 ], [ 593337.261382979224436, 184473.153181609057356 ], [ 593335.761382979224436, 184474.153181609057356 ], [ 593335.761382979224436, 184477.653181609057356 ], [ 593334.261382979224436, 184479.653181609057356 ], [ 593334.761382979224436, 184489.153181609057356 ], [ 593331.761382979224436, 184489.653181609057356 ], [ 593328.261382979224436, 184492.153181609057356 ], [ 593328.261382979224436, 184496.653181609057356 ], [ 593331.261382979224436, 184495.653181609057356 ], [ 593331.761382979224436, 184498.653181609057356 ], [ 593333.261382979224436, 184499.153181609057356 ], [ 593331.261382979224436, 184501.653181609057356 ], [ 593330.261382979224436, 184501.153181609057356 ], [ 593330.261382979224436, 184499.653181609057356 ], [ 593329.261382979224436, 184499.653181609057356 ], [ 593330.261382979224436, 184504.153181609057356 ], [ 593331.261382979224436, 184504.153181609057356 ], [ 593330.261382979224436, 184506.153181609057356 ], [ 593331.261382979224436, 184506.653181609057356 ], [ 593331.761382979224436, 184508.653181609057356 ], [ 593331.761382979224436, 184514.153181609057356 ], [ 593335.761382979224436, 184514.153181609057356 ], [ 593335.261382979224436, 184511.153181609057356 ], [ 593336.261382979224436, 184509.653181609057356 ], [ 593336.261382979224436, 184504.653181609057356 ], [ 593338.761382979224436, 184504.653181609057356 ], [ 593338.261382979224436, 184503.153181609057356 ], [ 593340.261382979224436, 184502.653181609057356 ], [ 593342.761382979224436, 184504.653181609057356 ], [ 593343.761382979224436, 184509.653181609057356 ], [ 593345.761382979224436, 184510.153181609057356 ], [ 593346.261382979224436, 184514.653181609057356 ] ] ] } }
]
}
