{
"type": "FeatureCollection",
"crs": { "type": "name", "properties": { "name": "urn:ogc:def:crs:EPSG::27700" } },
"features": [
{ "type": "Feature", "properties": { "mainhabs": "Coastal vegetated shingle", "habcodes": "CVSHI", "featdesc": null, "featcodes": null, "otherclass": null, "addhabs": null, "primsource": "exeGesIS and Pat Doody - 1990 Phase 2 Inventory (CVSHI)", "areaha": "10.22", "version": "Sep_25", "uid": "PHID59291584_018412604", "shape_length": null, "shape_area": null, "site": "essex", "pid": 0, "method": "grabcut2" }, "geometry": { "type": "Polygon", "coordinates": [ [ [ 592981.261382979224436, 184288.653181609057356 ], [ 592984.261382979224436, 184287.153181609057356 ], [ 592984.761382979224436, 184282.653181609057356 ], [ 592985.761382979224436, 184281.153181609057356 ], [ 592989.761382979224436, 184281.153181609057356 ], [ 592990.261382979224436, 184280.153181609057356 ], [ 592992.761382979224436, 184280.153181609057356 ], [ 592993.761382979224436, 184278.653181609057356 ], [ 592995.261382979224436, 184278.653181609057356 ], [ 592996.261382979224436, 184277.153181609057356 ], [ 593003.261382979224436, 184275.653181609057356 ], [ 593003.261382979224436, 184274.653181609057356 ], [ 593009.261382979224436, 184271.153181609057356 ], [ 593010.761382979224436, 184271.153181609057356 ], [ 593013.261382979224436, 184268.653181609057356 ], [ 593020.761382979224436, 184266.653181609057356 ], [ 593021.761382979224436, 184265.153181609057356 ], [ 593029.261382979224436, 184264.153181609057356 ], [ 593029.261382979224436, 184263.153181609057356 ], [ 593031.261382979224436, 184262.653181609057356 ], [ 593033.761382979224436, 184259.653181609057356 ], [ 593035.261382979224436, 184259.153181609057356 ], [ 593035.261382979224436, 184258.153181609057356 ], [ 593036.761382979224436, 184257.653181609057356 ], [ 593037.261382979224436, 184256.153181609057356 ], [ 593038.261382979224436, 184256.653181609057356 ], [ 593038.261382979224436, 184260.153181609057356 ], [ 593039.261382979224436, 184261.153181609057356 ], [ 593042.761382979224436, 184261.153181609057356 ], [ 593043.261382979224436, 184262.153181609057356 ], [ 593054.261382979224436, 184262.153181609057356 ], [ 593082.261382979224436, 184259.653181609057356 ], [ 593095.761382979224436, 184260.153181609057356 ], [ 593136.761382979224436, 184258.153181609057356 ], [ 593137.261382979224436, 184256.653181609057356 ], [ 593138.761382979224436, 184256.153181609057356 ], [ 593146.761382979224436, 184256.653181609057356 ], [ 593148.761382979224436, 184257.653181609057356 ], [ 593167.261382979224436, 184256.653181609057356 ], [ 593196.761382979224436, 184250.653181609057356 ], [ 593197.261382979224436, 184249.153181609057356 ], [ 593199.261382979224436, 184248.653181609057356 ], [ 593201.261382979224436, 184246.653181609057356 ], [ 593202.761382979224436, 184243.153181609057356 ], [ 593202.261382979224436, 184236.653181609057356 ], [ 593199.761382979224436, 184234.153181609057356 ], [ 593199.761382979224436, 184227.153181609057356 ], [ 593198.761382979224436, 184226.153181609057356 ], [ 593199.261382979224436, 184224.653181609057356 ], [ 593198.261382979224436, 184222.153181609057356 ], [ 593196.261382979224436, 184221.653181609057356 ], [ 593194.261382979224436, 184219.153181609057356 ], [ 593190.261382979224436, 184221.653181609057356 ], [ 593187.761382979224436, 184219.653181609057356 ], [ 593186.761382979224436, 184220.153181609057356 ], [ 593184.761382979224436, 184217.653181609057356 ], [ 593184.761382979224436, 184214.653181609057356 ], [ 593183.761382979224436, 184214.653181609057356 ], [ 593183.761382979224436, 184209.153181609057356 ], [ 593182.261382979224436, 184208.653181609057356 ], [ 593180.761382979224436, 184206.153181609057356 ], [ 593180.761382979224436, 184196.653181609057356 ], [ 593178.261382979224436, 184193.153181609057356 ], [ 593177.761382979224436, 184185.153181609057356 ], [ 593176.261382979224436, 184182.653181609057356 ], [ 593176.261382979224436, 184177.153181609057356 ], [ 593175.761382979224436, 184175.153181609057356 ], [ 593174.761382979224436, 184174.653181609057356 ], [ 593174.261382979224436, 184170.653181609057356 ], [ 593173.261382979224436, 184170.153181609057356 ], [ 593173.761382979224436, 184160.653181609057356 ], [ 593172.261382979224436, 184159.153181609057356 ], [ 593169.761382979224436, 184159.153181609057356 ], [ 593169.261382979224436, 184157.653181609057356 ], [ 593167.761382979224436, 184157.153181609057356 ], [ 593168.261382979224436, 184155.153181609057356 ], [ 593173.261382979224436, 184154.653181609057356 ], [ 593174.261382979224436, 184152.153181609057356 ], [ 593170.261382979224436, 184150.653181609057356 ], [ 593170.261382979224436, 184148.153181609057356 ], [ 593169.261382979224436, 184147.653181609057356 ], [ 593167.261382979224436, 184143.153181609057356 ], [ 593168.261382979224436, 184141.653181609057356 ], [ 593168.261382979224436, 184135.153181609057356 ], [ 593167.761382979224436, 184133.153181609057356 ], [ 593166.261382979224436, 184132.653181609057356 ], [ 593166.261382979224436, 184128.153181609057356 ], [ 593164.761382979224436, 184127.153181609057356 ], [ 593163.761382979224436, 184122.653181609057356 ], [ 593163.761382979224436, 184115.653181609057356 ], [ 593161.761382979224436, 184110.653181609057356 ], [ 593161.761382979224436, 184096.153181609057356 ], [ 593158.761382979224436, 184093.153181609057356 ], [ 593158.261382979224436, 184086.653181609057356 ], [ 593157.261382979224436, 184085.153181609057356 ], [ 593157.261382979224436, 184077.153181609057356 ], [ 593154.761382979224436, 184073.153181609057356 ], [ 593154.761382979224436, 184071.153181609057356 ], [ 593156.261382979224436, 184069.153181609057356 ], [ 593157.261382979224436, 184069.153181609057356 ], [ 593157.261382979224436, 184062.653181609057356 ], [ 593155.761382979224436, 184059.653181609057356 ], [ 593154.261382979224436, 184049.653181609057356 ], [ 593153.261382979224436, 184048.653181609057356 ], [ 593153.261382979224436, 184045.153181609057356 ], [ 593152.261382979224436, 184043.153181609057356 ], [ 593152.761382979224436, 184041.153181609057356 ], [ 593151.761382979224436, 184040.653181609057356 ], [ 593149.261382979224436, 184025.153181609057356 ], [ 593148.261382979224436, 184023.653181609057356 ], [ 593144.261382979224436, 184024.153181609057356 ], [ 593143.261382979224436, 184025.153181609057356 ], [ 593138.261382979224436, 184024.653181609057356 ], [ 593138.261382979224436, 184022.153181609057356 ], [ 593141.761382979224436, 184019.653181609057356 ], [ 593141.261382979224436, 184015.153181609057356 ], [ 593140.261382979224436, 184014.153181609057356 ], [ 593140.261382979224436, 184012.153181609057356 ], [ 593138.261382979224436, 184010.653181609057356 ], [ 593137.761382979224436, 184004.153181609057356 ], [ 593133.761382979224436, 184003.153181609057356 ], [ 593133.761382979224436, 183999.153181609057356 ], [ 593132.761382979224436, 183998.653181609057356 ], [ 593133.261382979224436, 183997.153181609057356 ], [ 593131.761382979224436, 183994.153181609057356 ], [ 593132.261382979224436, 183992.153181609057356 ], [ 593130.261382979224436, 183987.653181609057356 ], [ 593126.761382979224436, 183986.653181609057356 ], [ 593125.261382979224436, 183988.653181609057356 ], [ 593126.261382979224436, 183992.153181609057356 ], [ 593125.261382979224436, 183992.653181609057356 ], [ 593124.761382979224436, 183994.653181609057356 ], [ 593117.261382979224436, 183995.653181609057356 ], [ 593114.261382979224436, 183991.653181609057356 ], [ 593111.261382979224436, 183990.153181609057356 ], [ 593109.261382979224436, 183987.653181609057356 ], [ 593108.761382979224436, 183985.153181609057356 ], [ 593112.761382979224436, 183981.653181609057356 ], [ 593112.261382979224436, 183977.153181609057356 ], [ 593099.261382979224436, 183978.653181609057356 ], [ 593098.761382979224436, 183980.153181609057356 ], [ 593097.761382979224436, 183980.153181609057356 ], [ 593095.261382979224436, 183978.653181609057356 ], [ 593094.761382979224436, 183975.653181609057356 ], [ 593093.761382979224436, 183975.653181609057356 ], [ 593089.261382979224436, 183971.153181609057356 ], [ 593089.261382979224436, 183970.153181609057356 ], [ 593086.261382979224436, 183968.653181609057356 ], [ 593084.761382979224436, 183966.153181609057356 ], [ 593079.261382979224436, 183968.153181609057356 ], [ 593073.261382979224436, 183967.653181609057356 ], [ 593072.261382979224436, 183968.653181609057356 ], [ 593068.761382979224436, 183968.653181609057356 ], [ 593067.761382979224436, 183969.653181609057356 ], [ 593057.761382979224436, 183971.653181609057356 ], [ 593055.761382979224436, 183973.153181609057356 ], [ 593051.261382979224436, 183972.153181609057356 ], [ 593049.761382979224436, 183973.153181609057356 ], [ 593044.261382979224436, 183973.153181609057356 ], [ 593036.761382979224436, 183974.653181609057356 ], [ 593025.261382979224436, 183978.653181609057356 ], [ 593022.261382979224436, 183978.653181609057356 ], [ 593021.761382979224436, 183979.653181609057356 ], [ 593018.261382979224436, 183980.153181609057356 ], [ 593016.761382979224436, 183981.653181609057356 ], [ 593013.761382979224436, 183981.653181609057356 ], [ 593013.261382979224436, 183982.653181609057356 ], [ 593006.261382979224436, 183983.653181609057356 ], [ 593005.761382979224436, 183984.653181609057356 ], [ 593003.261382979224436, 183984.653181609057356 ], [ 593001.261382979224436, 183986.153181609057356 ], [ 592996.261382979224436, 183986.653181609057356 ], [ 592995.261382979224436, 183987.653181609057356 ], [ 592993.261382979224436, 183987.653181609057356 ], [ 592992.761382979224436, 183988.653181609057356 ], [ 592984.261382979224436, 183990.653181609057356 ], [ 592983.761382979224436, 183991.653181609057356 ], [ 592979.261382979224436, 183991.653181609057356 ], [ 592975.761382979224436, 183993.153181609057356 ], [ 592975.761382979224436, 183994.153181609057356 ], [ 592970.761382979224436, 183994.653181609057356 ], [ 592969.261382979224436, 183996.653181609057356 ], [ 592955.261382979224436, 183997.153181609057356 ], [ 592952.261382979224436, 183997.653181609057356 ], [ 592952.261382979224436, 183998.653181609057356 ], [ 592947.761382979224436, 183999.153181609057356 ], [ 592947.761382979224436, 184000.153181609057356 ], [ 592946.261382979224436, 184000.653181609057356 ], [ 592943.761382979224436, 184000.153181609057356 ], [ 592938.261382979224436, 184002.153181609057356 ], [ 592937.761382979224436, 184003.153181609057356 ], [ 592928.761382979224436, 184005.653181609057356 ], [ 592924.761382979224436, 184007.653181609057356 ], [ 592924.261382979224436, 184009.153181609057356 ], [ 592916.761382979224436, 184012.153181609057356 ], [ 592914.261382979224436, 184012.153181609057356 ], [ 592914.261382979224436, 184013.153181609057356 ], [ 592911.261382979224436, 184014.653181609057356 ], [ 592906.261382979224436, 184014.153181609057356 ], [ 592905.761382979224436, 184015.153181609057356 ], [ 592898.261382979224436, 184016.653181609057356 ], [ 592896.761382979224436, 184018.653181609057356 ], [ 592892.261382979224436, 184018.653181609057356 ], [ 592886.761382979224436, 184023.153181609057356 ], [ 592884.261382979224436, 184022.653181609057356 ], [ 592880.261382979224436, 184025.153181609057356 ], [ 592877.261382979224436, 184025.153181609057356 ], [ 592875.261382979224436, 184026.653181609057356 ], [ 592871.761382979224436, 184026.653181609057356 ], [ 592870.761382979224436, 184028.153181609057356 ], [ 592866.261382979224436, 184028.153181609057356 ], [ 592865.261382979224436, 184029.653181609057356 ], [ 592861.261382979224436, 184029.653181609057356 ], [ 592860.261382979224436, 184031.153181609057356 ], [ 592857.761382979224436, 184031.653181609057356 ], [ 592853.261382979224436, 184031.653181609057356 ], [ 592849.761382979224436, 184034.153181609057356 ], [ 592846.261382979224436, 184035.153181609057356 ], [ 592843.261382979224436, 184034.653181609057356 ], [ 592841.761382979224436, 184035.653181609057356 ], [ 592839.261382979224436, 184035.653181609057356 ], [ 592837.261382979224436, 184037.153181609057356 ], [ 592829.261382979224436, 184038.653181609057356 ], [ 592828.761382979224436, 184039.653181609057356 ], [ 592823.261382979224436, 184040.153181609057356 ], [ 592822.761382979224436, 184041.153181609057356 ], [ 592820.261382979224436, 184041.153181609057356 ], [ 592818.261382979224436, 184042.653181609057356 ], [ 592810.761382979224436, 184044.153181609057356 ], [ 592809.761382979224436, 184045.653181609057356 ], [ 592808.261382979224436, 184045.653181609057356 ], [ 592807.761382979224436, 184047.153181609057356 ], [ 592805.261382979224436, 184048.153181609057356 ], [ 592802.761382979224436, 184047.653181609057356 ], [ 592796.761382979224436, 184048.653181609057356 ], [ 592795.761382979224436, 184050.153181609057356 ], [ 592792.761382979224436, 184050.153181609057356 ], [ 592791.761382979224436, 184051.653181609057356 ], [ 592789.261382979224436, 184052.653181609057356 ], [ 592787.761382979224436, 184051.653181609057356 ], [ 592787.761382979224436, 184052.653181609057356 ], [ 592784.761382979224436, 184053.153181609057356 ], [ 592784.261382979224436, 184054.653181609057356 ], [ 592782.261382979224436, 184054.653181609057356 ], [ 592778.261382979224436, 184057.153181609057356 ], [ 592772.761382979224436, 184057.653181609057356 ], [ 592768.761382979224436, 184060.153181609057356 ], [ 592766.761382979224436, 184060.153181609057356 ], [ 592763.261382979224436, 184063.153181609057356 ], [ 592760.261382979224436, 184063.153181609057356 ], [ 592759.761382979224436, 184064.653181609057356 ], [ 592758.261382979224436, 184064.653181609057356 ], [ 592757.261382979224436, 184066.153181609057356 ], [ 592754.761382979224436, 184066.153181609057356 ], [ 592754.261382979224436, 184067.653181609057356 ], [ 592751.761382979224436, 184066.653181609057356 ], [ 592750.761382979224436, 184068.153181609057356 ], [ 592746.761382979224436, 184069.153181609057356 ], [ 592744.261382979224436, 184071.653181609057356 ], [ 592742.761382979224436, 184071.653181609057356 ], [ 592742.761382979224436, 184073.153181609057356 ], [ 592740.761382979224436, 184075.153181609057356 ], [ 592737.261382979224436, 184076.653181609057356 ], [ 592735.261382979224436, 184076.153181609057356 ], [ 592735.261382979224436, 184077.153181609057356 ], [ 592732.761382979224436, 184077.153181609057356 ], [ 592730.761382979224436, 184080.653181609057356 ], [ 592728.261382979224436, 184081.153181609057356 ], [ 592727.761382979224436, 184082.153181609057356 ], [ 592726.261382979224436, 184081.153181609057356 ], [ 592725.761382979224436, 184082.153181609057356 ], [ 592723.761382979224436, 184082.153181609057356 ], [ 592718.261382979224436, 184085.153181609057356 ], [ 592718.261382979224436, 184100.153181609057356 ], [ 592720.761382979224436, 184103.653181609057356 ], [ 592721.761382979224436, 184103.653181609057356 ], [ 592720.761382979224436, 184105.653181609057356 ], [ 592721.761382979224436, 184106.653181609057356 ], [ 592720.261382979224436, 184107.653181609057356 ], [ 592721.261382979224436, 184111.153181609057356 ], [ 592718.261382979224436, 184112.653181609057356 ], [ 592718.261382979224436, 184134.153181609057356 ], [ 592719.761382979224436, 184137.653181609057356 ], [ 592719.261382979224436, 184141.653181609057356 ], [ 592722.261382979224436, 184144.653181609057356 ], [ 592721.261382979224436, 184147.653181609057356 ], [ 592722.261382979224436, 184147.653181609057356 ], [ 592722.261382979224436, 184148.653181609057356 ], [ 592724.261382979224436, 184148.153181609057356 ], [ 592728.261382979224436, 184151.653181609057356 ], [ 592732.761382979224436, 184151.653181609057356 ], [ 592733.761382979224436, 184152.653181609057356 ], [ 592731.261382979224436, 184157.153181609057356 ], [ 592734.261382979224436, 184159.653181609057356 ], [ 592735.761382979224436, 184169.153181609057356 ], [ 592736.761382979224436, 184169.153181609057356 ], [ 592736.761382979224436, 184172.153181609057356 ], [ 592738.261382979224436, 184173.653181609057356 ], [ 592737.761382979224436, 184178.153181609057356 ], [ 592734.261382979224436, 184178.653181609057356 ], [ 592733.261382979224436, 184177.653181609057356 ], [ 592728.261382979224436, 184177.653181609057356 ], [ 592726.761382979224436, 184179.153181609057356 ], [ 592727.261382979224436, 184183.653181609057356 ], [ 592726.261382979224436, 184184.653181609057356 ], [ 592728.261382979224436, 184185.653181609057356 ], [ 592728.761382979224436, 184189.153181609057356 ], [ 592730.261382979224436, 184191.153181609057356 ], [ 592733.261382979224436, 184191.153181609057356 ], [ 592735.761382979224436, 184189.153181609057356 ], [ 592735.761382979224436, 184188.153181609057356 ], [ 592738.261382979224436, 184187.653181609057356 ], [ 592744.761382979224436, 184189.653181609057356 ], [ 592745.261382979224436, 184190.653181609057356 ], [ 592750.261382979224436, 184191.653181609057356 ], [ 592750.761382979224436, 184193.653181609057356 ], [ 592753.261382979224436, 184195.653181609057356 ], [ 592754.261382979224436, 184195.653181609057356 ], [ 592756.761382979224436, 184192.653181609057356 ], [ 592758.761382979224436, 184192.653181609057356 ], [ 592758.761382979224436, 184193.653181609057356 ], [ 592764.761382979224436, 184195.153181609057356 ], [ 592764.761382979224436, 184197.153181609057356 ], [ 592767.261382979224436, 184198.653181609057356 ], [ 592791.261382979224436, 184201.153181609057356 ], [ 592796.761382979224436, 184202.653181609057356 ], [ 592802.261382979224436, 184202.653181609057356 ], [ 592823.761382979224436, 184209.653181609057356 ], [ 592815.761382979224436, 184204.653181609057356 ], [ 592809.761382979224436, 184203.653181609057356 ], [ 592810.261382979224436, 184201.153181609057356 ], [ 592812.761382979224436, 184200.153181609057356 ], [ 592812.761382979224436, 184198.653181609057356 ], [ 592815.261382979224436, 184197.153181609057356 ], [ 592816.261382979224436, 184198.653181609057356 ], [ 592826.761382979224436, 184200.153181609057356 ], [ 592827.261382979224436, 184201.153181609057356 ], [ 592834.261382979224436, 184203.153181609057356 ], [ 592834.761382979224436, 184204.153181609057356 ], [ 592842.261382979224436, 184205.653181609057356 ], [ 592844.761382979224436, 184207.153181609057356 ], [ 592847.761382979224436, 184207.153181609057356 ], [ 592851.761382979224436, 184208.653181609057356 ], [ 592853.261382979224436, 184208.153181609057356 ], [ 592856.761382979224436, 184211.153181609057356 ], [ 592859.261382979224436, 184210.653181609057356 ], [ 592859.261382979224436, 184211.653181609057356 ], [ 592862.761382979224436, 184212.153181609057356 ], [ 592863.761382979224436, 184213.653181609057356 ], [ 592866.261382979224436, 184213.653181609057356 ], [ 592869.261382979224436, 184215.153181609057356 ], [ 592870.761382979224436, 184214.653181609057356 ], [ 592871.261382979224436, 184216.153181609057356 ], [ 592876.761382979224436, 184217.153181609057356 ], [ 592876.761382979224436, 184218.153181609057356 ], [ 592879.761382979224436, 184218.653181609057356 ], [ 592881.761382979224436, 184220.153181609057356 ], [ 592885.261382979224436, 184220.153181609057356 ], [ 592885.261382979224436, 184221.153181609057356 ], [ 592887.761382979224436, 184222.153181609057356 ], [ 592889.261382979224436, 184224.653181609057356 ], [ 592895.761382979224436, 184226.653181609057356 ], [ 592897.261382979224436, 184228.653181609057356 ], [ 592900.761382979224436, 184227.653181609057356 ], [ 592901.761382979224436, 184229.153181609057356 ], [ 592904.261382979224436, 184229.153181609057356 ], [ 592904.761382979224436, 184230.653181609057356 ], [ 592907.261382979224436, 184230.653181609057356 ], [ 592909.261382979224436, 184233.153181609057356 ], [ 592910.261382979224436, 184233.153181609057356 ], [ 592910.761382979224436, 184234.653181609057356 ], [ 592913.761382979224436, 184235.153181609057356 ], [ 592915.261382979224436, 184237.653181609057356 ], [ 592919.261382979224436, 184238.153181609057356 ], [ 592920.761382979224436, 184237.153181609057356 ], [ 592924.261382979224436, 184238.153181609057356 ], [ 592925.761382979224436, 184240.153181609057356 ], [ 592927.261382979224436, 184240.153181609057356 ], [ 592927.761382979224436, 184242.653181609057356 ], [ 592926.761382979224436, 184243.653181609057356 ], [ 592930.261382979224436, 184245.153181609057356 ], [ 592931.261382979224436, 184246.653181609057356 ], [ 592933.261382979224436, 184246.653181609057356 ], [ 592933.761382979224436, 184248.153181609057356 ], [ 592936.261382979224436, 184248.653181609057356 ], [ 592935.761382979224436, 184252.153181609057356 ], [ 592934.261382979224436, 184253.653181609057356 ], [ 592934.261382979224436, 184259.653181609057356 ], [ 592935.761382979224436, 184261.153181609057356 ], [ 592936.761382979224436, 184260.653181609057356 ], [ 592939.761382979224436, 184261.653181609057356 ], [ 592942.761382979224436, 184264.153181609057356 ], [ 592949.261382979224436, 184265.153181609057356 ], [ 592949.761382979224436, 184266.653181609057356 ], [ 592953.761382979224436, 184268.153181609057356 ], [ 592953.761382979224436, 184269.153181609057356 ], [ 592954.761382979224436, 184269.153181609057356 ], [ 592957.761382979224436, 184272.653181609057356 ], [ 592960.761382979224436, 184273.153181609057356 ], [ 592960.761382979224436, 184274.153181609057356 ], [ 592963.761382979224436, 184275.653181609057356 ], [ 592966.761382979224436, 184280.153181609057356 ], [ 592971.261382979224436, 184282.653181609057356 ], [ 592971.261382979224436, 184284.153181609057356 ], [ 592972.761382979224436, 184284.153181609057356 ], [ 592975.761382979224436, 184287.153181609057356 ], [ 592978.261382979224436, 184287.153181609057356 ], [ 592979.261382979224436, 184288.153181609057356 ], [ 592980.761382979224436, 184287.653181609057356 ], [ 592981.261382979224436, 184288.653181609057356 ] ], [ [ 593107.761382979224436, 184128.153181609057356 ], [ 593107.761382979224436, 184127.153181609057356 ], [ 593102.761382979224436, 184127.153181609057356 ], [ 593102.261382979224436, 184125.653181609057356 ], [ 593099.261382979224436, 184124.153181609057356 ], [ 593097.761382979224436, 184121.653181609057356 ], [ 593095.761382979224436, 184120.653181609057356 ], [ 593094.761382979224436, 184119.153181609057356 ], [ 593094.261382979224436, 184114.153181609057356 ], [ 593095.761382979224436, 184110.153181609057356 ], [ 593099.261382979224436, 184107.653181609057356 ], [ 593099.261382979224436, 184106.653181609057356 ], [ 593100.761382979224436, 184106.653181609057356 ], [ 593100.761382979224436, 184105.153181609057356 ], [ 593105.261382979224436, 184102.653181609057356 ], [ 593106.761382979224436, 184100.653181609057356 ], [ 593111.261382979224436, 184101.153181609057356 ], [ 593113.261382979224436, 184102.653181609057356 ], [ 593119.761382979224436, 184102.653181609057356 ], [ 593120.261382979224436, 184105.153181609057356 ], [ 593121.261382979224436, 184105.153181609057356 ], [ 593121.261382979224436, 184107.153181609057356 ], [ 593124.761382979224436, 184110.653181609057356 ], [ 593125.261382979224436, 184117.153181609057356 ], [ 593126.761382979224436, 184118.653181609057356 ], [ 593128.261382979224436, 184118.653181609057356 ], [ 593128.261382979224436, 184119.653181609057356 ], [ 593130.261382979224436, 184119.653181609057356 ], [ 593132.761382979224436, 184122.653181609057356 ], [ 593134.261382979224436, 184122.653181609057356 ], [ 593135.761382979224436, 184124.153181609057356 ], [ 593134.761382979224436, 184126.653181609057356 ], [ 593122.261382979224436, 184124.653181609057356 ], [ 593120.261382979224436, 184125.653181609057356 ], [ 593112.261382979224436, 184125.653181609057356 ], [ 593112.261382979224436, 184126.653181609057356 ], [ 593107.761382979224436, 184128.153181609057356 ] ] ] } },
{ "type": "Feature", "properties": { "mainhabs": "Deciduous woodland", "habcodes": "DWOOD", "featdesc": null, "featcodes": null, "otherclass": null, "addhabs": null, "primsource": "National Forest Inventory 2023 (DWOOD)", "areaha": "0.03", "version": "Sep_25", "uid": "PHID59332258_018446712", "shape_length": null, "shape_area": null, "site": "essex", "pid": 1, "method": "grabcut2" }, "geometry": { "type": "Polygon", "coordinates": [ [ [ 593322.761382979224436, 184480.153181609057356 ], [ 593326.261382979224436, 184479.653181609057356 ], [ 593328.761382979224436, 184476.153181609057356 ], [ 593327.761382979224436, 184474.653181609057356 ], [ 593327.761382979224436, 184467.153181609057356 ], [ 593323.761382979224436, 184463.653181609057356 ], [ 593322.761382979224436, 184460.653181609057356 ], [ 593318.261382979224436, 184460.153181609057356 ], [ 593318.261382979224436, 184458.153181609057356 ], [ 593313.261382979224436, 184459.653181609057356 ], [ 593312.261382979224436, 184461.153181609057356 ], [ 593318.261382979224436, 184470.153181609057356 ], [ 593318.261382979224436, 184478.153181609057356 ], [ 593322.761382979224436, 184479.153181609057356 ], [ 593322.761382979224436, 184480.153181609057356 ] ] ] } },
{ "type": "Feature", "properties": { "mainhabs": "Deciduous woodland", "habcodes": "DWOOD", "featdesc": null, "featcodes": null, "otherclass": null, "addhabs": null, "primsource": "National Forest Inventory 2023 (DWOOD)", "areaha": "0.46", "version": "Sep_25", "uid": "PHID59337958_018448393", "shape_length": null, "shape_area": null, "site": "essex", "pid": 2, "method": "grabcut2" }, "geometry": { "type": "Polygon", "coordinates": [ [ [ 593339.761382979224436, 184514.653181609057356 ], [ 593387.261382979224436, 184514.653181609057356 ], [ 593387.761382979224436, 184513.653181609057356 ], [ 593393.261382979224436, 184513.153181609057356 ], [ 593393.761382979224436, 184512.153181609057356 ], [ 593396.261382979224436, 184512.653181609057356 ], [ 593402.261382979224436, 184511.653181609057356 ], [ 593404.761382979224436, 184512.653181609057356 ], [ 593409.261382979224436, 184512.653181609057356 ], [ 593409.761382979224436, 184511.153181609057356 ], [ 593413.261382979224436, 184512.153181609057356 ], [ 593413.761382979224436, 184513.653181609057356 ], [ 593416.261382979224436, 184513.653181609057356 ], [ 593420.761382979224436, 184508.653181609057356 ], [ 593425.761382979224436, 184509.153181609057356 ], [ 593427.761382979224436, 184506.153181609057356 ], [ 593425.261382979224436, 184501.153181609057356 ], [ 593423.761382979224436, 184489.653181609057356 ], [ 593426.261382979224436, 184488.153181609057356 ], [ 593426.261382979224436, 184487.153181609057356 ], [ 593428.761382979224436, 184485.153181609057356 ], [ 593428.761382979224436, 184483.653181609057356 ], [ 593430.261382979224436, 184483.653181609057356 ], [ 593430.261382979224436, 184482.653181609057356 ], [ 593427.261382979224436, 184482.153181609057356 ], [ 593426.761382979224436, 184478.153181609057356 ], [ 593424.761382979224436, 184478.653181609057356 ], [ 593424.761382979224436, 184467.153181609057356 ], [ 593429.261382979224436, 184466.653181609057356 ], [ 593429.761382979224436, 184465.653181609057356 ], [ 593434.761382979224436, 184465.653181609057356 ], [ 593435.261382979224436, 184464.153181609057356 ], [ 593433.261382979224436, 184452.653181609057356 ], [ 593431.761382979224436, 184452.653181609057356 ], [ 593432.761382979224436, 184460.153181609057356 ], [ 593431.261382979224436, 184461.653181609057356 ], [ 593421.261382979224436, 184462.153181609057356 ], [ 593419.261382979224436, 184459.653181609057356 ], [ 593415.261382979224436, 184460.153181609057356 ], [ 593411.761382979224436, 184462.653181609057356 ], [ 593411.761382979224436, 184464.153181609057356 ], [ 593410.761382979224436, 184464.653181609057356 ], [ 593411.261382979224436, 184467.653181609057356 ], [ 593407.761382979224436, 184467.653181609057356 ], [ 593404.761382979224436, 184464.653181609057356 ], [ 593397.761382979224436, 184464.653181609057356 ], [ 593396.261382979224436, 184463.153181609057356 ], [ 593382.761382979224436, 184463.153181609057356 ], [ 593382.261382979224436, 184462.153181609057356 ], [ 593373.261382979224436, 184461.653181609057356 ], [ 593371.761382979224436, 184463.153181609057356 ], [ 593354.761382979224436, 184464.653181609057356 ], [ 593353.261382979224436, 184466.153181609057356 ], [ 593349.761382979224436, 184466.153181609057356 ], [ 593348.761382979224436, 184467.653181609057356 ], [ 593346.261382979224436, 184467.653181609057356 ], [ 593345.761382979224436, 184468.653181609057356 ], [ 593342.761382979224436, 184468.153181609057356 ], [ 593337.761382979224436, 184469.653181609057356 ], [ 593335.761382979224436, 184473.153181609057356 ], [ 593335.261382979224436, 184478.153181609057356 ], [ 593334.261382979224436, 184478.653181609057356 ], [ 593334.261382979224436, 184480.653181609057356 ], [ 593333.261382979224436, 184480.653181609057356 ], [ 593333.261382979224436, 184482.153181609057356 ], [ 593334.761382979224436, 184482.653181609057356 ], [ 593333.761382979224436, 184486.653181609057356 ], [ 593334.261382979224436, 184488.653181609057356 ], [ 593338.261382979224436, 184489.153181609057356 ], [ 593339.261382979224436, 184487.653181609057356 ], [ 593340.761382979224436, 184488.153181609057356 ], [ 593340.761382979224436, 184492.653181609057356 ], [ 593339.761382979224436, 184493.653181609057356 ], [ 593340.261382979224436, 184495.653181609057356 ], [ 593333.761382979224436, 184498.653181609057356 ], [ 593331.261382979224436, 184501.653181609057356 ], [ 593330.261382979224436, 184501.653181609057356 ], [ 593330.261382979224436, 184505.653181609057356 ], [ 593329.261382979224436, 184506.153181609057356 ], [ 593329.261382979224436, 184507.653181609057356 ], [ 593330.261382979224436, 184510.653181609057356 ], [ 593335.261382979224436, 184511.653181609057356 ], [ 593339.761382979224436, 184514.653181609057356 ] ] ] } }
]
}
