{
"type": "FeatureCollection",
"crs": { "type": "name", "properties": { "name": "urn:ogc:def:crs:EPSG::27700" } },
"features": [
{ "type": "Feature", "properties": { "mainhabs": "Coastal vegetated shingle", "habcodes": "CVSHI", "featdesc": null, "featcodes": null, "otherclass": null, "addhabs": null, "primsource": "exeGesIS and Pat Doody - 1990 Phase 2 Inventory (CVSHI)", "areaha": "10.22", "version": "Sep_25", "uid": "PHID59291584_018412604", "shape_length": null, "shape_area": null, "site": "essex", "pid": 0, "method": "sam2tile" }, "geometry": { "type": "Polygon", "coordinates": [ [ [ 592979.261382979224436, 184287.153181609057356 ], [ 592983.261382979224436, 184286.653181609057356 ], [ 592984.761382979224436, 184284.653181609057356 ], [ 592987.261382979224436, 184284.153181609057356 ], [ 592987.761382979224436, 184281.153181609057356 ], [ 592994.261382979224436, 184280.153181609057356 ], [ 592994.761382979224436, 184278.653181609057356 ], [ 592995.761382979224436, 184279.153181609057356 ], [ 592997.261382979224436, 184277.153181609057356 ], [ 593004.761382979224436, 184274.153181609057356 ], [ 593008.261382979224436, 184271.153181609057356 ], [ 593013.261382979224436, 184269.653181609057356 ], [ 593013.261382979224436, 184268.653181609057356 ], [ 593019.261382979224436, 184266.653181609057356 ], [ 593020.761382979224436, 184265.153181609057356 ], [ 593029.761382979224436, 184263.653181609057356 ], [ 593031.261382979224436, 184262.653181609057356 ], [ 593037.261382979224436, 184262.653181609057356 ], [ 593038.261382979224436, 184261.153181609057356 ], [ 593058.761382979224436, 184261.153181609057356 ], [ 593078.761382979224436, 184259.153181609057356 ], [ 593101.261382979224436, 184259.153181609057356 ], [ 593103.261382979224436, 184258.153181609057356 ], [ 593126.261382979224436, 184258.153181609057356 ], [ 593136.761382979224436, 184256.653181609057356 ], [ 593157.261382979224436, 184256.653181609057356 ], [ 593163.261382979224436, 184255.153181609057356 ], [ 593170.261382979224436, 184255.153181609057356 ], [ 593174.261382979224436, 184253.653181609057356 ], [ 593179.261382979224436, 184253.653181609057356 ], [ 593182.761382979224436, 184252.153181609057356 ], [ 593193.261382979224436, 184250.653181609057356 ], [ 593197.261382979224436, 184249.153181609057356 ], [ 593201.261382979224436, 184245.153181609057356 ], [ 593201.261382979224436, 184235.153181609057356 ], [ 593199.761382979224436, 184233.153181609057356 ], [ 593199.261382979224436, 184228.153181609057356 ], [ 593198.261382979224436, 184227.653181609057356 ], [ 593196.761382979224436, 184215.153181609057356 ], [ 593193.761382979224436, 184207.653181609057356 ], [ 593193.761382979224436, 184202.153181609057356 ], [ 593193.261382979224436, 184200.153181609057356 ], [ 593192.261382979224436, 184199.653181609057356 ], [ 593192.261382979224436, 184194.653181609057356 ], [ 593191.261382979224436, 184193.653181609057356 ], [ 593189.761382979224436, 184186.153181609057356 ], [ 593189.261382979224436, 184179.153181609057356 ], [ 593186.261382979224436, 184168.653181609057356 ], [ 593186.261382979224436, 184162.153181609057356 ], [ 593184.761382979224436, 184160.153181609057356 ], [ 593184.761382979224436, 184158.153181609057356 ], [ 593181.761382979224436, 184154.653181609057356 ], [ 593180.761382979224436, 184154.653181609057356 ], [ 593179.261382979224436, 184156.653181609057356 ], [ 593177.761382979224436, 184156.153181609057356 ], [ 593176.761382979224436, 184157.653181609057356 ], [ 593169.261382979224436, 184157.153181609057356 ], [ 593169.261382979224436, 184155.153181609057356 ], [ 593170.261382979224436, 184154.153181609057356 ], [ 593174.261382979224436, 184154.153181609057356 ], [ 593174.761382979224436, 184153.153181609057356 ], [ 593176.761382979224436, 184153.153181609057356 ], [ 593177.761382979224436, 184151.153181609057356 ], [ 593176.261382979224436, 184150.153181609057356 ], [ 593176.761382979224436, 184147.153181609057356 ], [ 593174.761382979224436, 184141.653181609057356 ], [ 593174.261382979224436, 184133.153181609057356 ], [ 593172.261382979224436, 184131.653181609057356 ], [ 593174.261382979224436, 184128.653181609057356 ], [ 593171.761382979224436, 184127.153181609057356 ], [ 593171.261382979224436, 184122.653181609057356 ], [ 593170.261382979224436, 184121.153181609057356 ], [ 593170.261382979224436, 184113.653181609057356 ], [ 593167.761382979224436, 184106.653181609057356 ], [ 593166.761382979224436, 184094.653181609057356 ], [ 593164.761382979224436, 184092.653181609057356 ], [ 593164.761382979224436, 184086.653181609057356 ], [ 593163.261382979224436, 184082.653181609057356 ], [ 593163.761382979224436, 184077.653181609057356 ], [ 593163.261382979224436, 184075.653181609057356 ], [ 593162.261382979224436, 184075.153181609057356 ], [ 593161.761382979224436, 184069.153181609057356 ], [ 593160.761382979224436, 184068.653181609057356 ], [ 593160.261382979224436, 184065.653181609057356 ], [ 593160.261382979224436, 184059.653181609057356 ], [ 593161.761382979224436, 184057.653181609057356 ], [ 593158.761382979224436, 184056.653181609057356 ], [ 593158.761382979224436, 184054.653181609057356 ], [ 593157.761382979224436, 184053.653181609057356 ], [ 593156.761382979224436, 184044.153181609057356 ], [ 593157.261382979224436, 184042.653181609057356 ], [ 593159.261382979224436, 184042.153181609057356 ], [ 593159.261382979224436, 184039.153181609057356 ], [ 593155.761382979224436, 184038.653181609057356 ], [ 593153.261382979224436, 184031.153181609057356 ], [ 593153.261382979224436, 184026.653181609057356 ], [ 593151.261382979224436, 184024.153181609057356 ], [ 593151.761382979224436, 184022.653181609057356 ], [ 593152.761382979224436, 184022.653181609057356 ], [ 593153.261382979224436, 184019.653181609057356 ], [ 593154.261382979224436, 184019.653181609057356 ], [ 593154.761382979224436, 184021.153181609057356 ], [ 593155.761382979224436, 184020.653181609057356 ], [ 593155.761382979224436, 184017.653181609057356 ], [ 593154.261382979224436, 184016.153181609057356 ], [ 593154.261382979224436, 184010.653181609057356 ], [ 593152.261382979224436, 184006.653181609057356 ], [ 593151.761382979224436, 184000.153181609057356 ], [ 593150.261382979224436, 183997.653181609057356 ], [ 593150.261382979224436, 183993.153181609057356 ], [ 593149.261382979224436, 183991.653181609057356 ], [ 593150.261382979224436, 183978.653181609057356 ], [ 593150.761382979224436, 183975.653181609057356 ], [ 593151.761382979224436, 183975.153181609057356 ], [ 593151.761382979224436, 183973.653181609057356 ], [ 593150.261382979224436, 183973.153181609057356 ], [ 593150.261382979224436, 183972.153181609057356 ], [ 593147.261382979224436, 183971.653181609057356 ], [ 593146.761382979224436, 183972.653181609057356 ], [ 593143.261382979224436, 183973.153181609057356 ], [ 593123.261382979224436, 183974.653181609057356 ], [ 593121.261382979224436, 183976.653181609057356 ], [ 593121.261382979224436, 183978.153181609057356 ], [ 593123.261382979224436, 183978.653181609057356 ], [ 593124.261382979224436, 183980.153181609057356 ], [ 593125.261382979224436, 183993.153181609057356 ], [ 593121.761382979224436, 183994.153181609057356 ], [ 593116.761382979224436, 183994.653181609057356 ], [ 593113.761382979224436, 183993.153181609057356 ], [ 593109.261382979224436, 183989.153181609057356 ], [ 593108.761382979224436, 183986.653181609057356 ], [ 593106.261382979224436, 183986.153181609057356 ], [ 593104.761382979224436, 183982.653181609057356 ], [ 593102.261382979224436, 183981.653181609057356 ], [ 593101.761382979224436, 183979.153181609057356 ], [ 593099.261382979224436, 183978.653181609057356 ], [ 593096.261382979224436, 183975.653181609057356 ], [ 593094.761382979224436, 183975.653181609057356 ], [ 593094.761382979224436, 183974.653181609057356 ], [ 593091.761382979224436, 183972.653181609057356 ], [ 593091.761382979224436, 183971.653181609057356 ], [ 593090.261382979224436, 183971.653181609057356 ], [ 593090.261382979224436, 183970.153181609057356 ], [ 593089.261382979224436, 183970.153181609057356 ], [ 593086.761382979224436, 183967.153181609057356 ], [ 593082.261382979224436, 183966.653181609057356 ], [ 593069.261382979224436, 183968.653181609057356 ], [ 593066.261382979224436, 183970.153181609057356 ], [ 593063.261382979224436, 183970.153181609057356 ], [ 593060.761382979224436, 183971.653181609057356 ], [ 593056.761382979224436, 183972.153181609057356 ], [ 593056.261382979224436, 183973.153181609057356 ], [ 593052.761382979224436, 183973.153181609057356 ], [ 593049.761382979224436, 183974.653181609057356 ], [ 593043.261382979224436, 183975.653181609057356 ], [ 593042.261382979224436, 183976.653181609057356 ], [ 593037.261382979224436, 183977.153181609057356 ], [ 593034.761382979224436, 183978.653181609057356 ], [ 593025.761382979224436, 183980.653181609057356 ], [ 593024.761382979224436, 183981.653181609057356 ], [ 593016.761382979224436, 183983.153181609057356 ], [ 593016.261382979224436, 183984.153181609057356 ], [ 593013.261382979224436, 183984.153181609057356 ], [ 593008.761382979224436, 183986.153181609057356 ], [ 593005.261382979224436, 183986.153181609057356 ], [ 593003.261382979224436, 183987.653181609057356 ], [ 592999.761382979224436, 183987.653181609057356 ], [ 592998.761382979224436, 183988.653181609057356 ], [ 592990.261382979224436, 183990.653181609057356 ], [ 592989.261382979224436, 183991.653181609057356 ], [ 592986.761382979224436, 183991.653181609057356 ], [ 592984.261382979224436, 183993.153181609057356 ], [ 592981.761382979224436, 183993.153181609057356 ], [ 592974.761382979224436, 183996.153181609057356 ], [ 592958.761382979224436, 183998.153181609057356 ], [ 592956.761382979224436, 183999.153181609057356 ], [ 592951.261382979224436, 183999.153181609057356 ], [ 592948.761382979224436, 184000.653181609057356 ], [ 592946.261382979224436, 184000.653181609057356 ], [ 592944.761382979224436, 184002.153181609057356 ], [ 592937.761382979224436, 184003.653181609057356 ], [ 592936.261382979224436, 184005.153181609057356 ], [ 592934.261382979224436, 184005.153181609057356 ], [ 592933.261382979224436, 184006.653181609057356 ], [ 592927.761382979224436, 184007.653181609057356 ], [ 592926.261382979224436, 184009.153181609057356 ], [ 592923.261382979224436, 184009.653181609057356 ], [ 592922.761382979224436, 184010.653181609057356 ], [ 592915.761382979224436, 184012.653181609057356 ], [ 592915.761382979224436, 184013.653181609057356 ], [ 592913.261382979224436, 184013.653181609057356 ], [ 592906.761382979224436, 184016.653181609057356 ], [ 592904.261382979224436, 184016.653181609057356 ], [ 592902.761382979224436, 184018.153181609057356 ], [ 592900.261382979224436, 184018.153181609057356 ], [ 592899.761382979224436, 184019.153181609057356 ], [ 592896.761382979224436, 184019.653181609057356 ], [ 592894.761382979224436, 184021.153181609057356 ], [ 592884.261382979224436, 184023.653181609057356 ], [ 592883.761382979224436, 184024.653181609057356 ], [ 592879.761382979224436, 184025.153181609057356 ], [ 592878.261382979224436, 184026.653181609057356 ], [ 592875.261382979224436, 184026.653181609057356 ], [ 592873.261382979224436, 184028.153181609057356 ], [ 592869.261382979224436, 184028.653181609057356 ], [ 592865.261382979224436, 184030.653181609057356 ], [ 592854.761382979224436, 184032.653181609057356 ], [ 592840.261382979224436, 184038.153181609057356 ], [ 592830.261382979224436, 184040.153181609057356 ], [ 592826.261382979224436, 184041.653181609057356 ], [ 592825.761382979224436, 184042.653181609057356 ], [ 592822.761382979224436, 184042.653181609057356 ], [ 592812.761382979224436, 184045.653181609057356 ], [ 592806.761382979224436, 184048.653181609057356 ], [ 592803.761382979224436, 184049.153181609057356 ], [ 592802.261382979224436, 184051.153181609057356 ], [ 592796.761382979224436, 184051.653181609057356 ], [ 592794.261382979224436, 184053.153181609057356 ], [ 592792.261382979224436, 184053.153181609057356 ], [ 592790.761382979224436, 184054.653181609057356 ], [ 592787.761382979224436, 184054.653181609057356 ], [ 592784.261382979224436, 184056.153181609057356 ], [ 592782.761382979224436, 184055.653181609057356 ], [ 592779.261382979224436, 184058.153181609057356 ], [ 592775.261382979224436, 184058.653181609057356 ], [ 592770.761382979224436, 184060.653181609057356 ], [ 592770.261382979224436, 184061.653181609057356 ], [ 592764.761382979224436, 184063.153181609057356 ], [ 592761.261382979224436, 184066.153181609057356 ], [ 592759.261382979224436, 184066.153181609057356 ], [ 592754.261382979224436, 184069.653181609057356 ], [ 592750.261382979224436, 184070.653181609057356 ], [ 592747.761382979224436, 184073.153181609057356 ], [ 592745.761382979224436, 184073.153181609057356 ], [ 592744.261382979224436, 184075.153181609057356 ], [ 592742.761382979224436, 184075.153181609057356 ], [ 592739.761382979224436, 184077.653181609057356 ], [ 592737.761382979224436, 184077.653181609057356 ], [ 592734.761382979224436, 184080.653181609057356 ], [ 592732.761382979224436, 184080.653181609057356 ], [ 592731.761382979224436, 184082.153181609057356 ], [ 592724.761382979224436, 184085.153181609057356 ], [ 592720.761382979224436, 184088.153181609057356 ], [ 592720.761382979224436, 184089.153181609057356 ], [ 592719.761382979224436, 184089.153181609057356 ], [ 592720.761382979224436, 184092.153181609057356 ], [ 592721.261382979224436, 184101.153181609057356 ], [ 592722.261382979224436, 184101.653181609057356 ], [ 592723.761382979224436, 184108.653181609057356 ], [ 592724.761382979224436, 184109.153181609057356 ], [ 592725.261382979224436, 184116.153181609057356 ], [ 592726.261382979224436, 184116.653181609057356 ], [ 592727.261382979224436, 184121.153181609057356 ], [ 592726.761382979224436, 184122.653181609057356 ], [ 592728.261382979224436, 184123.653181609057356 ], [ 592728.761382979224436, 184131.153181609057356 ], [ 592729.761382979224436, 184131.653181609057356 ], [ 592730.261382979224436, 184135.653181609057356 ], [ 592731.261382979224436, 184136.153181609057356 ], [ 592730.761382979224436, 184137.653181609057356 ], [ 592732.261382979224436, 184139.653181609057356 ], [ 592732.761382979224436, 184147.653181609057356 ], [ 592734.261382979224436, 184148.153181609057356 ], [ 592734.261382979224436, 184150.653181609057356 ], [ 592737.261382979224436, 184153.153181609057356 ], [ 592736.761382979224436, 184155.653181609057356 ], [ 592735.761382979224436, 184156.153181609057356 ], [ 592735.761382979224436, 184161.653181609057356 ], [ 592736.761382979224436, 184164.153181609057356 ], [ 592736.761382979224436, 184168.153181609057356 ], [ 592739.261382979224436, 184173.653181609057356 ], [ 592738.761382979224436, 184178.153181609057356 ], [ 592740.761382979224436, 184179.653181609057356 ], [ 592742.261382979224436, 184182.653181609057356 ], [ 592745.761382979224436, 184185.153181609057356 ], [ 592748.761382979224436, 184185.653181609057356 ], [ 592748.761382979224436, 184186.653181609057356 ], [ 592756.761382979224436, 184188.153181609057356 ], [ 592767.261382979224436, 184192.653181609057356 ], [ 592771.261382979224436, 184192.653181609057356 ], [ 592772.761382979224436, 184194.153181609057356 ], [ 592774.761382979224436, 184194.153181609057356 ], [ 592775.761382979224436, 184195.653181609057356 ], [ 592780.261382979224436, 184195.653181609057356 ], [ 592784.761382979224436, 184197.653181609057356 ], [ 592787.761382979224436, 184197.653181609057356 ], [ 592787.761382979224436, 184198.653181609057356 ], [ 592790.761382979224436, 184198.653181609057356 ], [ 592792.761382979224436, 184200.153181609057356 ], [ 592800.761382979224436, 184201.153181609057356 ], [ 592803.261382979224436, 184203.153181609057356 ], [ 592804.761382979224436, 184202.653181609057356 ], [ 592804.761382979224436, 184203.653181609057356 ], [ 592822.261382979224436, 184209.653181609057356 ], [ 592823.761382979224436, 184209.653181609057356 ], [ 592823.261382979224436, 184208.653181609057356 ], [ 592824.261382979224436, 184208.653181609057356 ], [ 592827.261382979224436, 184210.653181609057356 ], [ 592829.261382979224436, 184210.153181609057356 ], [ 592830.761382979224436, 184212.153181609057356 ], [ 592837.261382979224436, 184213.653181609057356 ], [ 592837.261382979224436, 184214.653181609057356 ], [ 592840.761382979224436, 184214.653181609057356 ], [ 592841.761382979224436, 184216.153181609057356 ], [ 592844.261382979224436, 184216.153181609057356 ], [ 592846.761382979224436, 184217.653181609057356 ], [ 592850.261382979224436, 184217.653181609057356 ], [ 592851.761382979224436, 184220.153181609057356 ], [ 592854.261382979224436, 184219.153181609057356 ], [ 592855.761382979224436, 184221.653181609057356 ], [ 592859.761382979224436, 184221.653181609057356 ], [ 592862.761382979224436, 184224.653181609057356 ], [ 592864.761382979224436, 184224.653181609057356 ], [ 592865.261382979224436, 184226.153181609057356 ], [ 592868.761382979224436, 184226.153181609057356 ], [ 592870.261382979224436, 184228.653181609057356 ], [ 592875.761382979224436, 184229.153181609057356 ], [ 592882.261382979224436, 184232.153181609057356 ], [ 592885.261382979224436, 184232.153181609057356 ], [ 592885.261382979224436, 184233.153181609057356 ], [ 592888.261382979224436, 184233.153181609057356 ], [ 592889.261382979224436, 184232.153181609057356 ], [ 592890.261382979224436, 184234.653181609057356 ], [ 592893.761382979224436, 184236.153181609057356 ], [ 592896.761382979224436, 184235.653181609057356 ], [ 592898.261382979224436, 184237.653181609057356 ], [ 592899.761382979224436, 184237.653181609057356 ], [ 592901.261382979224436, 184239.153181609057356 ], [ 592908.261382979224436, 184240.153181609057356 ], [ 592909.261382979224436, 184241.653181609057356 ], [ 592913.261382979224436, 184243.153181609057356 ], [ 592915.761382979224436, 184242.653181609057356 ], [ 592917.261382979224436, 184245.153181609057356 ], [ 592918.761382979224436, 184246.153181609057356 ], [ 592920.261382979224436, 184245.653181609057356 ], [ 592920.261382979224436, 184246.653181609057356 ], [ 592922.761382979224436, 184246.653181609057356 ], [ 592923.261382979224436, 184245.153181609057356 ], [ 592926.261382979224436, 184242.653181609057356 ], [ 592926.261382979224436, 184243.653181609057356 ], [ 592927.761382979224436, 184244.153181609057356 ], [ 592927.761382979224436, 184246.153181609057356 ], [ 592926.761382979224436, 184245.153181609057356 ], [ 592924.761382979224436, 184245.653181609057356 ], [ 592926.261382979224436, 184247.653181609057356 ], [ 592925.761382979224436, 184249.153181609057356 ], [ 592930.261382979224436, 184250.653181609057356 ], [ 592932.261382979224436, 184253.653181609057356 ], [ 592934.761382979224436, 184252.653181609057356 ], [ 592934.261382979224436, 184251.153181609057356 ], [ 592935.261382979224436, 184250.653181609057356 ], [ 592935.261382979224436, 184248.153181609057356 ], [ 592936.761382979224436, 184245.653181609057356 ], [ 592939.261382979224436, 184245.653181609057356 ], [ 592940.761382979224436, 184247.653181609057356 ], [ 592943.261382979224436, 184247.653181609057356 ], [ 592944.761382979224436, 184246.653181609057356 ], [ 592947.761382979224436, 184249.153181609057356 ], [ 592946.261382979224436, 184252.153181609057356 ], [ 592944.761382979224436, 184252.153181609057356 ], [ 592944.761382979224436, 184253.653181609057356 ], [ 592947.761382979224436, 184255.153181609057356 ], [ 592946.261382979224436, 184257.153181609057356 ], [ 592946.261382979224436, 184259.653181609057356 ], [ 592950.761382979224436, 184262.653181609057356 ], [ 592950.761382979224436, 184264.153181609057356 ], [ 592953.261382979224436, 184266.153181609057356 ], [ 592953.761382979224436, 184265.153181609057356 ], [ 592955.261382979224436, 184265.153181609057356 ], [ 592955.261382979224436, 184268.153181609057356 ], [ 592959.261382979224436, 184269.653181609057356 ], [ 592959.761382979224436, 184271.153181609057356 ], [ 592963.261382979224436, 184273.153181609057356 ], [ 592964.261382979224436, 184275.653181609057356 ], [ 592967.261382979224436, 184277.153181609057356 ], [ 592970.261382979224436, 184281.153181609057356 ], [ 592971.261382979224436, 184281.153181609057356 ], [ 592971.761382979224436, 184282.653181609057356 ], [ 592975.761382979224436, 184284.153181609057356 ], [ 592979.261382979224436, 184287.153181609057356 ] ], [ [ 593160.261382979224436, 184138.653181609057356 ], [ 593160.261382979224436, 184137.653181609057356 ], [ 593158.261382979224436, 184136.153181609057356 ], [ 593155.261382979224436, 184136.153181609057356 ], [ 593151.261382979224436, 184133.153181609057356 ], [ 593148.761382979224436, 184133.153181609057356 ], [ 593147.761382979224436, 184131.653181609057356 ], [ 593144.261382979224436, 184131.653181609057356 ], [ 593142.761382979224436, 184129.153181609057356 ], [ 593139.761382979224436, 184129.153181609057356 ], [ 593138.761382979224436, 184127.653181609057356 ], [ 593135.761382979224436, 184127.153181609057356 ], [ 593135.761382979224436, 184125.653181609057356 ], [ 593132.761382979224436, 184125.653181609057356 ], [ 593131.761382979224436, 184124.153181609057356 ], [ 593130.761382979224436, 184125.153181609057356 ], [ 593130.261382979224436, 184124.153181609057356 ], [ 593118.261382979224436, 184124.153181609057356 ], [ 593116.761382979224436, 184125.653181609057356 ], [ 593111.261382979224436, 184125.653181609057356 ], [ 593110.761382979224436, 184127.153181609057356 ], [ 593106.261382979224436, 184127.153181609057356 ], [ 593105.261382979224436, 184125.653181609057356 ], [ 593102.261382979224436, 184125.653181609057356 ], [ 593101.761382979224436, 184124.153181609057356 ], [ 593099.261382979224436, 184124.153181609057356 ], [ 593097.761382979224436, 184121.153181609057356 ], [ 593095.261382979224436, 184120.153181609057356 ], [ 593095.261382979224436, 184109.153181609057356 ], [ 593100.761382979224436, 184103.153181609057356 ], [ 593103.761382979224436, 184102.653181609057356 ], [ 593103.261382979224436, 184101.653181609057356 ], [ 593105.261382979224436, 184099.653181609057356 ], [ 593116.261382979224436, 184100.153181609057356 ], [ 593117.761382979224436, 184102.153181609057356 ], [ 593119.261382979224436, 184102.153181609057356 ], [ 593120.761382979224436, 184103.653181609057356 ], [ 593121.761382979224436, 184106.653181609057356 ], [ 593123.761382979224436, 184107.653181609057356 ], [ 593125.261382979224436, 184114.153181609057356 ], [ 593126.261382979224436, 184114.153181609057356 ], [ 593128.261382979224436, 184116.653181609057356 ], [ 593128.261382979224436, 184118.653181609057356 ], [ 593130.261382979224436, 184118.653181609057356 ], [ 593132.761382979224436, 184121.653181609057356 ], [ 593135.261382979224436, 184122.153181609057356 ], [ 593136.761382979224436, 184124.153181609057356 ], [ 593139.261382979224436, 184124.153181609057356 ], [ 593140.761382979224436, 184125.653181609057356 ], [ 593143.261382979224436, 184125.653181609057356 ], [ 593144.761382979224436, 184127.153181609057356 ], [ 593146.761382979224436, 184127.153181609057356 ], [ 593147.261382979224436, 184128.653181609057356 ], [ 593149.761382979224436, 184128.653181609057356 ], [ 593150.761382979224436, 184130.153181609057356 ], [ 593153.261382979224436, 184130.653181609057356 ], [ 593155.261382979224436, 184133.153181609057356 ], [ 593157.261382979224436, 184132.653181609057356 ], [ 593158.261382979224436, 184133.653181609057356 ], [ 593160.761382979224436, 184133.653181609057356 ], [ 593161.761382979224436, 184134.653181609057356 ], [ 593161.761382979224436, 184137.653181609057356 ], [ 593160.261382979224436, 184138.653181609057356 ] ], [ [ 592822.261382979224436, 184208.653181609057356 ], [ 592822.261382979224436, 184208.153181609057356 ], [ 592822.761382979224436, 184208.153181609057356 ], [ 592822.761382979224436, 184208.653181609057356 ], [ 592822.261382979224436, 184208.653181609057356 ] ], [ [ 592820.261382979224436, 184207.653181609057356 ], [ 592820.261382979224436, 184207.153181609057356 ], [ 592821.261382979224436, 184207.153181609057356 ], [ 592821.261382979224436, 184207.653181609057356 ], [ 592820.261382979224436, 184207.653181609057356 ] ], [ [ 592821.261382979224436, 184207.653181609057356 ], [ 592821.761382979224436, 184207.653181609057356 ], [ 592821.761382979224436, 184208.153181609057356 ], [ 592821.261382979224436, 184208.153181609057356 ], [ 592821.261382979224436, 184207.653181609057356 ] ], [ [ 592818.261382979224436, 184206.653181609057356 ], [ 592817.761382979224436, 184205.653181609057356 ], [ 592819.261382979224436, 184206.153181609057356 ], [ 592819.261382979224436, 184206.653181609057356 ], [ 592818.261382979224436, 184206.653181609057356 ] ], [ [ 592819.261382979224436, 184206.653181609057356 ], [ 592819.761382979224436, 184206.653181609057356 ], [ 592819.761382979224436, 184207.153181609057356 ], [ 592819.261382979224436, 184207.153181609057356 ], [ 592819.261382979224436, 184206.653181609057356 ] ], [ [ 592814.261382979224436, 184204.653181609057356 ], [ 592814.261382979224436, 184204.153181609057356 ], [ 592815.261382979224436, 184204.153181609057356 ], [ 592815.261382979224436, 184204.653181609057356 ], [ 592814.261382979224436, 184204.653181609057356 ] ], [ [ 592810.261382979224436, 184204.153181609057356 ], [ 592810.261382979224436, 184203.653181609057356 ], [ 592811.261382979224436, 184203.653181609057356 ], [ 592811.261382979224436, 184204.153181609057356 ], [ 592810.261382979224436, 184204.153181609057356 ] ], [ [ 592806.261382979224436, 184203.653181609057356 ], [ 592806.261382979224436, 184203.153181609057356 ], [ 592808.261382979224436, 184203.153181609057356 ], [ 592808.261382979224436, 184203.653181609057356 ], [ 592806.261382979224436, 184203.653181609057356 ] ] ] } },
{ "type": "Feature", "properties": { "mainhabs": "Deciduous woodland", "habcodes": "DWOOD", "featdesc": null, "featcodes": null, "otherclass": null, "addhabs": null, "primsource": "National Forest Inventory 2023 (DWOOD)", "areaha": "0.03", "version": "Sep_25", "uid": "PHID59332258_018446712", "shape_length": null, "shape_area": null, "site": "essex", "pid": 1, "method": "sam2tile" }, "geometry": { "type": "Polygon", "coordinates": [ [ [ 593327.261382979224436, 184488.153181609057356 ], [ 593328.761382979224436, 184488.153181609057356 ], [ 593331.761382979224436, 184485.153181609057356 ], [ 593331.761382979224436, 184480.653181609057356 ], [ 593330.761382979224436, 184477.153181609057356 ], [ 593329.761382979224436, 184476.653181609057356 ], [ 593329.761382979224436, 184470.653181609057356 ], [ 593328.261382979224436, 184468.653181609057356 ], [ 593328.261382979224436, 184466.153181609057356 ], [ 593326.761382979224436, 184465.153181609057356 ], [ 593326.261382979224436, 184463.153181609057356 ], [ 593325.261382979224436, 184463.153181609057356 ], [ 593325.761382979224436, 184461.653181609057356 ], [ 593324.261382979224436, 184459.653181609057356 ], [ 593324.761382979224436, 184458.653181609057356 ], [ 593323.761382979224436, 184456.653181609057356 ], [ 593321.761382979224436, 184456.653181609057356 ], [ 593321.261382979224436, 184457.653181609057356 ], [ 593318.761382979224436, 184457.653181609057356 ], [ 593313.261382979224436, 184459.653181609057356 ], [ 593312.261382979224436, 184461.153181609057356 ], [ 593317.261382979224436, 184468.153181609057356 ], [ 593318.261382979224436, 184472.153181609057356 ], [ 593322.761382979224436, 184478.153181609057356 ], [ 593322.261382979224436, 184479.153181609057356 ], [ 593324.261382979224436, 184480.153181609057356 ], [ 593324.261382979224436, 184481.653181609057356 ], [ 593325.261382979224436, 184481.653181609057356 ], [ 593325.761382979224436, 184483.653181609057356 ], [ 593326.761382979224436, 184484.153181609057356 ], [ 593327.261382979224436, 184488.153181609057356 ] ] ] } },
{ "type": "Feature", "properties": { "mainhabs": "Deciduous woodland", "habcodes": "DWOOD", "featdesc": null, "featcodes": null, "otherclass": null, "addhabs": null, "primsource": "National Forest Inventory 2023 (DWOOD)", "areaha": "0.46", "version": "Sep_25", "uid": "PHID59337958_018448393", "shape_length": null, "shape_area": null, "site": "essex", "pid": 2, "method": "sam2tile" }, "geometry": { "type": "Polygon", "coordinates": [ [ [ 593351.261382979224436, 184514.653181609057356 ], [ 593364.261382979224436, 184513.653181609057356 ], [ 593367.261382979224436, 184512.153181609057356 ], [ 593371.261382979224436, 184512.653181609057356 ], [ 593374.261382979224436, 184511.653181609057356 ], [ 593384.261382979224436, 184511.153181609057356 ], [ 593384.761382979224436, 184510.153181609057356 ], [ 593386.761382979224436, 184510.653181609057356 ], [ 593393.261382979224436, 184509.653181609057356 ], [ 593397.761382979224436, 184510.653181609057356 ], [ 593400.261382979224436, 184508.153181609057356 ], [ 593412.261382979224436, 184508.153181609057356 ], [ 593413.761382979224436, 184506.653181609057356 ], [ 593414.761382979224436, 184508.153181609057356 ], [ 593420.761382979224436, 184508.153181609057356 ], [ 593422.261382979224436, 184507.653181609057356 ], [ 593422.261382979224436, 184506.653181609057356 ], [ 593426.761382979224436, 184506.153181609057356 ], [ 593426.761382979224436, 184503.153181609057356 ], [ 593425.761382979224436, 184501.653181609057356 ], [ 593426.761382979224436, 184500.653181609057356 ], [ 593425.261382979224436, 184500.153181609057356 ], [ 593424.761382979224436, 184498.153181609057356 ], [ 593424.261382979224436, 184490.153181609057356 ], [ 593426.761382979224436, 184488.653181609057356 ], [ 593428.261382979224436, 184484.153181609057356 ], [ 593427.261382979224436, 184484.153181609057356 ], [ 593424.261382979224436, 184480.653181609057356 ], [ 593424.261382979224436, 184464.653181609057356 ], [ 593421.761382979224436, 184462.653181609057356 ], [ 593420.261382979224436, 184462.653181609057356 ], [ 593419.761382979224436, 184466.653181609057356 ], [ 593418.261382979224436, 184466.653181609057356 ], [ 593416.261382979224436, 184465.153181609057356 ], [ 593413.761382979224436, 184466.153181609057356 ], [ 593414.261382979224436, 184464.653181609057356 ], [ 593412.761382979224436, 184464.153181609057356 ], [ 593412.761382979224436, 184471.153181609057356 ], [ 593409.761382979224436, 184471.153181609057356 ], [ 593408.761382979224436, 184468.153181609057356 ], [ 593407.261382979224436, 184466.153181609057356 ], [ 593406.261382979224436, 184466.153181609057356 ], [ 593406.261382979224436, 184464.153181609057356 ], [ 593402.761382979224436, 184464.153181609057356 ], [ 593402.761382979224436, 184462.153181609057356 ], [ 593400.761382979224436, 184462.653181609057356 ], [ 593400.261382979224436, 184461.653181609057356 ], [ 593399.261382979224436, 184462.653181609057356 ], [ 593391.261382979224436, 184462.653181609057356 ], [ 593387.261382979224436, 184461.653181609057356 ], [ 593375.761382979224436, 184462.153181609057356 ], [ 593370.261382979224436, 184464.153181609057356 ], [ 593351.761382979224436, 184464.153181609057356 ], [ 593341.261382979224436, 184466.153181609057356 ], [ 593339.261382979224436, 184467.653181609057356 ], [ 593335.261382979224436, 184474.653181609057356 ], [ 593333.761382979224436, 184488.153181609057356 ], [ 593331.261382979224436, 184490.153181609057356 ], [ 593329.761382979224436, 184490.153181609057356 ], [ 593329.761382979224436, 184492.153181609057356 ], [ 593330.761382979224436, 184492.653181609057356 ], [ 593330.761382979224436, 184494.653181609057356 ], [ 593332.261382979224436, 184495.153181609057356 ], [ 593333.261382979224436, 184497.653181609057356 ], [ 593334.261382979224436, 184497.653181609057356 ], [ 593336.261382979224436, 184502.653181609057356 ], [ 593337.761382979224436, 184503.153181609057356 ], [ 593338.261382979224436, 184505.653181609057356 ], [ 593340.261382979224436, 184506.653181609057356 ], [ 593340.761382979224436, 184508.153181609057356 ], [ 593342.761382979224436, 184507.653181609057356 ], [ 593345.261382979224436, 184509.653181609057356 ], [ 593347.261382979224436, 184509.653181609057356 ], [ 593349.261382979224436, 184511.653181609057356 ], [ 593349.761382979224436, 184513.653181609057356 ], [ 593351.261382979224436, 184513.653181609057356 ], [ 593351.261382979224436, 184514.653181609057356 ] ] ] } }
]
}
