{
"type": "FeatureCollection",
"crs": { "type": "name", "properties": { "name": "urn:ogc:def:crs:EPSG::27700" } },
"features": [
{ "type": "Feature", "properties": { "mainhabs": "Coastal vegetated shingle", "habcodes": "CVSHI", "featdesc": null, "featcodes": null, "otherclass": null, "addhabs": null, "primsource": "exeGesIS and Pat Doody - 1990 Phase 2 Inventory (CVSHI)", "areaha": "10.22", "version": "Sep_25", "uid": "PHID59291584_018412604", "shape_length": null, "shape_area": null, "site": "essex", "pid": 0, "method": "sam2" }, "geometry": { "type": "MultiPolygon", "coordinates": [ [ [ [ 593194.261382979224436, 184223.653181609057356 ], [ 593196.261382979224436, 184221.653181609057356 ], [ 593195.261382979224436, 184221.153181609057356 ], [ 593195.261382979224436, 184215.153181609057356 ], [ 593193.761382979224436, 184214.153181609057356 ], [ 593193.761382979224436, 184208.653181609057356 ], [ 593192.261382979224436, 184207.653181609057356 ], [ 593192.261382979224436, 184192.653181609057356 ], [ 593187.761382979224436, 184190.153181609057356 ], [ 593188.261382979224436, 184185.653181609057356 ], [ 593185.261382979224436, 184184.153181609057356 ], [ 593183.261382979224436, 184186.653181609057356 ], [ 593181.261382979224436, 184185.153181609057356 ], [ 593179.261382979224436, 184185.153181609057356 ], [ 593179.761382979224436, 184187.653181609057356 ], [ 593177.761382979224436, 184188.153181609057356 ], [ 593177.761382979224436, 184186.153181609057356 ], [ 593176.261382979224436, 184184.153181609057356 ], [ 593176.261382979224436, 184177.153181609057356 ], [ 593174.761382979224436, 184175.153181609057356 ], [ 593174.761382979224436, 184171.153181609057356 ], [ 593173.261382979224436, 184170.153181609057356 ], [ 593173.261382979224436, 184160.153181609057356 ], [ 593172.261382979224436, 184159.153181609057356 ], [ 593170.261382979224436, 184159.153181609057356 ], [ 593169.261382979224436, 184160.653181609057356 ], [ 593169.261382979224436, 184159.653181609057356 ], [ 593166.261382979224436, 184159.153181609057356 ], [ 593165.761382979224436, 184157.153181609057356 ], [ 593162.261382979224436, 184155.653181609057356 ], [ 593161.761382979224436, 184152.653181609057356 ], [ 593159.761382979224436, 184151.153181609057356 ], [ 593159.761382979224436, 184149.153181609057356 ], [ 593158.261382979224436, 184147.653181609057356 ], [ 593157.261382979224436, 184140.153181609057356 ], [ 593154.761382979224436, 184139.153181609057356 ], [ 593154.761382979224436, 184137.153181609057356 ], [ 593153.261382979224436, 184136.153181609057356 ], [ 593156.261382979224436, 184135.653181609057356 ], [ 593157.761382979224436, 184134.153181609057356 ], [ 593161.261382979224436, 184134.653181609057356 ], [ 593161.261382979224436, 184141.653181609057356 ], [ 593164.261382979224436, 184144.153181609057356 ], [ 593163.761382979224436, 184147.653181609057356 ], [ 593165.261382979224436, 184149.153181609057356 ], [ 593164.761382979224436, 184153.653181609057356 ], [ 593166.261382979224436, 184154.653181609057356 ], [ 593170.261382979224436, 184154.153181609057356 ], [ 593171.261382979224436, 184154.653181609057356 ], [ 593170.261382979224436, 184156.653181609057356 ], [ 593171.761382979224436, 184158.153181609057356 ], [ 593174.261382979224436, 184157.653181609057356 ], [ 593174.261382979224436, 184156.153181609057356 ], [ 593173.261382979224436, 184156.153181609057356 ], [ 593172.761382979224436, 184154.653181609057356 ], [ 593174.761382979224436, 184153.153181609057356 ], [ 593174.761382979224436, 184151.153181609057356 ], [ 593173.261382979224436, 184150.153181609057356 ], [ 593170.261382979224436, 184150.653181609057356 ], [ 593169.261382979224436, 184149.153181609057356 ], [ 593169.261382979224436, 184145.653181609057356 ], [ 593167.761382979224436, 184144.653181609057356 ], [ 593168.261382979224436, 184137.153181609057356 ], [ 593167.261382979224436, 184136.653181609057356 ], [ 593167.761382979224436, 184134.653181609057356 ], [ 593166.261382979224436, 184133.153181609057356 ], [ 593167.261382979224436, 184132.153181609057356 ], [ 593166.261382979224436, 184130.653181609057356 ], [ 593166.761382979224436, 184128.653181609057356 ], [ 593164.761382979224436, 184126.653181609057356 ], [ 593165.761382979224436, 184125.653181609057356 ], [ 593166.261382979224436, 184126.653181609057356 ], [ 593167.761382979224436, 184126.153181609057356 ], [ 593167.761382979224436, 184121.153181609057356 ], [ 593168.761382979224436, 184121.153181609057356 ], [ 593169.261382979224436, 184119.653181609057356 ], [ 593171.261382979224436, 184119.653181609057356 ], [ 593171.761382979224436, 184121.153181609057356 ], [ 593173.261382979224436, 184121.653181609057356 ], [ 593171.761382979224436, 184123.653181609057356 ], [ 593175.261382979224436, 184127.153181609057356 ], [ 593174.761382979224436, 184134.153181609057356 ], [ 593173.261382979224436, 184135.153181609057356 ], [ 593173.261382979224436, 184136.653181609057356 ], [ 593176.761382979224436, 184138.653181609057356 ], [ 593175.761382979224436, 184141.153181609057356 ], [ 593176.261382979224436, 184142.653181609057356 ], [ 593179.261382979224436, 184143.153181609057356 ], [ 593180.261382979224436, 184140.153181609057356 ], [ 593178.761382979224436, 184138.653181609057356 ], [ 593178.761382979224436, 184130.153181609057356 ], [ 593176.761382979224436, 184127.653181609057356 ], [ 593177.261382979224436, 184125.653181609057356 ], [ 593175.761382979224436, 184124.653181609057356 ], [ 593176.761382979224436, 184123.653181609057356 ], [ 593176.261382979224436, 184117.153181609057356 ], [ 593174.761382979224436, 184116.153181609057356 ], [ 593175.761382979224436, 184114.153181609057356 ], [ 593174.761382979224436, 184111.153181609057356 ], [ 593171.261382979224436, 184110.153181609057356 ], [ 593170.261382979224436, 184111.153181609057356 ], [ 593169.761382979224436, 184116.653181609057356 ], [ 593168.261382979224436, 184116.153181609057356 ], [ 593167.761382979224436, 184114.153181609057356 ], [ 593166.261382979224436, 184114.653181609057356 ], [ 593166.761382979224436, 184116.153181609057356 ], [ 593165.261382979224436, 184117.653181609057356 ], [ 593163.261382979224436, 184116.153181609057356 ], [ 593163.261382979224436, 184114.153181609057356 ], [ 593162.261382979224436, 184113.153181609057356 ], [ 593163.261382979224436, 184111.653181609057356 ], [ 593161.761382979224436, 184111.153181609057356 ], [ 593162.261382979224436, 184108.653181609057356 ], [ 593160.761382979224436, 184107.653181609057356 ], [ 593161.261382979224436, 184106.153181609057356 ], [ 593160.261382979224436, 184105.653181609057356 ], [ 593160.261382979224436, 184096.653181609057356 ], [ 593158.761382979224436, 184096.153181609057356 ], [ 593158.761382979224436, 184085.153181609057356 ], [ 593157.761382979224436, 184082.653181609057356 ], [ 593158.761382979224436, 184080.153181609057356 ], [ 593156.261382979224436, 184078.653181609057356 ], [ 593155.761382979224436, 184075.653181609057356 ], [ 593156.761382979224436, 184074.653181609057356 ], [ 593154.261382979224436, 184073.153181609057356 ], [ 593154.261382979224436, 184062.653181609057356 ], [ 593153.261382979224436, 184062.153181609057356 ], [ 593153.261382979224436, 184059.653181609057356 ], [ 593151.761382979224436, 184058.653181609057356 ], [ 593151.761382979224436, 184048.653181609057356 ], [ 593151.261382979224436, 184045.653181609057356 ], [ 593150.261382979224436, 184045.153181609057356 ], [ 593149.761382979224436, 184036.153181609057356 ], [ 593148.761382979224436, 184032.153181609057356 ], [ 593147.261382979224436, 184031.153181609057356 ], [ 593147.261382979224436, 184028.153181609057356 ], [ 593145.261382979224436, 184028.153181609057356 ], [ 593144.261382979224436, 184029.653181609057356 ], [ 593142.761382979224436, 184029.653181609057356 ], [ 593141.761382979224436, 184028.153181609057356 ], [ 593138.761382979224436, 184028.153181609057356 ], [ 593137.761382979224436, 184026.653181609057356 ], [ 593137.261382979224436, 184022.153181609057356 ], [ 593138.261382979224436, 184016.653181609057356 ], [ 593139.761382979224436, 184014.153181609057356 ], [ 593138.261382979224436, 184010.653181609057356 ], [ 593137.261382979224436, 184003.653181609057356 ], [ 593134.261382979224436, 184005.653181609057356 ], [ 593132.761382979224436, 184005.153181609057356 ], [ 593132.761382979224436, 184002.653181609057356 ], [ 593131.261382979224436, 184001.653181609057356 ], [ 593131.261382979224436, 183999.653181609057356 ], [ 593129.761382979224436, 183999.153181609057356 ], [ 593130.761382979224436, 183997.653181609057356 ], [ 593129.761382979224436, 183997.153181609057356 ], [ 593129.761382979224436, 183994.153181609057356 ], [ 593128.761382979224436, 183993.153181609057356 ], [ 593123.761382979224436, 183996.153181609057356 ], [ 593120.261382979224436, 183994.153181609057356 ], [ 593118.261382979224436, 183996.653181609057356 ], [ 593115.761382979224436, 183996.153181609057356 ], [ 593113.761382979224436, 183993.153181609057356 ], [ 593110.761382979224436, 183991.653181609057356 ], [ 593110.761382979224436, 183990.653181609057356 ], [ 593109.261382979224436, 183990.653181609057356 ], [ 593109.261382979224436, 183989.653181609057356 ], [ 593105.761382979224436, 183987.153181609057356 ], [ 593105.761382979224436, 183984.153181609057356 ], [ 593104.261382979224436, 183983.153181609057356 ], [ 593105.261382979224436, 183982.153181609057356 ], [ 593104.761382979224436, 183980.653181609057356 ], [ 593102.761382979224436, 183980.653181609057356 ], [ 593102.261382979224436, 183981.653181609057356 ], [ 593099.261382979224436, 183981.153181609057356 ], [ 593099.261382979224436, 183980.153181609057356 ], [ 593094.761382979224436, 183977.153181609057356 ], [ 593094.761382979224436, 183976.153181609057356 ], [ 593091.761382979224436, 183975.653181609057356 ], [ 593090.261382979224436, 183972.153181609057356 ], [ 593086.261382979224436, 183969.153181609057356 ], [ 593080.261382979224436, 183969.653181609057356 ], [ 593077.261382979224436, 183968.653181609057356 ], [ 593073.761382979224436, 183969.153181609057356 ], [ 593072.761382979224436, 183970.153181609057356 ], [ 593067.261382979224436, 183970.153181609057356 ], [ 593065.761382979224436, 183971.653181609057356 ], [ 593059.261382979224436, 183972.153181609057356 ], [ 593054.261382979224436, 183975.653181609057356 ], [ 593051.261382979224436, 183975.153181609057356 ], [ 593047.761382979224436, 183976.653181609057356 ], [ 593039.761382979224436, 183977.153181609057356 ], [ 593039.761382979224436, 183978.153181609057356 ], [ 593030.261382979224436, 183981.653181609057356 ], [ 593023.761382979224436, 183981.653181609057356 ], [ 593021.261382979224436, 183983.153181609057356 ], [ 593018.261382979224436, 183983.153181609057356 ], [ 593013.761382979224436, 183985.153181609057356 ], [ 593011.761382979224436, 183986.653181609057356 ], [ 593011.761382979224436, 183987.653181609057356 ], [ 593007.761382979224436, 183986.653181609057356 ], [ 593004.761382979224436, 183988.153181609057356 ], [ 592997.261382979224436, 183988.653181609057356 ], [ 592995.761382979224436, 183991.153181609057356 ], [ 592988.761382979224436, 183991.653181609057356 ], [ 592987.761382979224436, 183993.153181609057356 ], [ 592980.261382979224436, 183993.653181609057356 ], [ 592977.261382979224436, 183996.153181609057356 ], [ 592971.261382979224436, 183996.653181609057356 ], [ 592970.761382979224436, 183997.653181609057356 ], [ 592968.261382979224436, 183997.653181609057356 ], [ 592967.761382979224436, 183998.653181609057356 ], [ 592964.261382979224436, 183998.153181609057356 ], [ 592960.761382979224436, 183999.653181609057356 ], [ 592953.761382979224436, 183999.653181609057356 ], [ 592953.261382979224436, 184000.653181609057356 ], [ 592948.261382979224436, 184002.153181609057356 ], [ 592945.261382979224436, 184002.153181609057356 ], [ 592941.261382979224436, 184004.653181609057356 ], [ 592936.261382979224436, 184005.153181609057356 ], [ 592934.261382979224436, 184007.653181609057356 ], [ 592928.261382979224436, 184008.153181609057356 ], [ 592926.761382979224436, 184010.653181609057356 ], [ 592919.761382979224436, 184011.653181609057356 ], [ 592918.261382979224436, 184013.653181609057356 ], [ 592915.261382979224436, 184013.653181609057356 ], [ 592911.761382979224436, 184016.153181609057356 ], [ 592902.261382979224436, 184017.653181609057356 ], [ 592900.761382979224436, 184019.653181609057356 ], [ 592899.761382979224436, 184019.653181609057356 ], [ 592899.761382979224436, 184020.653181609057356 ], [ 592889.761382979224436, 184022.653181609057356 ], [ 592889.761382979224436, 184023.653181609057356 ], [ 592884.261382979224436, 184024.653181609057356 ], [ 592880.761382979224436, 184027.153181609057356 ], [ 592867.761382979224436, 184030.153181609057356 ], [ 592863.761382979224436, 184033.653181609057356 ], [ 592860.761382979224436, 184031.653181609057356 ], [ 592857.761382979224436, 184032.653181609057356 ], [ 592856.761382979224436, 184034.153181609057356 ], [ 592852.761382979224436, 184034.153181609057356 ], [ 592850.261382979224436, 184035.153181609057356 ], [ 592848.761382979224436, 184037.653181609057356 ], [ 592846.261382979224436, 184038.653181609057356 ], [ 592841.261382979224436, 184037.653181609057356 ], [ 592839.761382979224436, 184039.653181609057356 ], [ 592835.761382979224436, 184039.653181609057356 ], [ 592835.261382979224436, 184041.153181609057356 ], [ 592831.761382979224436, 184041.153181609057356 ], [ 592828.761382979224436, 184045.153181609057356 ], [ 592825.261382979224436, 184043.653181609057356 ], [ 592822.761382979224436, 184044.153181609057356 ], [ 592822.261382979224436, 184045.653181609057356 ], [ 592814.761382979224436, 184045.653181609057356 ], [ 592813.261382979224436, 184048.653181609057356 ], [ 592807.761382979224436, 184048.653181609057356 ], [ 592804.761382979224436, 184051.153181609057356 ], [ 592798.261382979224436, 184051.653181609057356 ], [ 592795.761382979224436, 184054.653181609057356 ], [ 592789.261382979224436, 184054.653181609057356 ], [ 592789.261382979224436, 184055.653181609057356 ], [ 592787.761382979224436, 184055.653181609057356 ], [ 592787.261382979224436, 184056.653181609057356 ], [ 592780.761382979224436, 184057.153181609057356 ], [ 592778.261382979224436, 184059.653181609057356 ], [ 592772.761382979224436, 184060.153181609057356 ], [ 592771.761382979224436, 184061.653181609057356 ], [ 592767.261382979224436, 184062.653181609057356 ], [ 592766.261382979224436, 184064.153181609057356 ], [ 592761.761382979224436, 184065.653181609057356 ], [ 592760.261382979224436, 184067.653181609057356 ], [ 592755.761382979224436, 184068.153181609057356 ], [ 592751.761382979224436, 184071.653181609057356 ], [ 592749.261382979224436, 184071.653181609057356 ], [ 592748.261382979224436, 184073.153181609057356 ], [ 592744.261382979224436, 184074.653181609057356 ], [ 592744.261382979224436, 184076.153181609057356 ], [ 592740.761382979224436, 184076.653181609057356 ], [ 592738.261382979224436, 184077.653181609057356 ], [ 592737.261382979224436, 184079.153181609057356 ], [ 592732.761382979224436, 184080.153181609057356 ], [ 592731.261382979224436, 184082.153181609057356 ], [ 592728.261382979224436, 184083.153181609057356 ], [ 592726.761382979224436, 184085.153181609057356 ], [ 592724.261382979224436, 184085.653181609057356 ], [ 592723.261382979224436, 184087.153181609057356 ], [ 592725.261382979224436, 184091.653181609057356 ], [ 592727.261382979224436, 184093.153181609057356 ], [ 592726.761382979224436, 184106.653181609057356 ], [ 592728.261382979224436, 184107.653181609057356 ], [ 592726.761382979224436, 184108.153181609057356 ], [ 592727.761382979224436, 184110.653181609057356 ], [ 592725.261382979224436, 184112.653181609057356 ], [ 592725.261382979224436, 184113.653181609057356 ], [ 592720.761382979224436, 184112.653181609057356 ], [ 592720.761382979224436, 184113.653181609057356 ], [ 592718.761382979224436, 184114.653181609057356 ], [ 592718.261382979224436, 184131.653181609057356 ], [ 592720.761382979224436, 184137.153181609057356 ], [ 592720.761382979224436, 184142.653181609057356 ], [ 592722.261382979224436, 184143.153181609057356 ], [ 592722.261382979224436, 184144.653181609057356 ], [ 592723.261382979224436, 184144.653181609057356 ], [ 592723.761382979224436, 184146.153181609057356 ], [ 592725.261382979224436, 184146.153181609057356 ], [ 592725.261382979224436, 184147.653181609057356 ], [ 592726.261382979224436, 184147.653181609057356 ], [ 592728.261382979224436, 184150.653181609057356 ], [ 592730.261382979224436, 184151.653181609057356 ], [ 592735.261382979224436, 184151.153181609057356 ], [ 592737.261382979224436, 184153.153181609057356 ], [ 592736.261382979224436, 184154.653181609057356 ], [ 592736.761382979224436, 184156.153181609057356 ], [ 592735.261382979224436, 184156.653181609057356 ], [ 592734.761382979224436, 184158.653181609057356 ], [ 592735.761382979224436, 184165.153181609057356 ], [ 592737.761382979224436, 184167.153181609057356 ], [ 592738.261382979224436, 184170.653181609057356 ], [ 592740.261382979224436, 184172.653181609057356 ], [ 592739.761382979224436, 184175.153181609057356 ], [ 592741.261382979224436, 184176.153181609057356 ], [ 592740.261382979224436, 184177.653181609057356 ], [ 592742.761382979224436, 184178.153181609057356 ], [ 592743.261382979224436, 184177.153181609057356 ], [ 592744.261382979224436, 184178.153181609057356 ], [ 592744.261382979224436, 184179.653181609057356 ], [ 592743.261382979224436, 184179.653181609057356 ], [ 592742.761382979224436, 184181.153181609057356 ], [ 592744.261382979224436, 184181.653181609057356 ], [ 592744.261382979224436, 184184.153181609057356 ], [ 592745.261382979224436, 184184.653181609057356 ], [ 592745.761382979224436, 184186.653181609057356 ], [ 592747.761382979224436, 184186.153181609057356 ], [ 592748.761382979224436, 184187.653181609057356 ], [ 592751.761382979224436, 184188.653181609057356 ], [ 592758.761382979224436, 184189.653181609057356 ], [ 592762.761382979224436, 184191.653181609057356 ], [ 592766.261382979224436, 184191.653181609057356 ], [ 592769.261382979224436, 184194.153181609057356 ], [ 592774.761382979224436, 184194.153181609057356 ], [ 592775.261382979224436, 184195.653181609057356 ], [ 592777.261382979224436, 184195.653181609057356 ], [ 592777.761382979224436, 184196.653181609057356 ], [ 592782.261382979224436, 184196.653181609057356 ], [ 592783.761382979224436, 184198.653181609057356 ], [ 592789.261382979224436, 184198.653181609057356 ], [ 592790.761382979224436, 184200.153181609057356 ], [ 592792.761382979224436, 184198.653181609057356 ], [ 592794.761382979224436, 184198.653181609057356 ], [ 592795.261382979224436, 184200.153181609057356 ], [ 592800.761382979224436, 184200.153181609057356 ], [ 592802.261382979224436, 184197.153181609057356 ], [ 592799.761382979224436, 184196.153181609057356 ], [ 592798.761382979224436, 184194.153181609057356 ], [ 592795.261382979224436, 184195.153181609057356 ], [ 592795.261382979224436, 184194.153181609057356 ], [ 592793.761382979224436, 184193.653181609057356 ], [ 592793.761382979224436, 184191.653181609057356 ], [ 592795.261382979224436, 184188.653181609057356 ], [ 592796.761382979224436, 184189.653181609057356 ], [ 592801.761382979224436, 184189.653181609057356 ], [ 592804.761382979224436, 184191.153181609057356 ], [ 592804.261382979224436, 184193.153181609057356 ], [ 592805.261382979224436, 184194.153181609057356 ], [ 592812.261382979224436, 184193.153181609057356 ], [ 592812.761382979224436, 184194.153181609057356 ], [ 592814.261382979224436, 184194.153181609057356 ], [ 592814.761382979224436, 184195.653181609057356 ], [ 592821.261382979224436, 184195.653181609057356 ], [ 592823.261382979224436, 184199.153181609057356 ], [ 592832.761382979224436, 184200.153181609057356 ], [ 592833.261382979224436, 184201.153181609057356 ], [ 592835.261382979224436, 184201.153181609057356 ], [ 592836.261382979224436, 184202.653181609057356 ], [ 592839.761382979224436, 184202.653181609057356 ], [ 592840.261382979224436, 184204.153181609057356 ], [ 592849.761382979224436, 184205.653181609057356 ], [ 592857.761382979224436, 184208.653181609057356 ], [ 592860.761382979224436, 184211.153181609057356 ], [ 592866.261382979224436, 184211.653181609057356 ], [ 592866.761382979224436, 184212.653181609057356 ], [ 592869.261382979224436, 184213.153181609057356 ], [ 592873.761382979224436, 184216.153181609057356 ], [ 592880.261382979224436, 184217.153181609057356 ], [ 592884.261382979224436, 184219.653181609057356 ], [ 592890.261382979224436, 184220.153181609057356 ], [ 592891.761382979224436, 184222.153181609057356 ], [ 592892.761382979224436, 184222.153181609057356 ], [ 592892.761382979224436, 184223.153181609057356 ], [ 592900.261382979224436, 184224.653181609057356 ], [ 592903.761382979224436, 184227.653181609057356 ], [ 592909.261382979224436, 184228.653181609057356 ], [ 592910.261382979224436, 184230.153181609057356 ], [ 592913.761382979224436, 184230.653181609057356 ], [ 592914.261382979224436, 184232.153181609057356 ], [ 592916.261382979224436, 184233.153181609057356 ], [ 592918.261382979224436, 184233.153181609057356 ], [ 592922.761382979224436, 184236.153181609057356 ], [ 592924.761382979224436, 184236.153181609057356 ], [ 592927.261382979224436, 184239.153181609057356 ], [ 592930.761382979224436, 184239.153181609057356 ], [ 592936.761382979224436, 184243.153181609057356 ], [ 592941.261382979224436, 184243.653181609057356 ], [ 592945.261382979224436, 184246.653181609057356 ], [ 592948.261382979224436, 184246.653181609057356 ], [ 592949.261382979224436, 184248.153181609057356 ], [ 592951.761382979224436, 184249.153181609057356 ], [ 592952.261382979224436, 184250.653181609057356 ], [ 592956.261382979224436, 184252.653181609057356 ], [ 592962.261382979224436, 184259.653181609057356 ], [ 592966.761382979224436, 184261.653181609057356 ], [ 592965.761382979224436, 184263.153181609057356 ], [ 592962.761382979224436, 184262.653181609057356 ], [ 592961.761382979224436, 184261.153181609057356 ], [ 592960.761382979224436, 184261.153181609057356 ], [ 592960.261382979224436, 184262.653181609057356 ], [ 592958.761382979224436, 184262.653181609057356 ], [ 592958.261382979224436, 184259.653181609057356 ], [ 592956.261382979224436, 184260.653181609057356 ], [ 592954.761382979224436, 184259.153181609057356 ], [ 592955.261382979224436, 184256.653181609057356 ], [ 592953.761382979224436, 184256.653181609057356 ], [ 592953.761382979224436, 184259.653181609057356 ], [ 592950.761382979224436, 184259.653181609057356 ], [ 592950.261382979224436, 184260.653181609057356 ], [ 592954.261382979224436, 184264.153181609057356 ], [ 592952.761382979224436, 184266.153181609057356 ], [ 592955.261382979224436, 184268.153181609057356 ], [ 592956.761382979224436, 184268.153181609057356 ], [ 592956.761382979224436, 184269.153181609057356 ], [ 592958.761382979224436, 184270.653181609057356 ], [ 592960.761382979224436, 184271.153181609057356 ], [ 592961.261382979224436, 184269.653181609057356 ], [ 592963.261382979224436, 184269.653181609057356 ], [ 592963.761382979224436, 184271.153181609057356 ], [ 592965.761382979224436, 184271.153181609057356 ], [ 592968.261382979224436, 184273.153181609057356 ], [ 592966.761382979224436, 184274.153181609057356 ], [ 592966.761382979224436, 184275.653181609057356 ], [ 592968.261382979224436, 184276.153181609057356 ], [ 592966.761382979224436, 184277.653181609057356 ], [ 592971.761382979224436, 184281.653181609057356 ], [ 592973.761382979224436, 184282.153181609057356 ], [ 592975.761382979224436, 184284.653181609057356 ], [ 592979.761382979224436, 184286.153181609057356 ], [ 592983.761382979224436, 184285.653181609057356 ], [ 592985.761382979224436, 184284.153181609057356 ], [ 592986.261382979224436, 184283.153181609057356 ], [ 592985.261382979224436, 184281.653181609057356 ], [ 592988.761382979224436, 184279.153181609057356 ], [ 592991.261382979224436, 184279.653181609057356 ], [ 592992.761382979224436, 184277.153181609057356 ], [ 592994.261382979224436, 184277.153181609057356 ], [ 592995.761382979224436, 184275.653181609057356 ], [ 592998.261382979224436, 184275.653181609057356 ], [ 593004.261382979224436, 184271.653181609057356 ], [ 593006.761382979224436, 184272.653181609057356 ], [ 593009.261382979224436, 184269.653181609057356 ], [ 593010.261382979224436, 184269.653181609057356 ], [ 593010.761382979224436, 184268.153181609057356 ], [ 593016.261382979224436, 184268.153181609057356 ], [ 593018.761382979224436, 184265.153181609057356 ], [ 593025.761382979224436, 184264.153181609057356 ], [ 593028.261382979224436, 184262.153181609057356 ], [ 593030.761382979224436, 184262.653181609057356 ], [ 593034.761382979224436, 184258.653181609057356 ], [ 593037.261382979224436, 184252.153181609057356 ], [ 593036.761382979224436, 184249.653181609057356 ], [ 593038.261382979224436, 184249.153181609057356 ], [ 593038.261382979224436, 184248.153181609057356 ], [ 593039.761382979224436, 184249.153181609057356 ], [ 593039.761382979224436, 184259.153181609057356 ], [ 593040.761382979224436, 184260.653181609057356 ], [ 593057.261382979224436, 184260.653181609057356 ], [ 593071.261382979224436, 184259.153181609057356 ], [ 593076.761382979224436, 184259.653181609057356 ], [ 593082.261382979224436, 184258.153181609057356 ], [ 593084.761382979224436, 184259.653181609057356 ], [ 593089.261382979224436, 184258.153181609057356 ], [ 593096.261382979224436, 184259.153181609057356 ], [ 593097.261382979224436, 184258.153181609057356 ], [ 593103.261382979224436, 184257.153181609057356 ], [ 593106.261382979224436, 184257.653181609057356 ], [ 593106.761382979224436, 184256.653181609057356 ], [ 593109.261382979224436, 184256.653181609057356 ], [ 593110.261382979224436, 184257.653181609057356 ], [ 593113.761382979224436, 184256.653181609057356 ], [ 593118.261382979224436, 184257.653181609057356 ], [ 593121.761382979224436, 184257.653181609057356 ], [ 593123.261382979224436, 184256.653181609057356 ], [ 593134.761382979224436, 184257.153181609057356 ], [ 593138.761382979224436, 184256.653181609057356 ], [ 593139.761382979224436, 184255.653181609057356 ], [ 593149.761382979224436, 184256.653181609057356 ], [ 593151.761382979224436, 184256.153181609057356 ], [ 593153.761382979224436, 184254.153181609057356 ], [ 593161.261382979224436, 184254.153181609057356 ], [ 593163.261382979224436, 184256.153181609057356 ], [ 593163.761382979224436, 184255.153181609057356 ], [ 593167.761382979224436, 184254.653181609057356 ], [ 593168.261382979224436, 184253.653181609057356 ], [ 593174.761382979224436, 184253.653181609057356 ], [ 593177.761382979224436, 184252.153181609057356 ], [ 593180.761382979224436, 184252.653181609057356 ], [ 593183.761382979224436, 184251.653181609057356 ], [ 593184.261382979224436, 184250.653181609057356 ], [ 593192.261382979224436, 184250.653181609057356 ], [ 593192.761382979224436, 184249.153181609057356 ], [ 593196.761382979224436, 184248.153181609057356 ], [ 593196.761382979224436, 184247.153181609057356 ], [ 593198.261382979224436, 184246.653181609057356 ], [ 593197.761382979224436, 184245.153181609057356 ], [ 593199.761382979224436, 184244.153181609057356 ], [ 593200.261382979224436, 184242.153181609057356 ], [ 593200.261382979224436, 184238.653181609057356 ], [ 593196.261382979224436, 184234.153181609057356 ], [ 593196.761382979224436, 184232.153181609057356 ], [ 593197.761382979224436, 184232.153181609057356 ], [ 593196.761382979224436, 184230.653181609057356 ], [ 593197.261382979224436, 184226.153181609057356 ], [ 593194.261382979224436, 184223.653181609057356 ] ], [ [ 593194.261382979224436, 184224.653181609057356 ], [ 593191.261382979224436, 184228.653181609057356 ], [ 593189.261382979224436, 184227.653181609057356 ], [ 593189.261382979224436, 184225.153181609057356 ], [ 593187.761382979224436, 184226.153181609057356 ], [ 593188.761382979224436, 184227.153181609057356 ], [ 593187.761382979224436, 184229.153181609057356 ], [ 593185.261382979224436, 184228.153181609057356 ], [ 593186.261382979224436, 184226.653181609057356 ], [ 593186.261382979224436, 184223.153181609057356 ], [ 593183.761382979224436, 184220.153181609057356 ], [ 593183.761382979224436, 184214.653181609057356 ], [ 593182.261382979224436, 184207.653181609057356 ], [ 593185.261382979224436, 184207.153181609057356 ], [ 593185.761382979224436, 184205.653181609057356 ], [ 593185.261382979224436, 184204.653181609057356 ], [ 593183.761382979224436, 184205.653181609057356 ], [ 593181.261382979224436, 184204.653181609057356 ], [ 593182.261382979224436, 184200.653181609057356 ], [ 593180.261382979224436, 184198.653181609057356 ], [ 593180.761382979224436, 184195.153181609057356 ], [ 593179.261382979224436, 184194.153181609057356 ], [ 593179.261382979224436, 184192.653181609057356 ], [ 593182.261382979224436, 184189.653181609057356 ], [ 593183.761382979224436, 184189.653181609057356 ], [ 593183.761382979224436, 184190.653181609057356 ], [ 593185.261382979224436, 184191.153181609057356 ], [ 593185.261382979224436, 184194.153181609057356 ], [ 593187.761382979224436, 184194.653181609057356 ], [ 593187.761382979224436, 184208.653181609057356 ], [ 593189.261382979224436, 184210.153181609057356 ], [ 593189.261382979224436, 184213.153181609057356 ], [ 593191.761382979224436, 184214.153181609057356 ], [ 593190.261382979224436, 184216.653181609057356 ], [ 593192.261382979224436, 184218.653181609057356 ], [ 593192.261382979224436, 184222.653181609057356 ], [ 593193.761382979224436, 184223.153181609057356 ], [ 593194.261382979224436, 184224.653181609057356 ] ], [ [ 593109.261382979224436, 184111.653181609057356 ], [ 593109.761382979224436, 184111.653181609057356 ], [ 593109.761382979224436, 184112.153181609057356 ], [ 593109.261382979224436, 184112.153181609057356 ], [ 593109.261382979224436, 184111.653181609057356 ] ] ], [ [ [ 592823.761382979224436, 184209.653181609057356 ], [ 592815.761382979224436, 184204.653181609057356 ], [ 592806.261382979224436, 184203.653181609057356 ], [ 592811.761382979224436, 184206.153181609057356 ], [ 592823.761382979224436, 184209.653181609057356 ] ] ] ] } },
{ "type": "Feature", "properties": { "mainhabs": "Deciduous woodland", "habcodes": "DWOOD", "featdesc": null, "featcodes": null, "otherclass": null, "addhabs": null, "primsource": "National Forest Inventory 2023 (DWOOD)", "areaha": "0.03", "version": "Sep_25", "uid": "PHID59332258_018446712", "shape_length": null, "shape_area": null, "site": "essex", "pid": 1, "method": "sam2" }, "geometry": { "type": "Polygon", "coordinates": [ [ [ 593324.261382979224436, 184489.653181609057356 ], [ 593326.261382979224436, 184489.653181609057356 ], [ 593330.261382979224436, 184486.153181609057356 ], [ 593329.761382979224436, 184481.153181609057356 ], [ 593327.261382979224436, 184477.153181609057356 ], [ 593328.261382979224436, 184477.153181609057356 ], [ 593330.261382979224436, 184470.653181609057356 ], [ 593328.261382979224436, 184468.153181609057356 ], [ 593328.261382979224436, 184466.153181609057356 ], [ 593326.761382979224436, 184465.653181609057356 ], [ 593326.261382979224436, 184464.153181609057356 ], [ 593322.761382979224436, 184463.653181609057356 ], [ 593323.761382979224436, 184462.153181609057356 ], [ 593322.761382979224436, 184460.153181609057356 ], [ 593323.261382979224436, 184459.153181609057356 ], [ 593320.261382979224436, 184458.153181609057356 ], [ 593318.761382979224436, 184456.153181609057356 ], [ 593319.261382979224436, 184455.153181609057356 ], [ 593318.261382979224436, 184454.653181609057356 ], [ 593318.261382979224436, 184458.153181609057356 ], [ 593312.261382979224436, 184460.153181609057356 ], [ 593312.261382979224436, 184461.153181609057356 ], [ 593318.261382979224436, 184470.153181609057356 ], [ 593318.761382979224436, 184479.153181609057356 ], [ 593322.761382979224436, 184484.153181609057356 ], [ 593324.261382979224436, 184489.653181609057356 ] ], [ [ 593320.261382979224436, 184463.653181609057356 ], [ 593320.261382979224436, 184461.653181609057356 ], [ 593322.261382979224436, 184462.153181609057356 ], [ 593322.261382979224436, 184462.653181609057356 ], [ 593320.261382979224436, 184463.653181609057356 ] ], [ [ 593318.261382979224436, 184465.153181609057356 ], [ 593318.261382979224436, 184461.153181609057356 ], [ 593318.761382979224436, 184461.153181609057356 ], [ 593319.261382979224436, 184464.153181609057356 ], [ 593318.261382979224436, 184465.153181609057356 ] ], [ [ 593318.261382979224436, 184459.653181609057356 ], [ 593318.261382979224436, 184458.653181609057356 ], [ 593318.761382979224436, 184458.653181609057356 ], [ 593318.761382979224436, 184459.653181609057356 ], [ 593318.261382979224436, 184459.653181609057356 ] ] ] } },
{ "type": "Feature", "properties": { "mainhabs": "Deciduous woodland", "habcodes": "DWOOD", "featdesc": null, "featcodes": null, "otherclass": null, "addhabs": null, "primsource": "National Forest Inventory 2023 (DWOOD)", "areaha": "0.46", "version": "Sep_25", "uid": "PHID59337958_018448393", "shape_length": null, "shape_area": null, "site": "essex", "pid": 2, "method": "sam2" }, "geometry": { "type": "Polygon", "coordinates": [ [ [ 593332.261382979224436, 184514.653181609057356 ], [ 593387.261382979224436, 184514.653181609057356 ], [ 593389.261382979224436, 184512.653181609057356 ], [ 593398.261382979224436, 184511.653181609057356 ], [ 593405.761382979224436, 184512.653181609057356 ], [ 593411.261382979224436, 184511.153181609057356 ], [ 593414.761382979224436, 184512.653181609057356 ], [ 593418.261382979224436, 184511.653181609057356 ], [ 593420.761382979224436, 184508.653181609057356 ], [ 593425.261382979224436, 184508.153181609057356 ], [ 593425.761382979224436, 184506.653181609057356 ], [ 593427.261382979224436, 184506.153181609057356 ], [ 593426.761382979224436, 184505.153181609057356 ], [ 593427.761382979224436, 184504.153181609057356 ], [ 593425.261382979224436, 184500.653181609057356 ], [ 593425.261382979224436, 184498.653181609057356 ], [ 593423.761382979224436, 184498.153181609057356 ], [ 593423.761382979224436, 184495.153181609057356 ], [ 593422.761382979224436, 184495.153181609057356 ], [ 593422.761382979224436, 184490.153181609057356 ], [ 593425.261382979224436, 184489.653181609057356 ], [ 593425.261382979224436, 184488.653181609057356 ], [ 593427.761382979224436, 184487.653181609057356 ], [ 593428.261382979224436, 184486.153181609057356 ], [ 593425.261382979224436, 184481.653181609057356 ], [ 593422.761382979224436, 184480.653181609057356 ], [ 593424.261382979224436, 184478.653181609057356 ], [ 593424.761382979224436, 184475.153181609057356 ], [ 593424.261382979224436, 184473.653181609057356 ], [ 593422.261382979224436, 184472.653181609057356 ], [ 593421.261382979224436, 184466.153181609057356 ], [ 593419.261382979224436, 184466.153181609057356 ], [ 593419.761382979224436, 184469.653181609057356 ], [ 593418.261382979224436, 184469.153181609057356 ], [ 593418.761382979224436, 184468.153181609057356 ], [ 593416.761382979224436, 184466.653181609057356 ], [ 593416.261382979224436, 184469.153181609057356 ], [ 593413.761382979224436, 184469.153181609057356 ], [ 593414.761382979224436, 184471.153181609057356 ], [ 593411.761382979224436, 184473.153181609057356 ], [ 593409.761382979224436, 184472.153181609057356 ], [ 593407.761382979224436, 184467.153181609057356 ], [ 593405.261382979224436, 184465.653181609057356 ], [ 593405.261382979224436, 184464.653181609057356 ], [ 593399.261382979224436, 184464.153181609057356 ], [ 593396.261382979224436, 184462.153181609057356 ], [ 593392.261382979224436, 184462.653181609057356 ], [ 593391.761382979224436, 184461.653181609057356 ], [ 593389.261382979224436, 184462.653181609057356 ], [ 593388.761382979224436, 184461.653181609057356 ], [ 593376.261382979224436, 184461.653181609057356 ], [ 593375.761382979224436, 184462.653181609057356 ], [ 593368.261382979224436, 184464.153181609057356 ], [ 593353.261382979224436, 184464.153181609057356 ], [ 593341.761382979224436, 184466.153181609057356 ], [ 593336.261382979224436, 184472.653181609057356 ], [ 593335.261382979224436, 184478.653181609057356 ], [ 593331.761382979224436, 184478.653181609057356 ], [ 593331.261382979224436, 184479.653181609057356 ], [ 593331.761382979224436, 184486.653181609057356 ], [ 593329.261382979224436, 184487.153181609057356 ], [ 593327.761382979224436, 184489.153181609057356 ], [ 593326.761382979224436, 184488.653181609057356 ], [ 593326.261382979224436, 184490.153181609057356 ], [ 593326.761382979224436, 184491.653181609057356 ], [ 593327.761382979224436, 184491.653181609057356 ], [ 593327.761382979224436, 184490.653181609057356 ], [ 593329.261382979224436, 184491.153181609057356 ], [ 593326.761382979224436, 184494.153181609057356 ], [ 593329.761382979224436, 184502.653181609057356 ], [ 593329.261382979224436, 184508.153181609057356 ], [ 593332.261382979224436, 184514.653181609057356 ] ] ] } }
]
}
