{
"type": "FeatureCollection",
"crs": { "type": "name", "properties": { "name": "urn:ogc:def:crs:EPSG::27700" } },
"features": [
{ "type": "Feature", "properties": { "mainhabs": "Deciduous woodland", "habcodes": "DWOOD", "featdesc": null, "featcodes": null, "otherclass": null, "addhabs": null, "primsource": "National Forest Inventory 2023 (DWOOD)", "areaha": "3.04", "version": "Sep_25", "uid": "PHID46138566_019003773", "shape_length": null, "shape_area": null, "site": "hrwallingford", "pid": 0, "method": "sam2iter" }, "geometry": { "type": "Polygon", "coordinates": [ [ [ 461400.089774993888568, 190254.514695178542752 ], [ 461401.089774993888568, 190254.514695178542752 ], [ 461402.089774993888568, 190252.514695178542752 ], [ 461406.589774993888568, 190251.514695178542752 ], [ 461407.089774993888568, 190250.514695178542752 ], [ 461409.589774993888568, 190251.514695178542752 ], [ 461411.089774993888568, 190249.014695178542752 ], [ 461413.589774993888568, 190250.514695178542752 ], [ 461414.589774993888568, 190249.514695178542752 ], [ 461414.589774993888568, 190247.514695178542752 ], [ 461417.589774993888568, 190245.514695178542752 ], [ 461418.589774993888568, 190239.514695178542752 ], [ 461420.089774993888568, 190239.014695178542752 ], [ 461421.589774993888568, 190240.514695178542752 ], [ 461422.589774993888568, 190239.514695178542752 ], [ 461422.589774993888568, 190238.014695178542752 ], [ 461421.589774993888568, 190237.514695178542752 ], [ 461423.089774993888568, 190236.514695178542752 ], [ 461423.589774993888568, 190233.514695178542752 ], [ 461424.589774993888568, 190234.514695178542752 ], [ 461427.589774993888568, 190234.514695178542752 ], [ 461432.089774993888568, 190230.514695178542752 ], [ 461434.089774993888568, 190230.514695178542752 ], [ 461434.089774993888568, 190227.014695178542752 ], [ 461430.589774993888568, 190225.014695178542752 ], [ 461431.089774993888568, 190213.514695178542752 ], [ 461427.589774993888568, 190212.014695178542752 ], [ 461428.089774993888568, 190210.514695178542752 ], [ 461430.089774993888568, 190210.514695178542752 ], [ 461429.089774993888568, 190209.514695178542752 ], [ 461430.089774993888568, 190208.514695178542752 ], [ 461430.089774993888568, 190206.514695178542752 ], [ 461429.089774993888568, 190205.014695178542752 ], [ 461430.089774993888568, 190204.014695178542752 ], [ 461428.089774993888568, 190202.514695178542752 ], [ 461428.589774993888568, 190201.014695178542752 ], [ 461426.589774993888568, 190199.514695178542752 ], [ 461426.589774993888568, 190191.514695178542752 ], [ 461428.089774993888568, 190189.014695178542752 ], [ 461429.589774993888568, 190189.014695178542752 ], [ 461429.589774993888568, 190188.014695178542752 ], [ 461425.089774993888568, 190186.514695178542752 ], [ 461422.589774993888568, 190187.014695178542752 ], [ 461423.589774993888568, 190183.014695178542752 ], [ 461425.089774993888568, 190183.514695178542752 ], [ 461426.089774993888568, 190182.514695178542752 ], [ 461425.089774993888568, 190180.514695178542752 ], [ 461423.589774993888568, 190182.014695178542752 ], [ 461422.589774993888568, 190180.514695178542752 ], [ 461418.589774993888568, 190180.514695178542752 ], [ 461418.589774993888568, 190175.514695178542752 ], [ 461419.589774993888568, 190175.514695178542752 ], [ 461419.589774993888568, 190173.514695178542752 ], [ 461423.589774993888568, 190172.514695178542752 ], [ 461424.089774993888568, 190169.014695178542752 ], [ 461422.589774993888568, 190168.514695178542752 ], [ 461422.589774993888568, 190162.014695178542752 ], [ 461423.589774993888568, 190161.514695178542752 ], [ 461424.589774993888568, 190158.014695178542752 ], [ 461426.089774993888568, 190156.014695178542752 ], [ 461427.089774993888568, 190156.014695178542752 ], [ 461427.089774993888568, 190155.014695178542752 ], [ 461433.589774993888568, 190155.014695178542752 ], [ 461436.089774993888568, 190152.014695178542752 ], [ 461439.089774993888568, 190152.014695178542752 ], [ 461439.589774993888568, 190153.014695178542752 ], [ 461442.089774993888568, 190151.014695178542752 ], [ 461450.089774993888568, 190150.014695178542752 ], [ 461452.089774993888568, 190148.014695178542752 ], [ 461453.589774993888568, 190148.014695178542752 ], [ 461454.589774993888568, 190146.014695178542752 ], [ 461457.589774993888568, 190146.514695178542752 ], [ 461459.089774993888568, 190145.514695178542752 ], [ 461460.089774993888568, 190146.514695178542752 ], [ 461461.589774993888568, 190145.014695178542752 ], [ 461465.589774993888568, 190146.014695178542752 ], [ 461466.089774993888568, 190145.014695178542752 ], [ 461467.589774993888568, 190145.014695178542752 ], [ 461467.589774993888568, 190146.014695178542752 ], [ 461470.089774993888568, 190146.014695178542752 ], [ 461470.089774993888568, 190145.014695178542752 ], [ 461473.089774993888568, 190145.014695178542752 ], [ 461473.089774993888568, 190143.014695178542752 ], [ 461472.089774993888568, 190141.014695178542752 ], [ 461471.089774993888568, 190141.014695178542752 ], [ 461470.589774993888568, 190137.514695178542752 ], [ 461469.089774993888568, 190136.014695178542752 ], [ 461469.089774993888568, 190133.514695178542752 ], [ 461467.589774993888568, 190132.514695178542752 ], [ 461467.089774993888568, 190130.514695178542752 ], [ 461463.089774993888568, 190128.514695178542752 ], [ 461462.089774993888568, 190127.014695178542752 ], [ 461460.589774993888568, 190127.014695178542752 ], [ 461459.589774993888568, 190125.514695178542752 ], [ 461462.589774993888568, 190123.014695178542752 ], [ 461463.589774993888568, 190120.514695178542752 ], [ 461464.589774993888568, 190120.514695178542752 ], [ 461466.589774993888568, 190110.014695178542752 ], [ 461467.589774993888568, 190109.514695178542752 ], [ 461468.089774993888568, 190110.514695178542752 ], [ 461470.089774993888568, 190110.514695178542752 ], [ 461471.089774993888568, 190109.014695178542752 ], [ 461469.589774993888568, 190105.014695178542752 ], [ 461468.089774993888568, 190105.014695178542752 ], [ 461467.089774993888568, 190106.514695178542752 ], [ 461465.589774993888568, 190106.014695178542752 ], [ 461464.589774993888568, 190102.514695178542752 ], [ 461461.589774993888568, 190100.014695178542752 ], [ 461461.589774993888568, 190098.014695178542752 ], [ 461463.089774993888568, 190097.014695178542752 ], [ 461464.589774993888568, 190098.014695178542752 ], [ 461464.589774993888568, 190097.014695178542752 ], [ 461466.089774993888568, 190097.514695178542752 ], [ 461467.589774993888568, 190096.514695178542752 ], [ 461467.589774993888568, 190095.514695178542752 ], [ 461470.089774993888568, 190094.014695178542752 ], [ 461471.089774993888568, 190091.514695178542752 ], [ 461472.089774993888568, 190091.514695178542752 ], [ 461472.089774993888568, 190089.014695178542752 ], [ 461473.089774993888568, 190087.514695178542752 ], [ 461473.089774993888568, 190079.014695178542752 ], [ 461470.589774993888568, 190075.014695178542752 ], [ 461469.089774993888568, 190075.014695178542752 ], [ 461467.589774993888568, 190073.014695178542752 ], [ 461466.589774993888568, 190073.014695178542752 ], [ 461465.589774993888568, 190067.014695178542752 ], [ 461464.589774993888568, 190066.014695178542752 ], [ 461464.089774993888568, 190062.014695178542752 ], [ 461465.089774993888568, 190054.014695178542752 ], [ 461464.089774993888568, 190045.514695178542752 ], [ 461462.589774993888568, 190043.014695178542752 ], [ 461462.589774993888568, 190041.014695178542752 ], [ 461461.089774993888568, 190040.014695178542752 ], [ 461460.589774993888568, 190035.514695178542752 ], [ 461459.589774993888568, 190034.014695178542752 ], [ 461452.589774993888568, 190033.014695178542752 ], [ 461451.589774993888568, 190025.014695178542752 ], [ 461452.589774993888568, 190022.514695178542752 ], [ 461451.589774993888568, 190019.014695178542752 ], [ 461449.589774993888568, 190017.014695178542752 ], [ 461448.089774993888568, 190016.014695178542752 ], [ 461446.589774993888568, 190017.014695178542752 ], [ 461445.589774993888568, 190016.014695178542752 ], [ 461443.089774993888568, 190016.514695178542752 ], [ 461440.589774993888568, 190019.014695178542752 ], [ 461435.089774993888568, 190020.014695178542752 ], [ 461434.589774993888568, 190021.014695178542752 ], [ 461433.089774993888568, 190019.514695178542752 ], [ 461436.089774993888568, 190012.514695178542752 ], [ 461437.089774993888568, 190012.514695178542752 ], [ 461439.089774993888568, 190009.514695178542752 ], [ 461440.089774993888568, 190005.514695178542752 ], [ 461444.089774993888568, 190005.014695178542752 ], [ 461445.089774993888568, 190003.514695178542752 ], [ 461448.589774993888568, 190002.514695178542752 ], [ 461451.089774993888568, 189999.014695178542752 ], [ 461450.589774993888568, 189997.514695178542752 ], [ 461451.589774993888568, 189997.014695178542752 ], [ 461451.589774993888568, 189995.014695178542752 ], [ 461450.589774993888568, 189993.514695178542752 ], [ 461450.089774993888568, 189989.014695178542752 ], [ 461448.089774993888568, 189985.014695178542752 ], [ 461447.089774993888568, 189985.014695178542752 ], [ 461446.089774993888568, 189981.014695178542752 ], [ 461442.089774993888568, 189978.014695178542752 ], [ 461442.089774993888568, 189975.514695178542752 ], [ 461439.089774993888568, 189972.014695178542752 ], [ 461439.089774993888568, 189969.514695178542752 ], [ 461438.089774993888568, 189969.014695178542752 ], [ 461438.089774993888568, 189962.514695178542752 ], [ 461435.089774993888568, 189960.514695178542752 ], [ 461434.089774993888568, 189958.514695178542752 ], [ 461431.589774993888568, 189958.514695178542752 ], [ 461430.089774993888568, 189957.514695178542752 ], [ 461428.089774993888568, 189951.514695178542752 ], [ 461427.089774993888568, 189951.514695178542752 ], [ 461427.089774993888568, 189950.014695178542752 ], [ 461425.089774993888568, 189948.014695178542752 ], [ 461407.589774993888568, 189944.514695178542752 ], [ 461403.089774993888568, 189942.014695178542752 ], [ 461401.089774993888568, 189939.014695178542752 ], [ 461392.589774993888568, 189938.514695178542752 ], [ 461389.589774993888568, 189937.514695178542752 ], [ 461389.089774993888568, 189936.514695178542752 ], [ 461386.589774993888568, 189936.514695178542752 ], [ 461385.089774993888568, 189935.014695178542752 ], [ 461376.589774993888568, 189934.014695178542752 ], [ 461374.589774993888568, 189932.014695178542752 ], [ 461374.589774993888568, 189927.014695178542752 ], [ 461373.589774993888568, 189924.514695178542752 ], [ 461370.589774993888568, 189922.514695178542752 ], [ 461356.089774993888568, 189922.514695178542752 ], [ 461354.089774993888568, 189921.014695178542752 ], [ 461352.089774993888568, 189921.014695178542752 ], [ 461350.089774993888568, 189923.514695178542752 ], [ 461348.089774993888568, 189923.514695178542752 ], [ 461346.089774993888568, 189918.014695178542752 ], [ 461343.589774993888568, 189916.014695178542752 ], [ 461342.089774993888568, 189916.514695178542752 ], [ 461341.589774993888568, 189915.514695178542752 ], [ 461337.089774993888568, 189917.014695178542752 ], [ 461336.089774993888568, 189918.514695178542752 ], [ 461333.589774993888568, 189919.514695178542752 ], [ 461332.589774993888568, 189918.514695178542752 ], [ 461329.589774993888568, 189918.514695178542752 ], [ 461327.589774993888568, 189917.014695178542752 ], [ 461325.589774993888568, 189917.014695178542752 ], [ 461325.089774993888568, 189916.014695178542752 ], [ 461320.089774993888568, 189915.514695178542752 ], [ 461319.589774993888568, 189914.514695178542752 ], [ 461314.089774993888568, 189914.514695178542752 ], [ 461313.089774993888568, 189915.514695178542752 ], [ 461310.089774993888568, 189911.514695178542752 ], [ 461309.089774993888568, 189911.514695178542752 ], [ 461307.089774993888568, 189908.014695178542752 ], [ 461304.089774993888568, 189907.014695178542752 ], [ 461303.589774993888568, 189906.014695178542752 ], [ 461301.089774993888568, 189906.014695178542752 ], [ 461299.589774993888568, 189903.514695178542752 ], [ 461291.589774993888568, 189903.514695178542752 ], [ 461291.589774993888568, 189905.014695178542752 ], [ 461289.589774993888568, 189906.014695178542752 ], [ 461289.589774993888568, 189918.514695178542752 ], [ 461295.589774993888568, 189929.514695178542752 ], [ 461298.089774993888568, 189941.014695178542752 ], [ 461299.589774993888568, 189942.514695178542752 ], [ 461299.589774993888568, 189944.014695178542752 ], [ 461302.089774993888568, 189946.014695178542752 ], [ 461302.089774993888568, 189948.014695178542752 ], [ 461303.089774993888568, 189948.014695178542752 ], [ 461305.589774993888568, 189952.514695178542752 ], [ 461305.089774993888568, 189961.514695178542752 ], [ 461304.089774993888568, 189961.514695178542752 ], [ 461304.089774993888568, 189968.014695178542752 ], [ 461306.089774993888568, 189970.514695178542752 ], [ 461306.089774993888568, 189973.014695178542752 ], [ 461308.089774993888568, 189975.014695178542752 ], [ 461308.089774993888568, 189976.514695178542752 ], [ 461311.589774993888568, 189978.514695178542752 ], [ 461313.089774993888568, 189982.014695178542752 ], [ 461313.089774993888568, 189996.014695178542752 ], [ 461318.089774993888568, 190004.514695178542752 ], [ 461318.089774993888568, 190007.514695178542752 ], [ 461320.089774993888568, 190012.514695178542752 ], [ 461321.089774993888568, 190021.514695178542752 ], [ 461322.589774993888568, 190024.014695178542752 ], [ 461322.589774993888568, 190037.514695178542752 ], [ 461323.589774993888568, 190040.014695178542752 ], [ 461326.089774993888568, 190042.514695178542752 ], [ 461327.589774993888568, 190047.514695178542752 ], [ 461329.589774993888568, 190049.014695178542752 ], [ 461330.589774993888568, 190055.514695178542752 ], [ 461331.589774993888568, 190056.014695178542752 ], [ 461331.589774993888568, 190058.014695178542752 ], [ 461333.589774993888568, 190059.014695178542752 ], [ 461334.589774993888568, 190064.014695178542752 ], [ 461335.589774993888568, 190065.014695178542752 ], [ 461335.589774993888568, 190068.014695178542752 ], [ 461337.589774993888568, 190070.014695178542752 ], [ 461339.589774993888568, 190076.514695178542752 ], [ 461341.089774993888568, 190077.514695178542752 ], [ 461341.589774993888568, 190080.514695178542752 ], [ 461343.089774993888568, 190081.514695178542752 ], [ 461343.089774993888568, 190083.514695178542752 ], [ 461347.089774993888568, 190089.514695178542752 ], [ 461347.089774993888568, 190092.014695178542752 ], [ 461350.089774993888568, 190095.514695178542752 ], [ 461352.089774993888568, 190105.514695178542752 ], [ 461354.089774993888568, 190106.014695178542752 ], [ 461355.089774993888568, 190110.014695178542752 ], [ 461359.089774993888568, 190113.014695178542752 ], [ 461358.589774993888568, 190115.014695178542752 ], [ 461361.089774993888568, 190120.514695178542752 ], [ 461362.089774993888568, 190129.014695178542752 ], [ 461363.589774993888568, 190134.514695178542752 ], [ 461365.589774993888568, 190137.514695178542752 ], [ 461365.589774993888568, 190140.014695178542752 ], [ 461366.589774993888568, 190140.014695178542752 ], [ 461368.089774993888568, 190142.014695178542752 ], [ 461369.589774993888568, 190142.014695178542752 ], [ 461370.589774993888568, 190143.514695178542752 ], [ 461369.589774993888568, 190146.014695178542752 ], [ 461370.589774993888568, 190147.514695178542752 ], [ 461369.589774993888568, 190148.514695178542752 ], [ 461370.589774993888568, 190149.014695178542752 ], [ 461370.589774993888568, 190163.014695178542752 ], [ 461371.589774993888568, 190164.514695178542752 ], [ 461371.589774993888568, 190168.514695178542752 ], [ 461372.589774993888568, 190168.514695178542752 ], [ 461372.589774993888568, 190173.514695178542752 ], [ 461374.589774993888568, 190175.514695178542752 ], [ 461375.589774993888568, 190179.514695178542752 ], [ 461375.089774993888568, 190183.014695178542752 ], [ 461377.089774993888568, 190186.014695178542752 ], [ 461375.089774993888568, 190188.514695178542752 ], [ 461376.589774993888568, 190192.014695178542752 ], [ 461378.589774993888568, 190192.014695178542752 ], [ 461379.589774993888568, 190193.014695178542752 ], [ 461379.589774993888568, 190195.014695178542752 ], [ 461380.589774993888568, 190195.014695178542752 ], [ 461381.089774993888568, 190197.514695178542752 ], [ 461383.089774993888568, 190198.514695178542752 ], [ 461383.089774993888568, 190199.514695178542752 ], [ 461380.089774993888568, 190199.514695178542752 ], [ 461378.589774993888568, 190200.514695178542752 ], [ 461379.589774993888568, 190206.514695178542752 ], [ 461383.589774993888568, 190205.514695178542752 ], [ 461383.589774993888568, 190206.514695178542752 ], [ 461385.089774993888568, 190206.514695178542752 ], [ 461385.589774993888568, 190207.514695178542752 ], [ 461386.089774993888568, 190213.014695178542752 ], [ 461388.089774993888568, 190216.014695178542752 ], [ 461388.089774993888568, 190219.014695178542752 ], [ 461390.089774993888568, 190220.014695178542752 ], [ 461390.089774993888568, 190222.514695178542752 ], [ 461391.089774993888568, 190222.514695178542752 ], [ 461391.589774993888568, 190224.014695178542752 ], [ 461391.589774993888568, 190229.014695178542752 ], [ 461390.089774993888568, 190231.014695178542752 ], [ 461390.089774993888568, 190235.014695178542752 ], [ 461391.089774993888568, 190236.014695178542752 ], [ 461392.089774993888568, 190245.014695178542752 ], [ 461396.089774993888568, 190249.514695178542752 ], [ 461395.589774993888568, 190252.014695178542752 ], [ 461397.589774993888568, 190252.514695178542752 ], [ 461398.589774993888568, 190254.014695178542752 ], [ 461399.589774993888568, 190253.514695178542752 ], [ 461400.089774993888568, 190254.514695178542752 ] ], [ [ 461378.589774993888568, 190148.514695178542752 ], [ 461377.589774993888568, 190146.014695178542752 ], [ 461378.589774993888568, 190146.014695178542752 ], [ 461379.589774993888568, 190144.014695178542752 ], [ 461378.589774993888568, 190144.014695178542752 ], [ 461378.589774993888568, 190143.014695178542752 ], [ 461380.589774993888568, 190142.514695178542752 ], [ 461380.089774993888568, 190141.014695178542752 ], [ 461378.589774993888568, 190142.014695178542752 ], [ 461378.589774993888568, 190141.014695178542752 ], [ 461377.589774993888568, 190141.014695178542752 ], [ 461379.089774993888568, 190138.514695178542752 ], [ 461380.589774993888568, 190138.514695178542752 ], [ 461381.589774993888568, 190140.014695178542752 ], [ 461383.089774993888568, 190139.514695178542752 ], [ 461384.089774993888568, 190141.014695178542752 ], [ 461385.089774993888568, 190140.514695178542752 ], [ 461387.089774993888568, 190142.514695178542752 ], [ 461383.589774993888568, 190145.514695178542752 ], [ 461383.089774993888568, 190147.014695178542752 ], [ 461378.589774993888568, 190148.514695178542752 ] ] ] } },
{ "type": "Feature", "properties": { "mainhabs": "Deciduous woodland", "habcodes": "DWOOD", "featdesc": null, "featcodes": null, "otherclass": null, "addhabs": null, "primsource": "National Forest Inventory 2023 (DWOOD)", "areaha": "0.58", "version": "Sep_25", "uid": "PHID46191002_019019464", "shape_length": null, "shape_area": null, "site": "hrwallingford", "pid": 1, "method": "sam2iter" }, "geometry": { "type": "MultiPolygon", "coordinates": [ [ [ [ 461845.589774993888568, 190238.014695178542752 ], [ 461847.089774993888568, 190238.014695178542752 ], [ 461848.589774993888568, 190236.514695178542752 ], [ 461850.089774993888568, 190237.014695178542752 ], [ 461850.089774993888568, 190238.014695178542752 ], [ 461851.089774993888568, 190237.514695178542752 ], [ 461851.089774993888568, 190235.014695178542752 ], [ 461850.089774993888568, 190235.014695178542752 ], [ 461851.089774993888568, 190233.514695178542752 ], [ 461851.089774993888568, 190230.014695178542752 ], [ 461855.589774993888568, 190230.014695178542752 ], [ 461858.089774993888568, 190229.014695178542752 ], [ 461890.089774993888568, 190229.014695178542752 ], [ 461890.589774993888568, 190228.014695178542752 ], [ 461891.589774993888568, 190229.014695178542752 ], [ 461892.089774993888568, 190228.014695178542752 ], [ 461894.089774993888568, 190228.014695178542752 ], [ 461894.589774993888568, 190229.014695178542752 ], [ 461896.089774993888568, 190228.014695178542752 ], [ 461901.089774993888568, 190228.014695178542752 ], [ 461901.089774993888568, 190229.014695178542752 ], [ 461902.089774993888568, 190229.014695178542752 ], [ 461900.589774993888568, 190230.514695178542752 ], [ 461901.589774993888568, 190231.514695178542752 ], [ 461901.089774993888568, 190233.014695178542752 ], [ 461898.589774993888568, 190235.014695178542752 ], [ 461884.089774993888568, 190235.014695178542752 ], [ 461883.589774993888568, 190236.014695178542752 ], [ 461884.589774993888568, 190236.014695178542752 ], [ 461886.089774993888568, 190238.014695178542752 ], [ 461888.589774993888568, 190236.514695178542752 ], [ 461892.089774993888568, 190237.014695178542752 ], [ 461892.089774993888568, 190236.014695178542752 ], [ 461893.089774993888568, 190237.014695178542752 ], [ 461896.089774993888568, 190237.014695178542752 ], [ 461896.589774993888568, 190238.014695178542752 ], [ 461898.089774993888568, 190237.014695178542752 ], [ 461903.589774993888568, 190237.514695178542752 ], [ 461905.089774993888568, 190237.014695178542752 ], [ 461905.089774993888568, 190236.014695178542752 ], [ 461906.589774993888568, 190237.514695178542752 ], [ 461908.089774993888568, 190237.014695178542752 ], [ 461907.089774993888568, 190234.014695178542752 ], [ 461907.589774993888568, 190232.514695178542752 ], [ 461905.089774993888568, 190232.514695178542752 ], [ 461904.089774993888568, 190231.514695178542752 ], [ 461904.589774993888568, 190230.014695178542752 ], [ 461902.589774993888568, 190229.014695178542752 ], [ 461903.089774993888568, 190227.514695178542752 ], [ 461905.589774993888568, 190230.014695178542752 ], [ 461907.589774993888568, 190229.514695178542752 ], [ 461908.589774993888568, 190231.014695178542752 ], [ 461909.589774993888568, 190230.014695178542752 ], [ 461911.589774993888568, 190230.014695178542752 ], [ 461911.589774993888568, 190231.014695178542752 ], [ 461914.589774993888568, 190230.014695178542752 ], [ 461914.589774993888568, 190231.014695178542752 ], [ 461918.089774993888568, 190232.014695178542752 ], [ 461919.089774993888568, 190233.514695178542752 ], [ 461920.589774993888568, 190232.514695178542752 ], [ 461921.589774993888568, 190234.014695178542752 ], [ 461922.589774993888568, 190233.514695178542752 ], [ 461923.089774993888568, 190234.514695178542752 ], [ 461924.089774993888568, 190234.014695178542752 ], [ 461924.589774993888568, 190235.014695178542752 ], [ 461927.589774993888568, 190235.014695178542752 ], [ 461928.589774993888568, 190236.014695178542752 ], [ 461929.589774993888568, 190235.014695178542752 ], [ 461940.089774993888568, 190235.514695178542752 ], [ 461944.089774993888568, 190233.514695178542752 ], [ 461944.089774993888568, 190219.514695178542752 ], [ 461941.089774993888568, 190217.514695178542752 ], [ 461941.089774993888568, 190210.014695178542752 ], [ 461940.089774993888568, 190209.014695178542752 ], [ 461938.089774993888568, 190209.014695178542752 ], [ 461938.089774993888568, 190205.014695178542752 ], [ 461934.589774993888568, 190202.014695178542752 ], [ 461935.089774993888568, 190200.514695178542752 ], [ 461937.089774993888568, 190201.014695178542752 ], [ 461937.089774993888568, 190199.014695178542752 ], [ 461931.089774993888568, 190197.514695178542752 ], [ 461930.589774993888568, 190190.514695178542752 ], [ 461931.589774993888568, 190189.014695178542752 ], [ 461930.589774993888568, 190188.014695178542752 ], [ 461928.089774993888568, 190188.014695178542752 ], [ 461925.589774993888568, 190186.014695178542752 ], [ 461925.589774993888568, 190184.514695178542752 ], [ 461924.089774993888568, 190183.014695178542752 ], [ 461924.589774993888568, 190181.514695178542752 ], [ 461923.589774993888568, 190180.514695178542752 ], [ 461923.589774993888568, 190178.514695178542752 ], [ 461921.589774993888568, 190179.514695178542752 ], [ 461921.589774993888568, 190178.514695178542752 ], [ 461920.589774993888568, 190178.514695178542752 ], [ 461920.589774993888568, 190176.014695178542752 ], [ 461918.589774993888568, 190175.514695178542752 ], [ 461918.589774993888568, 190173.514695178542752 ], [ 461917.089774993888568, 190172.514695178542752 ], [ 461917.589774993888568, 190171.514695178542752 ], [ 461916.589774993888568, 190170.514695178542752 ], [ 461914.589774993888568, 190170.514695178542752 ], [ 461914.589774993888568, 190168.514695178542752 ], [ 461908.589774993888568, 190161.514695178542752 ], [ 461908.589774993888568, 190158.014695178542752 ], [ 461906.089774993888568, 190156.514695178542752 ], [ 461905.589774993888568, 190159.014695178542752 ], [ 461904.089774993888568, 190159.014695178542752 ], [ 461903.589774993888568, 190160.014695178542752 ], [ 461903.089774993888568, 190159.014695178542752 ], [ 461901.089774993888568, 190159.014695178542752 ], [ 461901.089774993888568, 190160.014695178542752 ], [ 461899.589774993888568, 190160.014695178542752 ], [ 461899.089774993888568, 190161.514695178542752 ], [ 461898.089774993888568, 190161.514695178542752 ], [ 461898.089774993888568, 190168.014695178542752 ], [ 461886.589774993888568, 190168.014695178542752 ], [ 461885.589774993888568, 190168.514695178542752 ], [ 461885.089774993888568, 190170.514695178542752 ], [ 461882.589774993888568, 190171.014695178542752 ], [ 461883.589774993888568, 190174.514695178542752 ], [ 461884.589774993888568, 190174.514695178542752 ], [ 461884.589774993888568, 190178.514695178542752 ], [ 461883.589774993888568, 190179.014695178542752 ], [ 461884.589774993888568, 190179.514695178542752 ], [ 461884.589774993888568, 190184.014695178542752 ], [ 461882.589774993888568, 190184.014695178542752 ], [ 461884.089774993888568, 190186.014695178542752 ], [ 461883.089774993888568, 190188.514695178542752 ], [ 461883.589774993888568, 190190.014695178542752 ], [ 461885.589774993888568, 190190.014695178542752 ], [ 461886.589774993888568, 190191.014695178542752 ], [ 461885.589774993888568, 190192.514695178542752 ], [ 461885.589774993888568, 190195.514695178542752 ], [ 461889.089774993888568, 190203.514695178542752 ], [ 461889.089774993888568, 190204.514695178542752 ], [ 461887.589774993888568, 190205.014695178542752 ], [ 461887.589774993888568, 190208.014695178542752 ], [ 461885.589774993888568, 190209.514695178542752 ], [ 461885.589774993888568, 190211.014695178542752 ], [ 461874.589774993888568, 190211.514695178542752 ], [ 461874.589774993888568, 190213.014695178542752 ], [ 461872.089774993888568, 190214.014695178542752 ], [ 461861.589774993888568, 190213.514695178542752 ], [ 461860.589774993888568, 190214.514695178542752 ], [ 461859.089774993888568, 190213.014695178542752 ], [ 461854.589774993888568, 190214.014695178542752 ], [ 461852.589774993888568, 190213.514695178542752 ], [ 461849.089774993888568, 190216.514695178542752 ], [ 461844.589774993888568, 190216.514695178542752 ], [ 461843.089774993888568, 190215.514695178542752 ], [ 461842.589774993888568, 190216.514695178542752 ], [ 461838.589774993888568, 190217.014695178542752 ], [ 461837.589774993888568, 190218.014695178542752 ], [ 461838.089774993888568, 190219.514695178542752 ], [ 461837.089774993888568, 190220.014695178542752 ], [ 461837.589774993888568, 190221.514695178542752 ], [ 461839.589774993888568, 190221.514695178542752 ], [ 461839.589774993888568, 190222.514695178542752 ], [ 461841.589774993888568, 190223.514695178542752 ], [ 461841.589774993888568, 190225.014695178542752 ], [ 461837.589774993888568, 190225.014695178542752 ], [ 461837.089774993888568, 190224.014695178542752 ], [ 461833.589774993888568, 190223.514695178542752 ], [ 461833.589774993888568, 190226.014695178542752 ], [ 461832.589774993888568, 190227.014695178542752 ], [ 461831.589774993888568, 190227.014695178542752 ], [ 461831.589774993888568, 190226.014695178542752 ], [ 461829.589774993888568, 190226.014695178542752 ], [ 461825.089774993888568, 190229.014695178542752 ], [ 461823.089774993888568, 190228.014695178542752 ], [ 461823.089774993888568, 190229.014695178542752 ], [ 461816.589774993888568, 190229.014695178542752 ], [ 461816.089774993888568, 190230.014695178542752 ], [ 461814.589774993888568, 190229.014695178542752 ], [ 461815.089774993888568, 190228.014695178542752 ], [ 461814.089774993888568, 190227.014695178542752 ], [ 461812.089774993888568, 190227.514695178542752 ], [ 461810.089774993888568, 190226.014695178542752 ], [ 461810.089774993888568, 190227.014695178542752 ], [ 461808.089774993888568, 190227.514695178542752 ], [ 461808.589774993888568, 190228.514695178542752 ], [ 461806.589774993888568, 190230.514695178542752 ], [ 461807.089774993888568, 190233.014695178542752 ], [ 461808.589774993888568, 190233.014695178542752 ], [ 461809.589774993888568, 190231.514695178542752 ], [ 461811.589774993888568, 190231.014695178542752 ], [ 461815.589774993888568, 190234.014695178542752 ], [ 461816.089774993888568, 190232.514695178542752 ], [ 461815.089774993888568, 190231.014695178542752 ], [ 461820.089774993888568, 190230.514695178542752 ], [ 461823.089774993888568, 190231.014695178542752 ], [ 461823.089774993888568, 190232.014695178542752 ], [ 461825.589774993888568, 190232.014695178542752 ], [ 461827.089774993888568, 190234.014695178542752 ], [ 461829.589774993888568, 190233.514695178542752 ], [ 461830.089774993888568, 190234.514695178542752 ], [ 461831.089774993888568, 190233.514695178542752 ], [ 461833.589774993888568, 190234.014695178542752 ], [ 461834.089774993888568, 190233.014695178542752 ], [ 461840.089774993888568, 190233.514695178542752 ], [ 461841.089774993888568, 190231.514695178542752 ], [ 461845.089774993888568, 190231.014695178542752 ], [ 461844.589774993888568, 190237.514695178542752 ], [ 461845.589774993888568, 190238.014695178542752 ] ], [ [ 461878.089774993888568, 190222.014695178542752 ], [ 461877.589774993888568, 190221.014695178542752 ], [ 461879.589774993888568, 190220.514695178542752 ], [ 461879.589774993888568, 190219.514695178542752 ], [ 461881.589774993888568, 190220.514695178542752 ], [ 461881.089774993888568, 190222.014695178542752 ], [ 461878.089774993888568, 190222.014695178542752 ] ], [ [ 461865.089774993888568, 190223.514695178542752 ], [ 461864.089774993888568, 190223.014695178542752 ], [ 461864.589774993888568, 190221.514695178542752 ], [ 461867.589774993888568, 190221.514695178542752 ], [ 461870.589774993888568, 190219.514695178542752 ], [ 461873.589774993888568, 190219.514695178542752 ], [ 461877.089774993888568, 190221.514695178542752 ], [ 461876.589774993888568, 190222.514695178542752 ], [ 461871.089774993888568, 190223.514695178542752 ], [ 461865.089774993888568, 190223.514695178542752 ] ], [ [ 461848.589774993888568, 190232.014695178542752 ], [ 461847.589774993888568, 190231.014695178542752 ], [ 461850.089774993888568, 190230.014695178542752 ], [ 461850.089774993888568, 190232.014695178542752 ], [ 461848.589774993888568, 190232.014695178542752 ] ] ], [ [ [ 461808.089774993888568, 190240.014695178542752 ], [ 461809.089774993888568, 190238.514695178542752 ], [ 461811.089774993888568, 190240.014695178542752 ], [ 461812.089774993888568, 190237.514695178542752 ], [ 461814.089774993888568, 190237.014695178542752 ], [ 461815.089774993888568, 190235.014695178542752 ], [ 461814.089774993888568, 190235.014695178542752 ], [ 461814.089774993888568, 190234.014695178542752 ], [ 461812.089774993888568, 190235.014695178542752 ], [ 461809.589774993888568, 190234.514695178542752 ], [ 461807.589774993888568, 190235.514695178542752 ], [ 461808.589774993888568, 190236.514695178542752 ], [ 461808.089774993888568, 190237.514695178542752 ], [ 461805.089774993888568, 190237.014695178542752 ], [ 461805.089774993888568, 190239.014695178542752 ], [ 461807.089774993888568, 190239.014695178542752 ], [ 461807.089774993888568, 190240.014695178542752 ], [ 461808.089774993888568, 190240.014695178542752 ] ] ] ] } },
{ "type": "Feature", "properties": { "mainhabs": "Good quality semi improved grassland", "habcodes": "GQSIG", "featdesc": null, "featcodes": null, "otherclass": null, "addhabs": null, "primsource": "Feedback from Natural England adviser or specialist 2023 (GQSIG)", "areaha": "0.63", "version": "Sep_25", "uid": "PHID46166897_019005795", "shape_length": null, "shape_area": null, "site": "hrwallingford", "pid": 2, "method": "sam2iter" }, "geometry": { "type": "Polygon", "coordinates": [ [ [ 461670.089774993888568, 190111.014695178542752 ], [ 461676.589774993888568, 190110.014695178542752 ], [ 461679.089774993888568, 190109.014695178542752 ], [ 461680.089774993888568, 190107.514695178542752 ], [ 461683.589774993888568, 190107.014695178542752 ], [ 461688.089774993888568, 190104.014695178542752 ], [ 461689.589774993888568, 190104.014695178542752 ], [ 461691.589774993888568, 190102.014695178542752 ], [ 461695.589774993888568, 190102.014695178542752 ], [ 461698.089774993888568, 190100.014695178542752 ], [ 461704.589774993888568, 190097.514695178542752 ], [ 461705.089774993888568, 190096.514695178542752 ], [ 461706.589774993888568, 190096.514695178542752 ], [ 461707.089774993888568, 190095.514695178542752 ], [ 461712.589774993888568, 190094.514695178542752 ], [ 461714.589774993888568, 190092.514695178542752 ], [ 461721.089774993888568, 190091.514695178542752 ], [ 461721.089774993888568, 190090.514695178542752 ], [ 461725.589774993888568, 190089.514695178542752 ], [ 461729.089774993888568, 190087.014695178542752 ], [ 461729.589774993888568, 190084.014695178542752 ], [ 461728.089774993888568, 190081.514695178542752 ], [ 461728.089774993888568, 190078.014695178542752 ], [ 461726.089774993888568, 190075.014695178542752 ], [ 461726.089774993888568, 190072.014695178542752 ], [ 461725.089774993888568, 190070.514695178542752 ], [ 461725.089774993888568, 190068.014695178542752 ], [ 461724.089774993888568, 190067.514695178542752 ], [ 461721.089774993888568, 190053.514695178542752 ], [ 461718.589774993888568, 190049.514695178542752 ], [ 461716.589774993888568, 190039.514695178542752 ], [ 461714.589774993888568, 190036.514695178542752 ], [ 461714.589774993888568, 190034.014695178542752 ], [ 461711.089774993888568, 190024.014695178542752 ], [ 461708.089774993888568, 190019.514695178542752 ], [ 461704.589774993888568, 190020.014695178542752 ], [ 461704.589774993888568, 190021.014695178542752 ], [ 461701.589774993888568, 190022.014695178542752 ], [ 461699.589774993888568, 190024.514695178542752 ], [ 461691.089774993888568, 190028.014695178542752 ], [ 461691.089774993888568, 190029.014695178542752 ], [ 461689.089774993888568, 190029.514695178542752 ], [ 461687.089774993888568, 190031.014695178542752 ], [ 461687.089774993888568, 190032.014695178542752 ], [ 461686.089774993888568, 190032.014695178542752 ], [ 461686.089774993888568, 190033.014695178542752 ], [ 461681.089774993888568, 190034.014695178542752 ], [ 461676.589774993888568, 190037.514695178542752 ], [ 461673.589774993888568, 190037.514695178542752 ], [ 461673.089774993888568, 190036.514695178542752 ], [ 461671.089774993888568, 190036.014695178542752 ], [ 461670.589774993888568, 190032.014695178542752 ], [ 461667.589774993888568, 190028.514695178542752 ], [ 461667.589774993888568, 190027.014695178542752 ], [ 461665.589774993888568, 190026.014695178542752 ], [ 461664.589774993888568, 190023.014695178542752 ], [ 461662.589774993888568, 190022.014695178542752 ], [ 461661.589774993888568, 190020.014695178542752 ], [ 461660.589774993888568, 190020.014695178542752 ], [ 461658.589774993888568, 190014.014695178542752 ], [ 461657.589774993888568, 190014.014695178542752 ], [ 461657.089774993888568, 190012.514695178542752 ], [ 461652.089774993888568, 190010.514695178542752 ], [ 461651.589774993888568, 190011.514695178542752 ], [ 461650.089774993888568, 190011.514695178542752 ], [ 461649.089774993888568, 190013.514695178542752 ], [ 461650.089774993888568, 190014.014695178542752 ], [ 461651.589774993888568, 190019.014695178542752 ], [ 461653.589774993888568, 190020.014695178542752 ], [ 461653.589774993888568, 190022.014695178542752 ], [ 461655.089774993888568, 190024.014695178542752 ], [ 461656.089774993888568, 190024.014695178542752 ], [ 461656.089774993888568, 190025.014695178542752 ], [ 461657.589774993888568, 190025.514695178542752 ], [ 461657.589774993888568, 190027.514695178542752 ], [ 461659.589774993888568, 190028.514695178542752 ], [ 461659.589774993888568, 190032.514695178542752 ], [ 461661.589774993888568, 190033.014695178542752 ], [ 461663.089774993888568, 190036.514695178542752 ], [ 461662.589774993888568, 190037.514695178542752 ], [ 461665.589774993888568, 190039.014695178542752 ], [ 461665.589774993888568, 190042.514695178542752 ], [ 461664.589774993888568, 190044.514695178542752 ], [ 461662.589774993888568, 190044.514695178542752 ], [ 461662.589774993888568, 190045.514695178542752 ], [ 461659.589774993888568, 190047.014695178542752 ], [ 461656.589774993888568, 190047.514695178542752 ], [ 461655.089774993888568, 190049.514695178542752 ], [ 461652.089774993888568, 190050.514695178542752 ], [ 461650.589774993888568, 190052.514695178542752 ], [ 461648.589774993888568, 190052.514695178542752 ], [ 461642.089774993888568, 190058.014695178542752 ], [ 461636.589774993888568, 190058.514695178542752 ], [ 461635.589774993888568, 190056.014695178542752 ], [ 461633.589774993888568, 190055.014695178542752 ], [ 461632.589774993888568, 190050.514695178542752 ], [ 461630.589774993888568, 190049.514695178542752 ], [ 461630.589774993888568, 190047.514695178542752 ], [ 461627.589774993888568, 190046.014695178542752 ], [ 461627.089774993888568, 190042.514695178542752 ], [ 461624.589774993888568, 190041.014695178542752 ], [ 461623.589774993888568, 190039.014695178542752 ], [ 461622.589774993888568, 190039.014695178542752 ], [ 461621.589774993888568, 190041.514695178542752 ], [ 461622.589774993888568, 190042.014695178542752 ], [ 461621.589774993888568, 190042.514695178542752 ], [ 461620.589774993888568, 190046.014695178542752 ], [ 461620.589774993888568, 190055.014695178542752 ], [ 461619.089774993888568, 190056.014695178542752 ], [ 461619.089774993888568, 190059.014695178542752 ], [ 461621.589774993888568, 190063.014695178542752 ], [ 461622.089774993888568, 190066.014695178542752 ], [ 461624.589774993888568, 190069.014695178542752 ], [ 461625.589774993888568, 190069.014695178542752 ], [ 461625.589774993888568, 190070.014695178542752 ], [ 461627.089774993888568, 190070.014695178542752 ], [ 461630.089774993888568, 190072.014695178542752 ], [ 461631.589774993888568, 190076.514695178542752 ], [ 461634.589774993888568, 190080.514695178542752 ], [ 461635.589774993888568, 190080.514695178542752 ], [ 461636.089774993888568, 190082.514695178542752 ], [ 461640.589774993888568, 190082.014695178542752 ], [ 461643.089774993888568, 190078.514695178542752 ], [ 461645.089774993888568, 190077.514695178542752 ], [ 461649.089774993888568, 190078.014695178542752 ], [ 461654.089774993888568, 190076.514695178542752 ], [ 461655.589774993888568, 190078.014695178542752 ], [ 461657.589774993888568, 190084.514695178542752 ], [ 461658.589774993888568, 190084.514695178542752 ], [ 461660.589774993888568, 190091.514695178542752 ], [ 461662.589774993888568, 190094.514695178542752 ], [ 461663.589774993888568, 190099.014695178542752 ], [ 461664.589774993888568, 190099.514695178542752 ], [ 461665.589774993888568, 190105.014695178542752 ], [ 461667.589774993888568, 190107.514695178542752 ], [ 461667.589774993888568, 190109.014695178542752 ], [ 461668.589774993888568, 190109.014695178542752 ], [ 461670.089774993888568, 190111.014695178542752 ] ] ] } },
{ "type": "Feature", "properties": { "mainhabs": "Good quality semi improved grassland", "habcodes": "GQSIG", "featdesc": null, "featcodes": null, "otherclass": null, "addhabs": null, "primsource": "Feedback from Natural England adviser or specialist 2023 (GQSIG)", "areaha": "0.52", "version": "Sep_25", "uid": "PHID46176536_019004125", "shape_length": null, "shape_area": null, "site": "hrwallingford", "pid": 3, "method": "sam2iter" }, "geometry": { "type": "Polygon", "coordinates": [ [ [ 461733.589774993888568, 190084.014695178542752 ], [ 461738.089774993888568, 190084.014695178542752 ], [ 461739.089774993888568, 190082.514695178542752 ], [ 461741.589774993888568, 190082.514695178542752 ], [ 461747.589774993888568, 190078.514695178542752 ], [ 461751.589774993888568, 190078.014695178542752 ], [ 461754.089774993888568, 190076.014695178542752 ], [ 461763.589774993888568, 190073.014695178542752 ], [ 461767.589774993888568, 190070.014695178542752 ], [ 461783.589774993888568, 190070.014695178542752 ], [ 461783.589774993888568, 190069.014695178542752 ], [ 461785.089774993888568, 190069.014695178542752 ], [ 461788.589774993888568, 190066.014695178542752 ], [ 461790.589774993888568, 190066.014695178542752 ], [ 461790.589774993888568, 190065.014695178542752 ], [ 461794.589774993888568, 190063.014695178542752 ], [ 461799.089774993888568, 190063.014695178542752 ], [ 461800.589774993888568, 190065.014695178542752 ], [ 461802.589774993888568, 190065.014695178542752 ], [ 461806.089774993888568, 190068.014695178542752 ], [ 461810.089774993888568, 190074.514695178542752 ], [ 461812.589774993888568, 190076.014695178542752 ], [ 461818.089774993888568, 190077.014695178542752 ], [ 461823.589774993888568, 190073.514695178542752 ], [ 461819.089774993888568, 190059.014695178542752 ], [ 461815.089774993888568, 190053.014695178542752 ], [ 461814.089774993888568, 190047.514695178542752 ], [ 461812.089774993888568, 190044.514695178542752 ], [ 461810.089774993888568, 190038.014695178542752 ], [ 461809.089774993888568, 190037.514695178542752 ], [ 461809.089774993888568, 190035.514695178542752 ], [ 461806.089774993888568, 190028.514695178542752 ], [ 461805.089774993888568, 190028.014695178542752 ], [ 461805.089774993888568, 190026.014695178542752 ], [ 461803.589774993888568, 190024.514695178542752 ], [ 461803.589774993888568, 190022.514695178542752 ], [ 461802.589774993888568, 190022.014695178542752 ], [ 461802.589774993888568, 190020.514695178542752 ], [ 461798.589774993888568, 190017.014695178542752 ], [ 461798.589774993888568, 190014.014695178542752 ], [ 461797.589774993888568, 190014.014695178542752 ], [ 461797.589774993888568, 190008.514695178542752 ], [ 461795.589774993888568, 190005.514695178542752 ], [ 461788.589774993888568, 190008.014695178542752 ], [ 461786.089774993888568, 190010.514695178542752 ], [ 461781.589774993888568, 190010.514695178542752 ], [ 461775.089774993888568, 190012.514695178542752 ], [ 461774.089774993888568, 190014.014695178542752 ], [ 461772.589774993888568, 190014.014695178542752 ], [ 461770.089774993888568, 190016.014695178542752 ], [ 461765.089774993888568, 190017.014695178542752 ], [ 461762.089774993888568, 190019.014695178542752 ], [ 461758.089774993888568, 190020.014695178542752 ], [ 461757.589774993888568, 190021.014695178542752 ], [ 461755.589774993888568, 190021.014695178542752 ], [ 461755.589774993888568, 190022.014695178542752 ], [ 461750.589774993888568, 190023.014695178542752 ], [ 461750.089774993888568, 190024.014695178542752 ], [ 461746.589774993888568, 190024.514695178542752 ], [ 461739.089774993888568, 190028.014695178542752 ], [ 461734.589774993888568, 190028.514695178542752 ], [ 461728.089774993888568, 190027.014695178542752 ], [ 461723.589774993888568, 190028.514695178542752 ], [ 461720.089774993888568, 190027.514695178542752 ], [ 461717.589774993888568, 190028.014695178542752 ], [ 461717.089774993888568, 190030.514695178542752 ], [ 461718.589774993888568, 190031.514695178542752 ], [ 461719.589774993888568, 190039.014695178542752 ], [ 461721.089774993888568, 190041.514695178542752 ], [ 461721.089774993888568, 190043.514695178542752 ], [ 461722.089774993888568, 190044.014695178542752 ], [ 461723.089774993888568, 190050.514695178542752 ], [ 461725.589774993888568, 190054.514695178542752 ], [ 461725.589774993888568, 190058.014695178542752 ], [ 461728.089774993888568, 190064.514695178542752 ], [ 461728.089774993888568, 190067.514695178542752 ], [ 461730.089774993888568, 190071.014695178542752 ], [ 461731.089774993888568, 190079.514695178542752 ], [ 461733.589774993888568, 190084.014695178542752 ] ] ] } }
]
}
