{
"type": "FeatureCollection",
"crs": { "type": "name", "properties": { "name": "urn:ogc:def:crs:EPSG::27700" } },
"features": [
{ "type": "Feature", "properties": { "mainhabs": "Deciduous woodland", "habcodes": "DWOOD", "featdesc": null, "featcodes": null, "otherclass": null, "addhabs": null, "primsource": "National Forest Inventory 2023 (DWOOD)", "areaha": "3.04", "version": "Sep_25", "uid": "PHID46138566_019003773", "shape_length": null, "shape_area": null, "site": "hrwallingford", "pid": 0, "method": "grabcut2" }, "geometry": { "type": "Polygon", "coordinates": [ [ [ 461396.589774993888568, 190255.514695178542752 ], [ 461428.089774993888568, 190255.514695178542752 ], [ 461428.089774993888568, 190248.514695178542752 ], [ 461432.089774993888568, 190245.514695178542752 ], [ 461433.089774993888568, 190243.014695178542752 ], [ 461434.089774993888568, 190243.014695178542752 ], [ 461436.089774993888568, 190239.014695178542752 ], [ 461438.089774993888568, 190237.514695178542752 ], [ 461438.089774993888568, 190235.014695178542752 ], [ 461440.089774993888568, 190233.514695178542752 ], [ 461438.589774993888568, 190231.014695178542752 ], [ 461439.089774993888568, 190229.014695178542752 ], [ 461438.089774993888568, 190229.014695178542752 ], [ 461438.089774993888568, 190226.514695178542752 ], [ 461436.089774993888568, 190225.014695178542752 ], [ 461436.089774993888568, 190221.514695178542752 ], [ 461434.089774993888568, 190220.014695178542752 ], [ 461434.089774993888568, 190213.014695178542752 ], [ 461432.089774993888568, 190211.014695178542752 ], [ 461433.089774993888568, 190208.014695178542752 ], [ 461436.089774993888568, 190205.514695178542752 ], [ 461436.089774993888568, 190195.014695178542752 ], [ 461435.089774993888568, 190194.514695178542752 ], [ 461435.089774993888568, 190193.014695178542752 ], [ 461436.089774993888568, 190193.014695178542752 ], [ 461436.089774993888568, 190190.514695178542752 ], [ 461434.089774993888568, 190189.514695178542752 ], [ 461433.089774993888568, 190187.514695178542752 ], [ 461433.089774993888568, 190184.014695178542752 ], [ 461435.089774993888568, 190183.514695178542752 ], [ 461435.089774993888568, 190180.514695178542752 ], [ 461434.089774993888568, 190180.014695178542752 ], [ 461434.089774993888568, 190175.514695178542752 ], [ 461433.089774993888568, 190174.014695178542752 ], [ 461432.589774993888568, 190169.514695178542752 ], [ 461431.089774993888568, 190168.514695178542752 ], [ 461432.089774993888568, 190167.514695178542752 ], [ 461432.089774993888568, 190164.014695178542752 ], [ 461428.589774993888568, 190163.514695178542752 ], [ 461427.589774993888568, 190164.514695178542752 ], [ 461424.589774993888568, 190161.514695178542752 ], [ 461424.589774993888568, 190158.514695178542752 ], [ 461428.089774993888568, 190155.514695178542752 ], [ 461440.089774993888568, 190157.014695178542752 ], [ 461442.089774993888568, 190154.014695178542752 ], [ 461448.589774993888568, 190153.014695178542752 ], [ 461449.089774993888568, 190152.014695178542752 ], [ 461452.589774993888568, 190151.014695178542752 ], [ 461452.589774993888568, 190150.014695178542752 ], [ 461471.089774993888568, 190150.014695178542752 ], [ 461471.589774993888568, 190149.014695178542752 ], [ 461473.589774993888568, 190149.514695178542752 ], [ 461476.089774993888568, 190148.014695178542752 ], [ 461476.089774993888568, 190146.014695178542752 ], [ 461477.589774993888568, 190145.014695178542752 ], [ 461477.089774993888568, 190143.014695178542752 ], [ 461476.089774993888568, 190142.514695178542752 ], [ 461475.089774993888568, 190139.014695178542752 ], [ 461473.089774993888568, 190137.014695178542752 ], [ 461473.089774993888568, 190135.514695178542752 ], [ 461471.089774993888568, 190133.514695178542752 ], [ 461470.589774993888568, 190131.514695178542752 ], [ 461473.589774993888568, 190127.514695178542752 ], [ 461475.089774993888568, 190127.514695178542752 ], [ 461479.089774993888568, 190123.514695178542752 ], [ 461479.089774993888568, 190122.514695178542752 ], [ 461482.089774993888568, 190121.514695178542752 ], [ 461483.089774993888568, 190118.014695178542752 ], [ 461485.089774993888568, 190118.014695178542752 ], [ 461486.589774993888568, 190116.514695178542752 ], [ 461485.089774993888568, 190112.014695178542752 ], [ 461481.589774993888568, 190111.514695178542752 ], [ 461482.089774993888568, 190110.514695178542752 ], [ 461483.089774993888568, 190111.014695178542752 ], [ 461483.089774993888568, 190110.014695178542752 ], [ 461484.089774993888568, 190110.014695178542752 ], [ 461484.089774993888568, 190108.014695178542752 ], [ 461482.089774993888568, 190107.014695178542752 ], [ 461480.589774993888568, 190102.514695178542752 ], [ 461481.089774993888568, 190100.014695178542752 ], [ 461482.089774993888568, 190100.014695178542752 ], [ 461481.089774993888568, 190098.514695178542752 ], [ 461481.089774993888568, 190095.514695178542752 ], [ 461483.089774993888568, 190093.014695178542752 ], [ 461483.089774993888568, 190091.514695178542752 ], [ 461484.089774993888568, 190091.514695178542752 ], [ 461483.589774993888568, 190089.514695178542752 ], [ 461484.589774993888568, 190089.014695178542752 ], [ 461484.589774993888568, 190070.514695178542752 ], [ 461480.089774993888568, 190063.514695178542752 ], [ 461479.589774993888568, 190060.014695178542752 ], [ 461470.089774993888568, 190050.514695178542752 ], [ 461466.589774993888568, 190049.514695178542752 ], [ 461465.589774993888568, 190046.014695178542752 ], [ 461462.589774993888568, 190043.514695178542752 ], [ 461462.589774993888568, 190040.014695178542752 ], [ 461460.589774993888568, 190038.514695178542752 ], [ 461461.589774993888568, 190035.014695178542752 ], [ 461460.589774993888568, 190033.014695178542752 ], [ 461459.089774993888568, 190032.514695178542752 ], [ 461457.589774993888568, 190034.014695178542752 ], [ 461456.589774993888568, 190032.014695178542752 ], [ 461454.089774993888568, 190031.514695178542752 ], [ 461452.589774993888568, 190030.014695178542752 ], [ 461451.589774993888568, 190026.014695178542752 ], [ 461452.589774993888568, 190022.014695178542752 ], [ 461451.589774993888568, 190021.014695178542752 ], [ 461451.589774993888568, 190017.014695178542752 ], [ 461445.089774993888568, 190010.514695178542752 ], [ 461444.589774993888568, 190008.514695178542752 ], [ 461445.089774993888568, 190004.014695178542752 ], [ 461446.089774993888568, 190003.014695178542752 ], [ 461448.589774993888568, 190003.014695178542752 ], [ 461448.589774993888568, 190001.014695178542752 ], [ 461450.589774993888568, 189999.514695178542752 ], [ 461451.089774993888568, 189997.014695178542752 ], [ 461451.089774993888568, 189995.514695178542752 ], [ 461449.589774993888568, 189994.514695178542752 ], [ 461450.089774993888568, 189990.014695178542752 ], [ 461449.089774993888568, 189985.014695178542752 ], [ 461447.589774993888568, 189983.514695178542752 ], [ 461447.589774993888568, 189978.514695178542752 ], [ 461441.089774993888568, 189972.014695178542752 ], [ 461441.089774993888568, 189970.014695178542752 ], [ 461439.089774993888568, 189967.514695178542752 ], [ 461439.089774993888568, 189962.514695178542752 ], [ 461432.589774993888568, 189954.514695178542752 ], [ 461430.089774993888568, 189953.514695178542752 ], [ 461427.089774993888568, 189951.014695178542752 ], [ 461427.089774993888568, 189950.014695178542752 ], [ 461423.089774993888568, 189947.514695178542752 ], [ 461415.589774993888568, 189946.014695178542752 ], [ 461414.589774993888568, 189944.514695178542752 ], [ 461411.089774993888568, 189944.514695178542752 ], [ 461407.589774993888568, 189941.514695178542752 ], [ 461404.089774993888568, 189941.514695178542752 ], [ 461400.589774993888568, 189937.514695178542752 ], [ 461391.089774993888568, 189937.014695178542752 ], [ 461387.089774993888568, 189935.014695178542752 ], [ 461384.589774993888568, 189935.014695178542752 ], [ 461384.089774993888568, 189934.014695178542752 ], [ 461379.589774993888568, 189934.014695178542752 ], [ 461377.089774993888568, 189932.014695178542752 ], [ 461375.589774993888568, 189932.014695178542752 ], [ 461373.589774993888568, 189928.014695178542752 ], [ 461372.089774993888568, 189928.014695178542752 ], [ 461369.589774993888568, 189924.514695178542752 ], [ 461368.589774993888568, 189924.514695178542752 ], [ 461368.589774993888568, 189923.514695178542752 ], [ 461365.589774993888568, 189922.514695178542752 ], [ 461365.589774993888568, 189921.514695178542752 ], [ 461363.089774993888568, 189920.514695178542752 ], [ 461362.089774993888568, 189918.514695178542752 ], [ 461360.589774993888568, 189918.514695178542752 ], [ 461358.089774993888568, 189915.514695178542752 ], [ 461347.089774993888568, 189916.014695178542752 ], [ 461343.089774993888568, 189915.514695178542752 ], [ 461342.589774993888568, 189914.514695178542752 ], [ 461337.589774993888568, 189914.514695178542752 ], [ 461337.089774993888568, 189915.514695178542752 ], [ 461331.589774993888568, 189915.514695178542752 ], [ 461331.589774993888568, 189914.514695178542752 ], [ 461329.589774993888568, 189914.514695178542752 ], [ 461329.589774993888568, 189913.514695178542752 ], [ 461326.589774993888568, 189913.514695178542752 ], [ 461326.589774993888568, 189912.514695178542752 ], [ 461315.089774993888568, 189912.514695178542752 ], [ 461313.089774993888568, 189911.014695178542752 ], [ 461309.089774993888568, 189910.514695178542752 ], [ 461309.089774993888568, 189909.514695178542752 ], [ 461307.089774993888568, 189909.514695178542752 ], [ 461306.589774993888568, 189908.514695178542752 ], [ 461306.089774993888568, 189909.514695178542752 ], [ 461304.089774993888568, 189909.014695178542752 ], [ 461301.089774993888568, 189911.514695178542752 ], [ 461301.089774993888568, 189913.514695178542752 ], [ 461297.589774993888568, 189916.014695178542752 ], [ 461297.589774993888568, 189918.014695178542752 ], [ 461295.589774993888568, 189920.514695178542752 ], [ 461296.589774993888568, 189922.014695178542752 ], [ 461296.589774993888568, 189924.514695178542752 ], [ 461297.589774993888568, 189924.514695178542752 ], [ 461298.089774993888568, 189926.014695178542752 ], [ 461297.589774993888568, 189930.514695178542752 ], [ 461299.089774993888568, 189931.514695178542752 ], [ 461299.589774993888568, 189936.014695178542752 ], [ 461300.589774993888568, 189936.014695178542752 ], [ 461300.589774993888568, 189940.014695178542752 ], [ 461302.089774993888568, 189942.014695178542752 ], [ 461303.089774993888568, 189942.014695178542752 ], [ 461303.089774993888568, 189947.014695178542752 ], [ 461307.089774993888568, 189951.014695178542752 ], [ 461305.589774993888568, 189956.014695178542752 ], [ 461308.089774993888568, 189968.014695178542752 ], [ 461310.089774993888568, 189970.014695178542752 ], [ 461310.089774993888568, 189972.014695178542752 ], [ 461311.089774993888568, 189972.014695178542752 ], [ 461312.089774993888568, 189975.514695178542752 ], [ 461315.089774993888568, 189979.514695178542752 ], [ 461315.089774993888568, 189982.014695178542752 ], [ 461316.089774993888568, 189982.014695178542752 ], [ 461315.589774993888568, 189991.014695178542752 ], [ 461317.089774993888568, 189994.514695178542752 ], [ 461318.089774993888568, 189994.514695178542752 ], [ 461319.089774993888568, 189996.514695178542752 ], [ 461319.089774993888568, 189999.514695178542752 ], [ 461320.089774993888568, 190000.014695178542752 ], [ 461320.089774993888568, 190002.514695178542752 ], [ 461321.089774993888568, 190003.014695178542752 ], [ 461321.089774993888568, 190007.514695178542752 ], [ 461322.589774993888568, 190010.514695178542752 ], [ 461323.589774993888568, 190010.514695178542752 ], [ 461323.589774993888568, 190014.014695178542752 ], [ 461324.589774993888568, 190016.014695178542752 ], [ 461325.089774993888568, 190021.514695178542752 ], [ 461323.089774993888568, 190023.514695178542752 ], [ 461323.089774993888568, 190026.014695178542752 ], [ 461326.589774993888568, 190029.514695178542752 ], [ 461326.589774993888568, 190031.014695178542752 ], [ 461327.589774993888568, 190031.014695178542752 ], [ 461327.589774993888568, 190035.514695178542752 ], [ 461330.589774993888568, 190038.014695178542752 ], [ 461330.589774993888568, 190042.014695178542752 ], [ 461331.589774993888568, 190042.514695178542752 ], [ 461331.589774993888568, 190044.014695178542752 ], [ 461330.089774993888568, 190045.514695178542752 ], [ 461331.089774993888568, 190052.014695178542752 ], [ 461334.589774993888568, 190055.014695178542752 ], [ 461334.589774993888568, 190056.014695178542752 ], [ 461335.589774993888568, 190056.014695178542752 ], [ 461336.589774993888568, 190060.014695178542752 ], [ 461336.589774993888568, 190072.014695178542752 ], [ 461337.589774993888568, 190074.014695178542752 ], [ 461339.589774993888568, 190075.014695178542752 ], [ 461339.089774993888568, 190076.014695178542752 ], [ 461340.589774993888568, 190077.514695178542752 ], [ 461340.589774993888568, 190079.014695178542752 ], [ 461342.589774993888568, 190079.514695178542752 ], [ 461346.089774993888568, 190083.014695178542752 ], [ 461347.089774993888568, 190085.514695178542752 ], [ 461348.089774993888568, 190085.514695178542752 ], [ 461350.089774993888568, 190088.514695178542752 ], [ 461350.089774993888568, 190091.014695178542752 ], [ 461352.089774993888568, 190093.014695178542752 ], [ 461352.089774993888568, 190097.514695178542752 ], [ 461354.089774993888568, 190100.514695178542752 ], [ 461354.089774993888568, 190103.514695178542752 ], [ 461355.589774993888568, 190105.014695178542752 ], [ 461355.589774993888568, 190110.014695178542752 ], [ 461358.089774993888568, 190112.014695178542752 ], [ 461358.089774993888568, 190113.514695178542752 ], [ 461361.089774993888568, 190116.514695178542752 ], [ 461361.089774993888568, 190119.514695178542752 ], [ 461362.089774993888568, 190119.514695178542752 ], [ 461361.089774993888568, 190121.014695178542752 ], [ 461362.089774993888568, 190125.014695178542752 ], [ 461361.089774993888568, 190127.014695178542752 ], [ 461363.589774993888568, 190129.014695178542752 ], [ 461363.089774993888568, 190131.514695178542752 ], [ 461366.589774993888568, 190135.514695178542752 ], [ 461366.589774993888568, 190138.514695178542752 ], [ 461370.589774993888568, 190142.014695178542752 ], [ 461369.589774993888568, 190145.514695178542752 ], [ 461370.589774993888568, 190146.514695178542752 ], [ 461368.589774993888568, 190148.514695178542752 ], [ 461369.589774993888568, 190150.014695178542752 ], [ 461369.589774993888568, 190153.014695178542752 ], [ 461367.589774993888568, 190155.014695178542752 ], [ 461368.589774993888568, 190155.014695178542752 ], [ 461368.589774993888568, 190159.014695178542752 ], [ 461369.589774993888568, 190160.014695178542752 ], [ 461369.089774993888568, 190163.514695178542752 ], [ 461371.589774993888568, 190166.014695178542752 ], [ 461370.589774993888568, 190168.014695178542752 ], [ 461371.589774993888568, 190168.514695178542752 ], [ 461372.589774993888568, 190173.514695178542752 ], [ 461371.589774993888568, 190175.514695178542752 ], [ 461371.589774993888568, 190179.014695178542752 ], [ 461372.589774993888568, 190179.514695178542752 ], [ 461373.089774993888568, 190181.514695178542752 ], [ 461374.089774993888568, 190181.514695178542752 ], [ 461381.589774993888568, 190188.514695178542752 ], [ 461383.089774993888568, 190194.014695178542752 ], [ 461386.089774993888568, 190198.014695178542752 ], [ 461387.089774993888568, 190214.514695178542752 ], [ 461389.089774993888568, 190217.014695178542752 ], [ 461389.089774993888568, 190219.514695178542752 ], [ 461391.089774993888568, 190220.514695178542752 ], [ 461393.089774993888568, 190223.514695178542752 ], [ 461393.089774993888568, 190226.014695178542752 ], [ 461394.089774993888568, 190227.014695178542752 ], [ 461394.089774993888568, 190229.514695178542752 ], [ 461392.089774993888568, 190230.514695178542752 ], [ 461392.089774993888568, 190234.514695178542752 ], [ 461394.089774993888568, 190237.014695178542752 ], [ 461395.089774993888568, 190242.514695178542752 ], [ 461396.089774993888568, 190243.014695178542752 ], [ 461396.089774993888568, 190248.014695178542752 ], [ 461395.089774993888568, 190249.014695178542752 ], [ 461396.589774993888568, 190255.514695178542752 ] ] ] } },
{ "type": "Feature", "properties": { "mainhabs": "Deciduous woodland", "habcodes": "DWOOD", "featdesc": null, "featcodes": null, "otherclass": null, "addhabs": null, "primsource": "National Forest Inventory 2023 (DWOOD)", "areaha": "0.58", "version": "Sep_25", "uid": "PHID46191002_019019464", "shape_length": null, "shape_area": null, "site": "hrwallingford", "pid": 1, "method": "grabcut2" }, "geometry": { "type": "Polygon", "coordinates": [ [ [ 461874.589774993888568, 190247.514695178542752 ], [ 461882.089774993888568, 190247.514695178542752 ], [ 461883.089774993888568, 190246.014695178542752 ], [ 461885.589774993888568, 190245.514695178542752 ], [ 461885.589774993888568, 190244.514695178542752 ], [ 461887.589774993888568, 190245.014695178542752 ], [ 461888.089774993888568, 190244.014695178542752 ], [ 461890.589774993888568, 190244.014695178542752 ], [ 461896.089774993888568, 190238.014695178542752 ], [ 461897.589774993888568, 190239.014695178542752 ], [ 461899.089774993888568, 190237.514695178542752 ], [ 461899.089774993888568, 190232.014695178542752 ], [ 461906.089774993888568, 190227.014695178542752 ], [ 461913.589774993888568, 190227.014695178542752 ], [ 461914.589774993888568, 190226.014695178542752 ], [ 461917.589774993888568, 190228.014695178542752 ], [ 461919.589774993888568, 190228.014695178542752 ], [ 461920.089774993888568, 190227.014695178542752 ], [ 461923.589774993888568, 190226.514695178542752 ], [ 461925.589774993888568, 190227.514695178542752 ], [ 461927.589774993888568, 190226.014695178542752 ], [ 461933.589774993888568, 190225.014695178542752 ], [ 461933.089774993888568, 190222.514695178542752 ], [ 461932.089774993888568, 190222.014695178542752 ], [ 461932.089774993888568, 190211.514695178542752 ], [ 461929.089774993888568, 190208.514695178542752 ], [ 461932.089774993888568, 190206.514695178542752 ], [ 461934.089774993888568, 190201.014695178542752 ], [ 461935.089774993888568, 190201.014695178542752 ], [ 461935.089774993888568, 190200.014695178542752 ], [ 461937.089774993888568, 190198.514695178542752 ], [ 461936.089774993888568, 190194.014695178542752 ], [ 461933.089774993888568, 190193.014695178542752 ], [ 461933.089774993888568, 190191.014695178542752 ], [ 461932.089774993888568, 190191.014695178542752 ], [ 461932.089774993888568, 190190.014695178542752 ], [ 461933.089774993888568, 190190.014695178542752 ], [ 461933.089774993888568, 190187.514695178542752 ], [ 461932.089774993888568, 190187.014695178542752 ], [ 461932.589774993888568, 190185.014695178542752 ], [ 461930.589774993888568, 190182.014695178542752 ], [ 461931.089774993888568, 190180.014695178542752 ], [ 461926.589774993888568, 190177.514695178542752 ], [ 461925.589774993888568, 190175.514695178542752 ], [ 461923.589774993888568, 190175.514695178542752 ], [ 461923.589774993888568, 190174.514695178542752 ], [ 461919.589774993888568, 190174.514695178542752 ], [ 461917.589774993888568, 190171.514695178542752 ], [ 461914.089774993888568, 190171.514695178542752 ], [ 461915.089774993888568, 190168.014695178542752 ], [ 461910.589774993888568, 190165.514695178542752 ], [ 461910.589774993888568, 190161.014695178542752 ], [ 461909.589774993888568, 190160.514695178542752 ], [ 461908.089774993888568, 190154.014695178542752 ], [ 461907.089774993888568, 190154.014695178542752 ], [ 461907.089774993888568, 190153.014695178542752 ], [ 461904.089774993888568, 190151.514695178542752 ], [ 461900.089774993888568, 190153.014695178542752 ], [ 461899.089774993888568, 190155.014695178542752 ], [ 461897.089774993888568, 190155.014695178542752 ], [ 461895.589774993888568, 190148.514695178542752 ], [ 461894.089774993888568, 190147.514695178542752 ], [ 461891.589774993888568, 190147.514695178542752 ], [ 461888.089774993888568, 190145.014695178542752 ], [ 461884.589774993888568, 190145.014695178542752 ], [ 461882.089774993888568, 190143.514695178542752 ], [ 461879.089774993888568, 190144.014695178542752 ], [ 461877.589774993888568, 190146.014695178542752 ], [ 461877.589774993888568, 190149.014695178542752 ], [ 461878.589774993888568, 190150.514695178542752 ], [ 461876.089774993888568, 190154.514695178542752 ], [ 461876.589774993888568, 190158.014695178542752 ], [ 461877.589774993888568, 190158.514695178542752 ], [ 461877.589774993888568, 190162.514695178542752 ], [ 461879.089774993888568, 190164.514695178542752 ], [ 461877.089774993888568, 190170.014695178542752 ], [ 461877.589774993888568, 190172.514695178542752 ], [ 461874.589774993888568, 190173.514695178542752 ], [ 461874.589774993888568, 190179.514695178542752 ], [ 461878.589774993888568, 190182.014695178542752 ], [ 461878.589774993888568, 190184.014695178542752 ], [ 461882.089774993888568, 190187.014695178542752 ], [ 461883.589774993888568, 190191.014695178542752 ], [ 461884.589774993888568, 190191.014695178542752 ], [ 461884.589774993888568, 190197.014695178542752 ], [ 461885.589774993888568, 190198.514695178542752 ], [ 461879.589774993888568, 190204.514695178542752 ], [ 461868.589774993888568, 190204.514695178542752 ], [ 461867.589774993888568, 190205.514695178542752 ], [ 461859.089774993888568, 190206.014695178542752 ], [ 461857.589774993888568, 190207.514695178542752 ], [ 461851.089774993888568, 190207.514695178542752 ], [ 461851.089774993888568, 190208.514695178542752 ], [ 461841.589774993888568, 190208.014695178542752 ], [ 461837.089774993888568, 190212.514695178542752 ], [ 461834.589774993888568, 190212.514695178542752 ], [ 461831.589774993888568, 190214.514695178542752 ], [ 461829.589774993888568, 190214.514695178542752 ], [ 461828.589774993888568, 190216.514695178542752 ], [ 461827.589774993888568, 190216.514695178542752 ], [ 461827.589774993888568, 190218.014695178542752 ], [ 461824.089774993888568, 190220.514695178542752 ], [ 461824.089774993888568, 190221.514695178542752 ], [ 461821.589774993888568, 190221.514695178542752 ], [ 461819.589774993888568, 190224.014695178542752 ], [ 461817.589774993888568, 190224.014695178542752 ], [ 461816.089774993888568, 190225.514695178542752 ], [ 461809.589774993888568, 190226.014695178542752 ], [ 461807.589774993888568, 190227.514695178542752 ], [ 461807.589774993888568, 190231.014695178542752 ], [ 461814.089774993888568, 190231.014695178542752 ], [ 461814.089774993888568, 190232.014695178542752 ], [ 461816.589774993888568, 190234.014695178542752 ], [ 461819.589774993888568, 190231.014695178542752 ], [ 461822.089774993888568, 190231.014695178542752 ], [ 461824.089774993888568, 190234.014695178542752 ], [ 461827.589774993888568, 190235.514695178542752 ], [ 461834.589774993888568, 190234.014695178542752 ], [ 461836.589774993888568, 190236.014695178542752 ], [ 461839.089774993888568, 190236.014695178542752 ], [ 461840.089774993888568, 190234.514695178542752 ], [ 461843.589774993888568, 190234.014695178542752 ], [ 461844.589774993888568, 190232.014695178542752 ], [ 461848.089774993888568, 190232.014695178542752 ], [ 461849.089774993888568, 190233.514695178542752 ], [ 461851.089774993888568, 190233.014695178542752 ], [ 461855.089774993888568, 190238.014695178542752 ], [ 461859.089774993888568, 190238.014695178542752 ], [ 461860.089774993888568, 190240.014695178542752 ], [ 461861.589774993888568, 190240.014695178542752 ], [ 461864.089774993888568, 190243.014695178542752 ], [ 461871.589774993888568, 190244.014695178542752 ], [ 461872.589774993888568, 190246.514695178542752 ], [ 461874.589774993888568, 190247.514695178542752 ] ] ] } },
{ "type": "Feature", "properties": { "mainhabs": "Good quality semi improved grassland", "habcodes": "GQSIG", "featdesc": null, "featcodes": null, "otherclass": null, "addhabs": null, "primsource": "Feedback from Natural England adviser or specialist 2023 (GQSIG)", "areaha": "0.63", "version": "Sep_25", "uid": "PHID46166897_019005795", "shape_length": null, "shape_area": null, "site": "hrwallingford", "pid": 2, "method": "grabcut2" }, "geometry": { "type": "Polygon", "coordinates": [ [ [ 461671.089774993888568, 190109.014695178542752 ], [ 461680.589774993888568, 190109.014695178542752 ], [ 461683.589774993888568, 190106.014695178542752 ], [ 461686.089774993888568, 190106.014695178542752 ], [ 461686.589774993888568, 190105.014695178542752 ], [ 461691.089774993888568, 190104.514695178542752 ], [ 461692.089774993888568, 190103.014695178542752 ], [ 461695.589774993888568, 190102.514695178542752 ], [ 461698.589774993888568, 190099.014695178542752 ], [ 461701.589774993888568, 190099.014695178542752 ], [ 461701.589774993888568, 190098.014695178542752 ], [ 461704.589774993888568, 190096.514695178542752 ], [ 461704.589774993888568, 190095.514695178542752 ], [ 461707.089774993888568, 190094.514695178542752 ], [ 461719.589774993888568, 190093.514695178542752 ], [ 461719.589774993888568, 190092.514695178542752 ], [ 461725.089774993888568, 190091.014695178542752 ], [ 461726.589774993888568, 190089.014695178542752 ], [ 461730.589774993888568, 190088.514695178542752 ], [ 461731.089774993888568, 190086.514695178542752 ], [ 461733.089774993888568, 190085.514695178542752 ], [ 461730.089774993888568, 190085.014695178542752 ], [ 461726.089774993888568, 190068.014695178542752 ], [ 461723.089774993888568, 190060.014695178542752 ], [ 461722.089774993888568, 190053.514695178542752 ], [ 461721.089774993888568, 190052.514695178542752 ], [ 461720.089774993888568, 190046.514695178542752 ], [ 461718.589774993888568, 190044.514695178542752 ], [ 461717.589774993888568, 190038.514695178542752 ], [ 461715.589774993888568, 190034.014695178542752 ], [ 461715.589774993888568, 190032.514695178542752 ], [ 461718.089774993888568, 190030.014695178542752 ], [ 461721.589774993888568, 190029.514695178542752 ], [ 461721.089774993888568, 190028.014695178542752 ], [ 461720.089774993888568, 190028.014695178542752 ], [ 461716.589774993888568, 190024.014695178542752 ], [ 461713.589774993888568, 190022.514695178542752 ], [ 461706.089774993888568, 190022.514695178542752 ], [ 461705.089774993888568, 190023.514695178542752 ], [ 461699.589774993888568, 190024.014695178542752 ], [ 461699.089774993888568, 190025.014695178542752 ], [ 461694.589774993888568, 190025.014695178542752 ], [ 461690.089774993888568, 190028.014695178542752 ], [ 461690.089774993888568, 190029.014695178542752 ], [ 461689.089774993888568, 190029.014695178542752 ], [ 461689.089774993888568, 190030.014695178542752 ], [ 461688.089774993888568, 190030.014695178542752 ], [ 461686.089774993888568, 190032.514695178542752 ], [ 461681.589774993888568, 190033.014695178542752 ], [ 461678.589774993888568, 190037.014695178542752 ], [ 461668.589774993888568, 190036.514695178542752 ], [ 461665.589774993888568, 190039.514695178542752 ], [ 461664.589774993888568, 190043.514695178542752 ], [ 461663.089774993888568, 190045.514695178542752 ], [ 461659.589774993888568, 190046.514695178542752 ], [ 461659.589774993888568, 190047.514695178542752 ], [ 461656.589774993888568, 190048.514695178542752 ], [ 461654.589774993888568, 190051.014695178542752 ], [ 461645.589774993888568, 190054.514695178542752 ], [ 461638.089774993888568, 190060.514695178542752 ], [ 461638.089774993888568, 190070.514695178542752 ], [ 461643.589774993888568, 190075.014695178542752 ], [ 461653.089774993888568, 190075.014695178542752 ], [ 461657.589774993888568, 190079.514695178542752 ], [ 461658.589774993888568, 190084.514695178542752 ], [ 461659.589774993888568, 190084.514695178542752 ], [ 461662.589774993888568, 190091.514695178542752 ], [ 461662.589774993888568, 190098.014695178542752 ], [ 461663.589774993888568, 190099.014695178542752 ], [ 461663.589774993888568, 190101.014695178542752 ], [ 461664.589774993888568, 190101.014695178542752 ], [ 461664.589774993888568, 190102.514695178542752 ], [ 461671.089774993888568, 190109.014695178542752 ] ] ] } },
{ "type": "Feature", "properties": { "mainhabs": "Good quality semi improved grassland", "habcodes": "GQSIG", "featdesc": null, "featcodes": null, "otherclass": null, "addhabs": null, "primsource": "Feedback from Natural England adviser or specialist 2023 (GQSIG)", "areaha": "0.52", "version": "Sep_25", "uid": "PHID46176536_019004125", "shape_length": null, "shape_area": null, "site": "hrwallingford", "pid": 3, "method": "grabcut2" }, "geometry": { "type": "Polygon", "coordinates": [ [ [ 461730.089774993888568, 190085.014695178542752 ], [ 461734.089774993888568, 190084.514695178542752 ], [ 461736.089774993888568, 190081.014695178542752 ], [ 461744.589774993888568, 190080.514695178542752 ], [ 461746.589774993888568, 190077.514695178542752 ], [ 461752.589774993888568, 190077.014695178542752 ], [ 461754.589774993888568, 190074.014695178542752 ], [ 461757.589774993888568, 190073.014695178542752 ], [ 461757.589774993888568, 190072.014695178542752 ], [ 461763.589774993888568, 190071.514695178542752 ], [ 461767.089774993888568, 190069.014695178542752 ], [ 461783.589774993888568, 190068.514695178542752 ], [ 461786.589774993888568, 190065.514695178542752 ], [ 461788.089774993888568, 190065.514695178542752 ], [ 461801.589774993888568, 190052.014695178542752 ], [ 461801.589774993888568, 190047.014695178542752 ], [ 461802.589774993888568, 190046.514695178542752 ], [ 461802.589774993888568, 190044.514695178542752 ], [ 461803.589774993888568, 190044.514695178542752 ], [ 461803.589774993888568, 190030.014695178542752 ], [ 461800.589774993888568, 190026.014695178542752 ], [ 461799.589774993888568, 190026.014695178542752 ], [ 461799.589774993888568, 190025.014695178542752 ], [ 461798.589774993888568, 190025.014695178542752 ], [ 461798.589774993888568, 190024.014695178542752 ], [ 461797.589774993888568, 190024.014695178542752 ], [ 461797.589774993888568, 190023.014695178542752 ], [ 461796.589774993888568, 190023.014695178542752 ], [ 461796.589774993888568, 190022.014695178542752 ], [ 461795.589774993888568, 190022.014695178542752 ], [ 461795.589774993888568, 190021.014695178542752 ], [ 461794.589774993888568, 190021.014695178542752 ], [ 461794.589774993888568, 190020.014695178542752 ], [ 461793.589774993888568, 190020.014695178542752 ], [ 461793.589774993888568, 190019.014695178542752 ], [ 461792.589774993888568, 190019.014695178542752 ], [ 461792.589774993888568, 190018.014695178542752 ], [ 461791.589774993888568, 190018.014695178542752 ], [ 461791.589774993888568, 190017.014695178542752 ], [ 461790.589774993888568, 190017.014695178542752 ], [ 461790.589774993888568, 190016.014695178542752 ], [ 461789.589774993888568, 190016.014695178542752 ], [ 461789.589774993888568, 190015.014695178542752 ], [ 461787.589774993888568, 190013.514695178542752 ], [ 461787.589774993888568, 190012.514695178542752 ], [ 461786.589774993888568, 190012.514695178542752 ], [ 461786.589774993888568, 190011.514695178542752 ], [ 461785.589774993888568, 190011.514695178542752 ], [ 461784.589774993888568, 190009.514695178542752 ], [ 461782.089774993888568, 190009.514695178542752 ], [ 461775.589774993888568, 190012.014695178542752 ], [ 461773.089774993888568, 190011.514695178542752 ], [ 461770.089774993888568, 190015.014695178542752 ], [ 461761.589774993888568, 190017.014695178542752 ], [ 461761.589774993888568, 190018.014695178542752 ], [ 461756.089774993888568, 190020.014695178542752 ], [ 461755.589774993888568, 190021.014695178542752 ], [ 461753.089774993888568, 190021.014695178542752 ], [ 461745.589774993888568, 190024.014695178542752 ], [ 461745.589774993888568, 190025.014695178542752 ], [ 461744.089774993888568, 190025.014695178542752 ], [ 461743.589774993888568, 190026.014695178542752 ], [ 461740.589774993888568, 190026.014695178542752 ], [ 461740.089774993888568, 190027.014695178542752 ], [ 461738.089774993888568, 190027.014695178542752 ], [ 461737.089774993888568, 190028.014695178542752 ], [ 461732.589774993888568, 190027.014695178542752 ], [ 461732.089774993888568, 190028.014695178542752 ], [ 461724.089774993888568, 190028.014695178542752 ], [ 461721.089774993888568, 190030.014695178542752 ], [ 461718.089774993888568, 190030.014695178542752 ], [ 461715.589774993888568, 190032.514695178542752 ], [ 461728.589774993888568, 190077.014695178542752 ], [ 461730.089774993888568, 190085.014695178542752 ] ] ] } }
]
}
