{
"type": "FeatureCollection",
"crs": { "type": "name", "properties": { "name": "urn:ogc:def:crs:EPSG::27700" } },
"features": [
{ "type": "Feature", "properties": { "mainhabs": "Deciduous woodland", "habcodes": "DWOOD", "featdesc": null, "featcodes": null, "otherclass": null, "addhabs": null, "primsource": "National Forest Inventory 2023 (DWOOD)", "areaha": "3.04", "version": "Sep_25", "uid": "PHID46138566_019003773", "shape_length": null, "shape_area": null, "site": "hrwallingford", "pid": 0, "method": "sam2" }, "geometry": { "type": "Polygon", "coordinates": [ [ [ 461395.089774993888568, 190253.514695178542752 ], [ 461397.089774993888568, 190252.014695178542752 ], [ 461398.589774993888568, 190252.514695178542752 ], [ 461400.089774993888568, 190250.514695178542752 ], [ 461402.089774993888568, 190251.014695178542752 ], [ 461402.589774993888568, 190252.014695178542752 ], [ 461405.089774993888568, 190251.514695178542752 ], [ 461407.589774993888568, 190249.014695178542752 ], [ 461410.089774993888568, 190250.014695178542752 ], [ 461411.589774993888568, 190249.014695178542752 ], [ 461414.589774993888568, 190251.014695178542752 ], [ 461415.589774993888568, 190253.014695178542752 ], [ 461416.589774993888568, 190253.014695178542752 ], [ 461417.589774993888568, 190251.514695178542752 ], [ 461415.089774993888568, 190250.014695178542752 ], [ 461415.089774993888568, 190249.014695178542752 ], [ 461416.589774993888568, 190246.514695178542752 ], [ 461418.089774993888568, 190247.014695178542752 ], [ 461418.589774993888568, 190249.514695178542752 ], [ 461417.589774993888568, 190250.514695178542752 ], [ 461418.589774993888568, 190250.514695178542752 ], [ 461418.589774993888568, 190251.514695178542752 ], [ 461420.589774993888568, 190250.514695178542752 ], [ 461421.589774993888568, 190248.514695178542752 ], [ 461424.589774993888568, 190250.514695178542752 ], [ 461427.089774993888568, 190246.514695178542752 ], [ 461428.589774993888568, 190247.514695178542752 ], [ 461429.089774993888568, 190246.514695178542752 ], [ 461431.089774993888568, 190246.514695178542752 ], [ 461433.089774993888568, 190243.014695178542752 ], [ 461434.089774993888568, 190243.014695178542752 ], [ 461434.089774993888568, 190242.014695178542752 ], [ 461437.089774993888568, 190239.514695178542752 ], [ 461437.089774993888568, 190238.014695178542752 ], [ 461439.089774993888568, 190237.014695178542752 ], [ 461439.089774993888568, 190235.014695178542752 ], [ 461437.589774993888568, 190235.014695178542752 ], [ 461437.089774993888568, 190233.014695178542752 ], [ 461435.089774993888568, 190232.014695178542752 ], [ 461434.089774993888568, 190223.014695178542752 ], [ 461431.089774993888568, 190222.514695178542752 ], [ 461429.589774993888568, 190221.014695178542752 ], [ 461430.589774993888568, 190216.514695178542752 ], [ 461429.089774993888568, 190215.014695178542752 ], [ 461430.589774993888568, 190214.014695178542752 ], [ 461431.089774993888568, 190211.514695178542752 ], [ 461430.089774993888568, 190209.014695178542752 ], [ 461430.589774993888568, 190203.514695178542752 ], [ 461429.089774993888568, 190202.514695178542752 ], [ 461428.089774993888568, 190200.014695178542752 ], [ 461427.089774993888568, 190200.014695178542752 ], [ 461428.089774993888568, 190195.014695178542752 ], [ 461427.089774993888568, 190194.014695178542752 ], [ 461427.089774993888568, 190190.514695178542752 ], [ 461430.089774993888568, 190187.514695178542752 ], [ 461430.089774993888568, 190184.014695178542752 ], [ 461427.089774993888568, 190185.014695178542752 ], [ 461427.089774993888568, 190184.014695178542752 ], [ 461425.589774993888568, 190184.514695178542752 ], [ 461424.589774993888568, 190183.014695178542752 ], [ 461427.089774993888568, 190182.014695178542752 ], [ 461427.089774993888568, 190183.014695178542752 ], [ 461430.089774993888568, 190183.014695178542752 ], [ 461430.089774993888568, 190180.014695178542752 ], [ 461424.589774993888568, 190177.514695178542752 ], [ 461424.089774993888568, 190178.514695178542752 ], [ 461422.589774993888568, 190178.014695178542752 ], [ 461419.089774993888568, 190181.014695178542752 ], [ 461418.089774993888568, 190177.014695178542752 ], [ 461419.589774993888568, 190174.514695178542752 ], [ 461421.589774993888568, 190175.514695178542752 ], [ 461421.589774993888568, 190174.514695178542752 ], [ 461423.589774993888568, 190174.514695178542752 ], [ 461423.589774993888568, 190173.514695178542752 ], [ 461424.589774993888568, 190174.514695178542752 ], [ 461426.089774993888568, 190174.014695178542752 ], [ 461425.589774993888568, 190169.014695178542752 ], [ 461422.589774993888568, 190167.514695178542752 ], [ 461422.589774993888568, 190159.514695178542752 ], [ 461428.589774993888568, 190153.014695178542752 ], [ 461429.089774993888568, 190149.014695178542752 ], [ 461430.589774993888568, 190149.514695178542752 ], [ 461431.089774993888568, 190153.014695178542752 ], [ 461432.589774993888568, 190153.514695178542752 ], [ 461433.089774993888568, 190152.014695178542752 ], [ 461435.589774993888568, 190152.014695178542752 ], [ 461438.089774993888568, 190150.014695178542752 ], [ 461441.589774993888568, 190150.014695178542752 ], [ 461442.089774993888568, 190149.014695178542752 ], [ 461445.589774993888568, 190149.514695178542752 ], [ 461450.089774993888568, 190144.514695178542752 ], [ 461451.589774993888568, 190146.514695178542752 ], [ 461453.589774993888568, 190146.014695178542752 ], [ 461453.589774993888568, 190144.014695178542752 ], [ 461454.589774993888568, 190143.014695178542752 ], [ 461456.589774993888568, 190144.014695178542752 ], [ 461459.589774993888568, 190142.014695178542752 ], [ 461459.589774993888568, 190140.014695178542752 ], [ 461460.589774993888568, 190140.514695178542752 ], [ 461460.589774993888568, 190142.514695178542752 ], [ 461462.089774993888568, 190143.014695178542752 ], [ 461463.589774993888568, 190142.014695178542752 ], [ 461463.089774993888568, 190140.014695178542752 ], [ 461464.589774993888568, 190139.514695178542752 ], [ 461466.089774993888568, 190143.014695178542752 ], [ 461469.089774993888568, 190139.014695178542752 ], [ 461468.589774993888568, 190134.514695178542752 ], [ 461466.589774993888568, 190133.514695178542752 ], [ 461466.589774993888568, 190131.514695178542752 ], [ 461465.589774993888568, 190130.514695178542752 ], [ 461460.589774993888568, 190130.514695178542752 ], [ 461456.589774993888568, 190127.514695178542752 ], [ 461455.089774993888568, 190128.014695178542752 ], [ 461455.089774993888568, 190129.514695178542752 ], [ 461454.089774993888568, 190130.014695178542752 ], [ 461452.589774993888568, 190129.014695178542752 ], [ 461453.089774993888568, 190125.514695178542752 ], [ 461451.589774993888568, 190124.514695178542752 ], [ 461451.589774993888568, 190120.014695178542752 ], [ 461452.589774993888568, 190117.514695178542752 ], [ 461458.589774993888568, 190108.514695178542752 ], [ 461458.589774993888568, 190107.014695178542752 ], [ 461459.589774993888568, 190107.014695178542752 ], [ 461461.589774993888568, 190102.014695178542752 ], [ 461462.589774993888568, 190102.014695178542752 ], [ 461459.589774993888568, 190087.514695178542752 ], [ 461458.589774993888568, 190087.014695178542752 ], [ 461458.589774993888568, 190085.514695178542752 ], [ 461454.589774993888568, 190079.514695178542752 ], [ 461452.589774993888568, 190074.514695178542752 ], [ 461454.089774993888568, 190073.014695178542752 ], [ 461459.089774993888568, 190071.014695178542752 ], [ 461459.589774993888568, 190073.014695178542752 ], [ 461460.589774993888568, 190073.514695178542752 ], [ 461459.589774993888568, 190075.014695178542752 ], [ 461462.089774993888568, 190076.514695178542752 ], [ 461461.589774993888568, 190078.514695178542752 ], [ 461459.589774993888568, 190080.014695178542752 ], [ 461459.589774993888568, 190082.014695178542752 ], [ 461462.589774993888568, 190082.514695178542752 ], [ 461463.589774993888568, 190081.514695178542752 ], [ 461462.589774993888568, 190077.514695178542752 ], [ 461465.589774993888568, 190076.014695178542752 ], [ 461465.589774993888568, 190070.514695178542752 ], [ 461464.089774993888568, 190067.514695178542752 ], [ 461462.589774993888568, 190067.514695178542752 ], [ 461461.589774993888568, 190066.014695178542752 ], [ 461459.589774993888568, 190065.514695178542752 ], [ 461459.589774993888568, 190064.014695178542752 ], [ 461461.089774993888568, 190063.514695178542752 ], [ 461462.089774993888568, 190064.514695178542752 ], [ 461463.589774993888568, 190062.514695178542752 ], [ 461464.089774993888568, 190052.014695178542752 ], [ 461462.589774993888568, 190047.514695178542752 ], [ 461463.589774993888568, 190047.514695178542752 ], [ 461464.089774993888568, 190045.514695178542752 ], [ 461460.089774993888568, 190040.514695178542752 ], [ 461456.589774993888568, 190040.514695178542752 ], [ 461456.089774993888568, 190036.514695178542752 ], [ 461450.589774993888568, 190036.514695178542752 ], [ 461448.089774993888568, 190033.514695178542752 ], [ 461450.089774993888568, 190030.014695178542752 ], [ 461450.089774993888568, 190026.514695178542752 ], [ 461452.089774993888568, 190024.514695178542752 ], [ 461452.089774993888568, 190023.014695178542752 ], [ 461450.589774993888568, 190022.014695178542752 ], [ 461450.089774993888568, 190020.014695178542752 ], [ 461446.089774993888568, 190020.014695178542752 ], [ 461446.089774993888568, 190019.014695178542752 ], [ 461443.589774993888568, 190018.514695178542752 ], [ 461442.589774993888568, 190020.514695178542752 ], [ 461441.089774993888568, 190020.014695178542752 ], [ 461441.089774993888568, 190021.014695178542752 ], [ 461439.089774993888568, 190021.014695178542752 ], [ 461438.089774993888568, 190022.514695178542752 ], [ 461437.089774993888568, 190022.014695178542752 ], [ 461436.589774993888568, 190023.014695178542752 ], [ 461435.089774993888568, 190023.014695178542752 ], [ 461435.089774993888568, 190024.014695178542752 ], [ 461433.089774993888568, 190024.014695178542752 ], [ 461433.089774993888568, 190023.014695178542752 ], [ 461429.589774993888568, 190019.514695178542752 ], [ 461430.089774993888568, 190018.014695178542752 ], [ 461431.089774993888568, 190018.514695178542752 ], [ 461433.089774993888568, 190016.514695178542752 ], [ 461435.589774993888568, 190012.514695178542752 ], [ 461437.089774993888568, 190012.014695178542752 ], [ 461440.089774993888568, 190004.514695178542752 ], [ 461444.089774993888568, 190004.514695178542752 ], [ 461446.089774993888568, 190003.514695178542752 ], [ 461446.089774993888568, 190002.514695178542752 ], [ 461448.589774993888568, 190002.514695178542752 ], [ 461449.589774993888568, 190000.014695178542752 ], [ 461451.089774993888568, 189999.014695178542752 ], [ 461450.589774993888568, 189997.514695178542752 ], [ 461451.589774993888568, 189997.014695178542752 ], [ 461450.589774993888568, 189995.014695178542752 ], [ 461450.589774993888568, 189991.014695178542752 ], [ 461446.089774993888568, 189983.014695178542752 ], [ 461444.089774993888568, 189982.514695178542752 ], [ 461443.589774993888568, 189981.514695178542752 ], [ 461442.089774993888568, 189982.014695178542752 ], [ 461442.089774993888568, 189981.014695178542752 ], [ 461440.589774993888568, 189982.014695178542752 ], [ 461438.589774993888568, 189981.514695178542752 ], [ 461439.589774993888568, 189978.014695178542752 ], [ 461436.089774993888568, 189971.514695178542752 ], [ 461436.089774993888568, 189969.014695178542752 ], [ 461438.089774993888568, 189967.514695178542752 ], [ 461438.089774993888568, 189963.514695178542752 ], [ 461435.589774993888568, 189960.514695178542752 ], [ 461434.089774993888568, 189960.514695178542752 ], [ 461434.089774993888568, 189959.514695178542752 ], [ 461431.589774993888568, 189959.514695178542752 ], [ 461430.089774993888568, 189958.514695178542752 ], [ 461428.089774993888568, 189951.014695178542752 ], [ 461425.089774993888568, 189948.014695178542752 ], [ 461423.589774993888568, 189948.014695178542752 ], [ 461423.089774993888568, 189947.014695178542752 ], [ 461416.589774993888568, 189947.014695178542752 ], [ 461411.589774993888568, 189946.014695178542752 ], [ 461411.089774993888568, 189945.014695178542752 ], [ 461407.589774993888568, 189945.014695178542752 ], [ 461407.589774993888568, 189944.014695178542752 ], [ 461405.089774993888568, 189944.014695178542752 ], [ 461405.089774993888568, 189943.014695178542752 ], [ 461404.089774993888568, 189943.014695178542752 ], [ 461400.589774993888568, 189939.014695178542752 ], [ 461395.089774993888568, 189939.014695178542752 ], [ 461394.089774993888568, 189938.014695178542752 ], [ 461394.089774993888568, 189939.014695178542752 ], [ 461393.089774993888568, 189939.014695178542752 ], [ 461392.589774993888568, 189938.014695178542752 ], [ 461387.089774993888568, 189936.014695178542752 ], [ 461382.589774993888568, 189935.514695178542752 ], [ 461382.089774993888568, 189934.514695178542752 ], [ 461378.589774993888568, 189935.014695178542752 ], [ 461377.589774993888568, 189934.014695178542752 ], [ 461377.589774993888568, 189935.014695178542752 ], [ 461376.089774993888568, 189935.014695178542752 ], [ 461374.589774993888568, 189932.014695178542752 ], [ 461374.589774993888568, 189925.014695178542752 ], [ 461370.589774993888568, 189922.514695178542752 ], [ 461368.589774993888568, 189923.014695178542752 ], [ 461366.089774993888568, 189922.014695178542752 ], [ 461361.089774993888568, 189922.014695178542752 ], [ 461358.089774993888568, 189924.514695178542752 ], [ 461356.589774993888568, 189923.514695178542752 ], [ 461354.089774993888568, 189924.014695178542752 ], [ 461351.089774993888568, 189922.514695178542752 ], [ 461351.089774993888568, 189923.514695178542752 ], [ 461348.089774993888568, 189924.514695178542752 ], [ 461347.089774993888568, 189923.514695178542752 ], [ 461347.089774993888568, 189919.514695178542752 ], [ 461346.089774993888568, 189917.514695178542752 ], [ 461343.089774993888568, 189916.514695178542752 ], [ 461342.589774993888568, 189915.514695178542752 ], [ 461340.589774993888568, 189915.514695178542752 ], [ 461340.589774993888568, 189916.514695178542752 ], [ 461338.589774993888568, 189916.514695178542752 ], [ 461338.089774993888568, 189917.514695178542752 ], [ 461334.589774993888568, 189918.514695178542752 ], [ 461334.589774993888568, 189919.514695178542752 ], [ 461329.589774993888568, 189919.514695178542752 ], [ 461328.089774993888568, 189917.514695178542752 ], [ 461325.589774993888568, 189918.014695178542752 ], [ 461324.589774993888568, 189916.514695178542752 ], [ 461321.089774993888568, 189916.514695178542752 ], [ 461321.089774993888568, 189915.514695178542752 ], [ 461319.089774993888568, 189915.014695178542752 ], [ 461314.089774993888568, 189916.014695178542752 ], [ 461312.089774993888568, 189914.514695178542752 ], [ 461312.089774993888568, 189913.514695178542752 ], [ 461311.089774993888568, 189913.514695178542752 ], [ 461311.089774993888568, 189912.514695178542752 ], [ 461310.089774993888568, 189912.514695178542752 ], [ 461310.089774993888568, 189911.014695178542752 ], [ 461308.589774993888568, 189909.514695178542752 ], [ 461307.089774993888568, 189909.514695178542752 ], [ 461304.089774993888568, 189906.014695178542752 ], [ 461301.089774993888568, 189905.014695178542752 ], [ 461301.089774993888568, 189904.014695178542752 ], [ 461291.589774993888568, 189903.514695178542752 ], [ 461289.589774993888568, 189905.014695178542752 ], [ 461289.589774993888568, 189920.514695178542752 ], [ 461293.089774993888568, 189924.514695178542752 ], [ 461293.589774993888568, 189927.514695178542752 ], [ 461294.589774993888568, 189928.014695178542752 ], [ 461296.589774993888568, 189936.514695178542752 ], [ 461297.589774993888568, 189937.514695178542752 ], [ 461297.589774993888568, 189941.514695178542752 ], [ 461298.589774993888568, 189944.014695178542752 ], [ 461301.089774993888568, 189945.014695178542752 ], [ 461302.589774993888568, 189948.014695178542752 ], [ 461305.089774993888568, 189950.014695178542752 ], [ 461305.089774993888568, 189959.514695178542752 ], [ 461303.589774993888568, 189961.514695178542752 ], [ 461303.089774993888568, 189966.014695178542752 ], [ 461307.089774993888568, 189976.014695178542752 ], [ 461311.089774993888568, 189978.514695178542752 ], [ 461313.089774993888568, 189982.014695178542752 ], [ 461312.589774993888568, 189994.514695178542752 ], [ 461314.089774993888568, 189998.514695178542752 ], [ 461317.089774993888568, 190002.014695178542752 ], [ 461318.089774993888568, 190007.514695178542752 ], [ 461319.089774993888568, 190008.514695178542752 ], [ 461319.089774993888568, 190012.014695178542752 ], [ 461320.089774993888568, 190012.514695178542752 ], [ 461321.089774993888568, 190022.514695178542752 ], [ 461322.589774993888568, 190024.514695178542752 ], [ 461323.589774993888568, 190039.514695178542752 ], [ 461326.589774993888568, 190041.514695178542752 ], [ 461326.589774993888568, 190045.514695178542752 ], [ 461327.589774993888568, 190048.014695178542752 ], [ 461329.589774993888568, 190049.014695178542752 ], [ 461330.589774993888568, 190051.014695178542752 ], [ 461331.589774993888568, 190057.014695178542752 ], [ 461333.089774993888568, 190057.014695178542752 ], [ 461334.589774993888568, 190059.014695178542752 ], [ 461335.589774993888568, 190065.014695178542752 ], [ 461336.589774993888568, 190065.514695178542752 ], [ 461335.589774993888568, 190067.014695178542752 ], [ 461337.589774993888568, 190068.514695178542752 ], [ 461339.589774993888568, 190075.014695178542752 ], [ 461343.089774993888568, 190077.514695178542752 ], [ 461343.089774993888568, 190079.514695178542752 ], [ 461345.089774993888568, 190081.014695178542752 ], [ 461344.089774993888568, 190083.514695178542752 ], [ 461345.089774993888568, 190083.514695178542752 ], [ 461345.589774993888568, 190085.514695178542752 ], [ 461346.589774993888568, 190086.014695178542752 ], [ 461346.089774993888568, 190087.514695178542752 ], [ 461347.089774993888568, 190088.014695178542752 ], [ 461348.089774993888568, 190094.014695178542752 ], [ 461350.589774993888568, 190095.514695178542752 ], [ 461352.089774993888568, 190103.014695178542752 ], [ 461354.089774993888568, 190103.514695178542752 ], [ 461356.089774993888568, 190108.014695178542752 ], [ 461360.089774993888568, 190111.014695178542752 ], [ 461360.089774993888568, 190117.014695178542752 ], [ 461361.089774993888568, 190118.014695178542752 ], [ 461361.089774993888568, 190121.514695178542752 ], [ 461362.589774993888568, 190124.514695178542752 ], [ 461362.089774993888568, 190129.514695178542752 ], [ 461363.089774993888568, 190129.514695178542752 ], [ 461363.089774993888568, 190131.514695178542752 ], [ 461365.589774993888568, 190135.514695178542752 ], [ 461366.589774993888568, 190139.514695178542752 ], [ 461372.089774993888568, 190140.514695178542752 ], [ 461373.589774993888568, 190139.014695178542752 ], [ 461375.089774993888568, 190139.514695178542752 ], [ 461377.089774993888568, 190145.014695178542752 ], [ 461378.589774993888568, 190143.014695178542752 ], [ 461379.589774993888568, 190143.014695178542752 ], [ 461379.589774993888568, 190141.014695178542752 ], [ 461377.589774993888568, 190141.014695178542752 ], [ 461377.589774993888568, 190140.014695178542752 ], [ 461376.589774993888568, 190140.014695178542752 ], [ 461375.589774993888568, 190137.514695178542752 ], [ 461376.089774993888568, 190136.514695178542752 ], [ 461381.089774993888568, 190136.514695178542752 ], [ 461381.589774993888568, 190138.514695178542752 ], [ 461383.589774993888568, 190138.514695178542752 ], [ 461384.589774993888568, 190137.014695178542752 ], [ 461386.089774993888568, 190138.514695178542752 ], [ 461386.089774993888568, 190140.014695178542752 ], [ 461388.089774993888568, 190140.014695178542752 ], [ 461388.589774993888568, 190141.014695178542752 ], [ 461389.089774993888568, 190143.514695178542752 ], [ 461383.589774993888568, 190147.514695178542752 ], [ 461381.589774993888568, 190148.014695178542752 ], [ 461381.089774993888568, 190151.014695178542752 ], [ 461379.589774993888568, 190150.014695178542752 ], [ 461377.089774993888568, 190153.014695178542752 ], [ 461375.089774993888568, 190151.514695178542752 ], [ 461373.089774993888568, 190153.014695178542752 ], [ 461371.089774993888568, 190152.514695178542752 ], [ 461370.089774993888568, 190155.014695178542752 ], [ 461371.589774993888568, 190156.014695178542752 ], [ 461370.589774993888568, 190158.514695178542752 ], [ 461372.089774993888568, 190160.514695178542752 ], [ 461371.089774993888568, 190162.014695178542752 ], [ 461371.589774993888568, 190167.014695178542752 ], [ 461374.089774993888568, 190170.514695178542752 ], [ 461373.089774993888568, 190171.514695178542752 ], [ 461373.089774993888568, 190173.014695178542752 ], [ 461374.089774993888568, 190173.514695178542752 ], [ 461373.589774993888568, 190176.514695178542752 ], [ 461371.589774993888568, 190178.014695178542752 ], [ 461371.589774993888568, 190180.014695178542752 ], [ 461374.589774993888568, 190183.014695178542752 ], [ 461373.589774993888568, 190185.014695178542752 ], [ 461375.089774993888568, 190186.014695178542752 ], [ 461375.589774993888568, 190192.014695178542752 ], [ 461376.589774993888568, 190194.014695178542752 ], [ 461379.089774993888568, 190195.014695178542752 ], [ 461377.089774993888568, 190197.014695178542752 ], [ 461377.589774993888568, 190202.514695178542752 ], [ 461379.089774993888568, 190204.014695178542752 ], [ 461378.589774993888568, 190205.514695178542752 ], [ 461380.089774993888568, 190207.514695178542752 ], [ 461382.589774993888568, 190207.514695178542752 ], [ 461382.589774993888568, 190206.514695178542752 ], [ 461383.589774993888568, 190206.514695178542752 ], [ 461384.089774993888568, 190207.514695178542752 ], [ 461386.589774993888568, 190207.514695178542752 ], [ 461387.589774993888568, 190206.514695178542752 ], [ 461389.089774993888568, 190208.514695178542752 ], [ 461390.589774993888568, 190208.514695178542752 ], [ 461392.089774993888568, 190210.014695178542752 ], [ 461392.089774993888568, 190212.514695178542752 ], [ 461394.089774993888568, 190213.014695178542752 ], [ 461394.089774993888568, 190215.514695178542752 ], [ 461389.589774993888568, 190215.514695178542752 ], [ 461388.589774993888568, 190217.014695178542752 ], [ 461389.589774993888568, 190220.514695178542752 ], [ 461390.589774993888568, 190219.514695178542752 ], [ 461393.589774993888568, 190219.514695178542752 ], [ 461394.089774993888568, 190220.514695178542752 ], [ 461392.589774993888568, 190224.014695178542752 ], [ 461391.589774993888568, 190222.514695178542752 ], [ 461390.089774993888568, 190223.014695178542752 ], [ 461390.589774993888568, 190225.014695178542752 ], [ 461393.089774993888568, 190225.014695178542752 ], [ 461393.589774993888568, 190228.014695178542752 ], [ 461390.089774993888568, 190229.014695178542752 ], [ 461388.589774993888568, 190233.014695178542752 ], [ 461390.089774993888568, 190237.014695178542752 ], [ 461389.589774993888568, 190239.514695178542752 ], [ 461390.589774993888568, 190240.014695178542752 ], [ 461390.089774993888568, 190243.014695178542752 ], [ 461392.589774993888568, 190247.014695178542752 ], [ 461392.089774993888568, 190250.014695178542752 ], [ 461395.089774993888568, 190253.514695178542752 ] ], [ [ 461400.089774993888568, 190161.014695178542752 ], [ 461399.089774993888568, 190160.014695178542752 ], [ 461399.089774993888568, 190153.014695178542752 ], [ 461400.089774993888568, 190150.514695178542752 ], [ 461401.589774993888568, 190149.514695178542752 ], [ 461404.089774993888568, 190152.514695178542752 ], [ 461404.089774993888568, 190157.014695178542752 ], [ 461403.089774993888568, 190157.014695178542752 ], [ 461403.089774993888568, 190159.014695178542752 ], [ 461401.589774993888568, 190160.514695178542752 ], [ 461400.089774993888568, 190161.014695178542752 ] ] ] } },
{ "type": "Feature", "properties": { "mainhabs": "Deciduous woodland", "habcodes": "DWOOD", "featdesc": null, "featcodes": null, "otherclass": null, "addhabs": null, "primsource": "National Forest Inventory 2023 (DWOOD)", "areaha": "0.58", "version": "Sep_25", "uid": "PHID46191002_019019464", "shape_length": null, "shape_area": null, "site": "hrwallingford", "pid": 1, "method": "sam2" }, "geometry": { "type": "Polygon", "coordinates": [ [ [ 461885.089774993888568, 190247.514695178542752 ], [ 461889.589774993888568, 190247.014695178542752 ], [ 461890.589774993888568, 190245.514695178542752 ], [ 461891.089774993888568, 190246.514695178542752 ], [ 461897.089774993888568, 190246.514695178542752 ], [ 461897.089774993888568, 190245.514695178542752 ], [ 461898.589774993888568, 190246.014695178542752 ], [ 461901.089774993888568, 190245.014695178542752 ], [ 461902.089774993888568, 190246.014695178542752 ], [ 461906.089774993888568, 190244.514695178542752 ], [ 461906.089774993888568, 190245.514695178542752 ], [ 461912.089774993888568, 190245.514695178542752 ], [ 461915.589774993888568, 190242.514695178542752 ], [ 461917.589774993888568, 190242.514695178542752 ], [ 461918.589774993888568, 190244.014695178542752 ], [ 461920.589774993888568, 190243.014695178542752 ], [ 461920.589774993888568, 190244.014695178542752 ], [ 461924.089774993888568, 190244.014695178542752 ], [ 461925.589774993888568, 190242.014695178542752 ], [ 461928.089774993888568, 190242.514695178542752 ], [ 461930.589774993888568, 190240.514695178542752 ], [ 461932.089774993888568, 190241.014695178542752 ], [ 461932.089774993888568, 190240.014695178542752 ], [ 461939.089774993888568, 190240.014695178542752 ], [ 461943.089774993888568, 190236.514695178542752 ], [ 461946.589774993888568, 190235.514695178542752 ], [ 461946.089774993888568, 190232.514695178542752 ], [ 461947.089774993888568, 190231.014695178542752 ], [ 461946.089774993888568, 190231.014695178542752 ], [ 461946.589774993888568, 190228.514695178542752 ], [ 461945.089774993888568, 190225.014695178542752 ], [ 461946.089774993888568, 190225.014695178542752 ], [ 461946.089774993888568, 190218.014695178542752 ], [ 461947.589774993888568, 190217.014695178542752 ], [ 461947.089774993888568, 190214.514695178542752 ], [ 461946.089774993888568, 190214.514695178542752 ], [ 461946.089774993888568, 190213.514695178542752 ], [ 461948.089774993888568, 190212.014695178542752 ], [ 461947.089774993888568, 190208.514695178542752 ], [ 461946.089774993888568, 190208.014695178542752 ], [ 461942.089774993888568, 190197.514695178542752 ], [ 461941.089774993888568, 190197.014695178542752 ], [ 461937.089774993888568, 190186.514695178542752 ], [ 461936.089774993888568, 190186.014695178542752 ], [ 461929.589774993888568, 190169.014695178542752 ], [ 461928.589774993888568, 190167.514695178542752 ], [ 461926.589774993888568, 190167.514695178542752 ], [ 461926.589774993888568, 190162.514695178542752 ], [ 461925.589774993888568, 190161.514695178542752 ], [ 461923.589774993888568, 190161.514695178542752 ], [ 461923.589774993888568, 190156.014695178542752 ], [ 461918.589774993888568, 190151.514695178542752 ], [ 461917.589774993888568, 190149.014695178542752 ], [ 461913.589774993888568, 190146.014695178542752 ], [ 461911.589774993888568, 190146.014695178542752 ], [ 461911.089774993888568, 190144.014695178542752 ], [ 461910.089774993888568, 190143.014695178542752 ], [ 461908.089774993888568, 190143.014695178542752 ], [ 461907.089774993888568, 190141.014695178542752 ], [ 461902.589774993888568, 190141.014695178542752 ], [ 461902.089774993888568, 190143.514695178542752 ], [ 461899.089774993888568, 190144.014695178542752 ], [ 461902.089774993888568, 190148.014695178542752 ], [ 461900.089774993888568, 190151.014695178542752 ], [ 461898.089774993888568, 190151.014695178542752 ], [ 461897.089774993888568, 190152.514695178542752 ], [ 461895.089774993888568, 190151.014695178542752 ], [ 461895.089774993888568, 190150.014695178542752 ], [ 461894.089774993888568, 190150.014695178542752 ], [ 461894.089774993888568, 190149.014695178542752 ], [ 461893.089774993888568, 190149.014695178542752 ], [ 461889.089774993888568, 190143.514695178542752 ], [ 461886.589774993888568, 190144.014695178542752 ], [ 461886.589774993888568, 190143.014695178542752 ], [ 461884.589774993888568, 190143.014695178542752 ], [ 461884.589774993888568, 190144.014695178542752 ], [ 461881.589774993888568, 190144.014695178542752 ], [ 461879.589774993888568, 190145.514695178542752 ], [ 461879.589774993888568, 190151.514695178542752 ], [ 461880.589774993888568, 190152.014695178542752 ], [ 461880.589774993888568, 190155.014695178542752 ], [ 461878.589774993888568, 190157.514695178542752 ], [ 461876.089774993888568, 190157.514695178542752 ], [ 461874.589774993888568, 190156.014695178542752 ], [ 461874.589774993888568, 190153.014695178542752 ], [ 461873.089774993888568, 190152.014695178542752 ], [ 461874.089774993888568, 190150.514695178542752 ], [ 461871.589774993888568, 190147.014695178542752 ], [ 461870.589774993888568, 190147.014695178542752 ], [ 461871.089774993888568, 190145.014695178542752 ], [ 461869.089774993888568, 190143.014695178542752 ], [ 461864.589774993888568, 190145.514695178542752 ], [ 461864.089774993888568, 190149.014695178542752 ], [ 461863.089774993888568, 190149.014695178542752 ], [ 461862.589774993888568, 190151.014695178542752 ], [ 461863.089774993888568, 190154.014695178542752 ], [ 461864.089774993888568, 190154.014695178542752 ], [ 461863.589774993888568, 190156.014695178542752 ], [ 461865.589774993888568, 190163.514695178542752 ], [ 461868.089774993888568, 190166.014695178542752 ], [ 461867.089774993888568, 190168.014695178542752 ], [ 461868.589774993888568, 190173.514695178542752 ], [ 461871.589774993888568, 190173.514695178542752 ], [ 461870.589774993888568, 190177.514695178542752 ], [ 461871.589774993888568, 190177.514695178542752 ], [ 461871.589774993888568, 190178.514695178542752 ], [ 461873.589774993888568, 190178.514695178542752 ], [ 461874.089774993888568, 190177.514695178542752 ], [ 461879.589774993888568, 190183.014695178542752 ], [ 461882.589774993888568, 190190.514695178542752 ], [ 461884.589774993888568, 190193.014695178542752 ], [ 461884.589774993888568, 190197.014695178542752 ], [ 461885.589774993888568, 190197.014695178542752 ], [ 461887.089774993888568, 190201.014695178542752 ], [ 461889.089774993888568, 190202.514695178542752 ], [ 461888.589774993888568, 190204.514695178542752 ], [ 461881.589774993888568, 190204.514695178542752 ], [ 461881.589774993888568, 190206.514695178542752 ], [ 461883.089774993888568, 190207.514695178542752 ], [ 461879.089774993888568, 190208.014695178542752 ], [ 461880.089774993888568, 190209.014695178542752 ], [ 461879.589774993888568, 190211.514695178542752 ], [ 461883.589774993888568, 190211.514695178542752 ], [ 461884.589774993888568, 190210.014695178542752 ], [ 461886.589774993888568, 190211.014695178542752 ], [ 461890.089774993888568, 190211.014695178542752 ], [ 461890.589774993888568, 190212.014695178542752 ], [ 461889.089774993888568, 190213.014695178542752 ], [ 461889.589774993888568, 190214.014695178542752 ], [ 461888.089774993888568, 190216.014695178542752 ], [ 461891.089774993888568, 190216.514695178542752 ], [ 461892.589774993888568, 190215.514695178542752 ], [ 461894.089774993888568, 190217.514695178542752 ], [ 461892.089774993888568, 190218.514695178542752 ], [ 461892.089774993888568, 190219.514695178542752 ], [ 461887.589774993888568, 190221.514695178542752 ], [ 461873.589774993888568, 190222.514695178542752 ], [ 461868.089774993888568, 190224.014695178542752 ], [ 461858.089774993888568, 190225.014695178542752 ], [ 461857.089774993888568, 190221.514695178542752 ], [ 461859.589774993888568, 190221.014695178542752 ], [ 461859.089774993888568, 190219.514695178542752 ], [ 461860.589774993888568, 190218.014695178542752 ], [ 461859.089774993888568, 190217.014695178542752 ], [ 461858.089774993888568, 190213.514695178542752 ], [ 461855.089774993888568, 190213.514695178542752 ], [ 461854.089774993888568, 190216.514695178542752 ], [ 461856.589774993888568, 190216.514695178542752 ], [ 461858.089774993888568, 190217.514695178542752 ], [ 461858.089774993888568, 190219.514695178542752 ], [ 461855.089774993888568, 190219.514695178542752 ], [ 461854.089774993888568, 190220.514695178542752 ], [ 461855.089774993888568, 190224.014695178542752 ], [ 461856.089774993888568, 190224.014695178542752 ], [ 461855.589774993888568, 190225.014695178542752 ], [ 461807.589774993888568, 190230.514695178542752 ], [ 461823.589774993888568, 190231.014695178542752 ], [ 461827.089774993888568, 190234.014695178542752 ], [ 461828.589774993888568, 190234.014695178542752 ], [ 461835.589774993888568, 190232.014695178542752 ], [ 461855.589774993888568, 190230.014695178542752 ], [ 461858.089774993888568, 190229.014695178542752 ], [ 461874.589774993888568, 190229.014695178542752 ], [ 461873.589774993888568, 190231.514695178542752 ], [ 461875.089774993888568, 190232.014695178542752 ], [ 461876.089774993888568, 190231.014695178542752 ], [ 461875.589774993888568, 190229.014695178542752 ], [ 461879.589774993888568, 190229.014695178542752 ], [ 461880.089774993888568, 190230.014695178542752 ], [ 461879.089774993888568, 190231.014695178542752 ], [ 461880.089774993888568, 190231.514695178542752 ], [ 461881.089774993888568, 190234.514695178542752 ], [ 461878.089774993888568, 190235.014695178542752 ], [ 461877.589774993888568, 190237.014695178542752 ], [ 461879.589774993888568, 190240.014695178542752 ], [ 461880.589774993888568, 190240.014695178542752 ], [ 461880.589774993888568, 190242.014695178542752 ], [ 461882.589774993888568, 190243.014695178542752 ], [ 461882.089774993888568, 190246.014695178542752 ], [ 461885.089774993888568, 190247.514695178542752 ] ], [ [ 461894.089774993888568, 190234.514695178542752 ], [ 461893.089774993888568, 190232.014695178542752 ], [ 461894.089774993888568, 190231.514695178542752 ], [ 461898.089774993888568, 190233.014695178542752 ], [ 461897.089774993888568, 190234.514695178542752 ], [ 461894.089774993888568, 190234.514695178542752 ] ], [ [ 461886.589774993888568, 190233.514695178542752 ], [ 461885.589774993888568, 190232.014695178542752 ], [ 461883.089774993888568, 190233.014695178542752 ], [ 461881.589774993888568, 190231.514695178542752 ], [ 461882.589774993888568, 190231.014695178542752 ], [ 461883.089774993888568, 190229.014695178542752 ], [ 461884.589774993888568, 190229.014695178542752 ], [ 461884.589774993888568, 190230.014695178542752 ], [ 461888.589774993888568, 190230.014695178542752 ], [ 461887.589774993888568, 190231.014695178542752 ], [ 461887.589774993888568, 190233.014695178542752 ], [ 461886.589774993888568, 190233.514695178542752 ] ], [ [ 461870.089774993888568, 190167.014695178542752 ], [ 461869.089774993888568, 190164.514695178542752 ], [ 461869.589774993888568, 190162.514695178542752 ], [ 461871.089774993888568, 190162.014695178542752 ], [ 461871.589774993888568, 190165.514695178542752 ], [ 461870.089774993888568, 190167.014695178542752 ] ] ] } },
{ "type": "Feature", "properties": { "mainhabs": "Good quality semi improved grassland", "habcodes": "GQSIG", "featdesc": null, "featcodes": null, "otherclass": null, "addhabs": null, "primsource": "Feedback from Natural England adviser or specialist 2023 (GQSIG)", "areaha": "0.63", "version": "Sep_25", "uid": "PHID46166897_019005795", "shape_length": null, "shape_area": null, "site": "hrwallingford", "pid": 2, "method": "sam2" }, "geometry": { "type": "MultiPolygon", "coordinates": [ [ [ [ 461671.089774993888568, 190112.014695178542752 ], [ 461678.089774993888568, 190110.014695178542752 ], [ 461680.589774993888568, 190107.514695178542752 ], [ 461683.089774993888568, 190107.514695178542752 ], [ 461686.589774993888568, 190106.014695178542752 ], [ 461692.089774993888568, 190102.014695178542752 ], [ 461696.589774993888568, 190102.014695178542752 ], [ 461699.089774993888568, 190100.014695178542752 ], [ 461701.589774993888568, 190100.014695178542752 ], [ 461703.589774993888568, 190098.014695178542752 ], [ 461707.589774993888568, 190096.514695178542752 ], [ 461707.589774993888568, 190095.514695178542752 ], [ 461711.589774993888568, 190095.514695178542752 ], [ 461715.089774993888568, 190092.514695178542752 ], [ 461717.089774993888568, 190092.514695178542752 ], [ 461718.089774993888568, 190093.514695178542752 ], [ 461719.089774993888568, 190092.014695178542752 ], [ 461722.089774993888568, 190092.014695178542752 ], [ 461723.089774993888568, 190090.514695178542752 ], [ 461728.089774993888568, 190089.514695178542752 ], [ 461729.089774993888568, 190087.514695178542752 ], [ 461731.089774993888568, 190087.514695178542752 ], [ 461732.589774993888568, 190086.014695178542752 ], [ 461732.089774993888568, 190084.514695178542752 ], [ 461731.089774993888568, 190084.514695178542752 ], [ 461730.589774993888568, 190086.014695178542752 ], [ 461729.589774993888568, 190083.514695178542752 ], [ 461729.089774993888568, 190079.014695178542752 ], [ 461727.089774993888568, 190074.014695178542752 ], [ 461726.089774993888568, 190068.014695178542752 ], [ 461725.089774993888568, 190067.014695178542752 ], [ 461724.089774993888568, 190061.014695178542752 ], [ 461723.089774993888568, 190060.014695178542752 ], [ 461722.089774993888568, 190053.514695178542752 ], [ 461721.089774993888568, 190052.514695178542752 ], [ 461720.089774993888568, 190046.514695178542752 ], [ 461718.589774993888568, 190044.514695178542752 ], [ 461717.589774993888568, 190038.514695178542752 ], [ 461714.589774993888568, 190031.014695178542752 ], [ 461714.589774993888568, 190027.014695178542752 ], [ 461719.589774993888568, 190016.514695178542752 ], [ 461718.089774993888568, 190013.514695178542752 ], [ 461717.089774993888568, 190014.514695178542752 ], [ 461713.089774993888568, 190014.014695178542752 ], [ 461711.589774993888568, 190015.514695178542752 ], [ 461710.589774993888568, 190019.014695178542752 ], [ 461709.589774993888568, 190019.014695178542752 ], [ 461709.589774993888568, 190018.014695178542752 ], [ 461706.589774993888568, 190018.014695178542752 ], [ 461703.589774993888568, 190021.014695178542752 ], [ 461700.589774993888568, 190022.014695178542752 ], [ 461700.589774993888568, 190023.014695178542752 ], [ 461698.589774993888568, 190023.014695178542752 ], [ 461694.589774993888568, 190026.014695178542752 ], [ 461693.089774993888568, 190026.014695178542752 ], [ 461693.089774993888568, 190027.014695178542752 ], [ 461691.089774993888568, 190027.014695178542752 ], [ 461691.089774993888568, 190028.014695178542752 ], [ 461688.089774993888568, 190029.014695178542752 ], [ 461685.589774993888568, 190032.014695178542752 ], [ 461681.089774993888568, 190033.014695178542752 ], [ 461681.089774993888568, 190034.014695178542752 ], [ 461680.089774993888568, 190034.014695178542752 ], [ 461678.089774993888568, 190036.514695178542752 ], [ 461673.589774993888568, 190037.514695178542752 ], [ 461673.589774993888568, 190036.514695178542752 ], [ 461671.089774993888568, 190035.514695178542752 ], [ 461671.589774993888568, 190034.014695178542752 ], [ 461670.089774993888568, 190033.014695178542752 ], [ 461670.089774993888568, 190031.014695178542752 ], [ 461667.589774993888568, 190028.014695178542752 ], [ 461666.589774993888568, 190025.014695178542752 ], [ 461665.589774993888568, 190025.014695178542752 ], [ 461665.589774993888568, 190023.014695178542752 ], [ 461663.589774993888568, 190022.014695178542752 ], [ 461663.589774993888568, 190020.014695178542752 ], [ 461661.589774993888568, 190020.014695178542752 ], [ 461660.589774993888568, 190017.014695178542752 ], [ 461658.589774993888568, 190015.514695178542752 ], [ 461658.589774993888568, 190013.514695178542752 ], [ 461657.089774993888568, 190012.014695178542752 ], [ 461653.089774993888568, 190011.514695178542752 ], [ 461652.089774993888568, 190010.014695178542752 ], [ 461650.089774993888568, 190010.514695178542752 ], [ 461650.089774993888568, 190011.514695178542752 ], [ 461649.089774993888568, 190011.514695178542752 ], [ 461649.089774993888568, 190015.014695178542752 ], [ 461650.589774993888568, 190018.014695178542752 ], [ 461652.089774993888568, 190019.014695178542752 ], [ 461653.589774993888568, 190023.014695178542752 ], [ 461656.589774993888568, 190025.014695178542752 ], [ 461657.589774993888568, 190029.014695178542752 ], [ 461658.589774993888568, 190029.514695178542752 ], [ 461661.589774993888568, 190037.014695178542752 ], [ 461665.589774993888568, 190040.514695178542752 ], [ 461664.589774993888568, 190041.014695178542752 ], [ 461664.589774993888568, 190043.514695178542752 ], [ 461662.089774993888568, 190045.514695178542752 ], [ 461659.589774993888568, 190045.514695178542752 ], [ 461659.589774993888568, 190046.514695178542752 ], [ 461657.589774993888568, 190046.514695178542752 ], [ 461656.089774993888568, 190048.514695178542752 ], [ 461652.589774993888568, 190048.514695178542752 ], [ 461652.089774993888568, 190050.514695178542752 ], [ 461651.089774993888568, 190050.514695178542752 ], [ 461650.089774993888568, 190052.514695178542752 ], [ 461648.089774993888568, 190052.514695178542752 ], [ 461648.089774993888568, 190053.514695178542752 ], [ 461645.089774993888568, 190054.514695178542752 ], [ 461644.589774993888568, 190056.014695178542752 ], [ 461642.589774993888568, 190056.014695178542752 ], [ 461640.589774993888568, 190058.014695178542752 ], [ 461637.589774993888568, 190058.014695178542752 ], [ 461637.089774993888568, 190059.014695178542752 ], [ 461634.589774993888568, 190056.514695178542752 ], [ 461634.589774993888568, 190054.014695178542752 ], [ 461631.589774993888568, 190051.514695178542752 ], [ 461631.589774993888568, 190048.514695178542752 ], [ 461629.589774993888568, 190047.014695178542752 ], [ 461630.589774993888568, 190044.014695178542752 ], [ 461629.589774993888568, 190043.514695178542752 ], [ 461629.589774993888568, 190044.514695178542752 ], [ 461628.089774993888568, 190044.514695178542752 ], [ 461626.589774993888568, 190043.014695178542752 ], [ 461626.589774993888568, 190041.514695178542752 ], [ 461625.589774993888568, 190041.514695178542752 ], [ 461625.089774993888568, 190039.514695178542752 ], [ 461621.589774993888568, 190040.014695178542752 ], [ 461620.589774993888568, 190044.514695178542752 ], [ 461620.589774993888568, 190054.514695178542752 ], [ 461618.589774993888568, 190058.014695178542752 ], [ 461621.589774993888568, 190065.014695178542752 ], [ 461622.589774993888568, 190065.514695178542752 ], [ 461623.589774993888568, 190070.014695178542752 ], [ 461625.589774993888568, 190071.514695178542752 ], [ 461629.089774993888568, 190071.014695178542752 ], [ 461630.589774993888568, 190072.514695178542752 ], [ 461631.589774993888568, 190074.014695178542752 ], [ 461631.089774993888568, 190076.014695178542752 ], [ 461633.589774993888568, 190079.014695178542752 ], [ 461633.589774993888568, 190081.014695178542752 ], [ 461635.589774993888568, 190084.014695178542752 ], [ 461640.589774993888568, 190082.514695178542752 ], [ 461645.089774993888568, 190077.514695178542752 ], [ 461649.089774993888568, 190078.514695178542752 ], [ 461649.589774993888568, 190077.514695178542752 ], [ 461652.089774993888568, 190077.514695178542752 ], [ 461654.089774993888568, 190076.014695178542752 ], [ 461660.589774993888568, 190089.514695178542752 ], [ 461662.589774993888568, 190096.514695178542752 ], [ 461663.589774993888568, 190096.514695178542752 ], [ 461663.589774993888568, 190099.014695178542752 ], [ 461664.589774993888568, 190100.014695178542752 ], [ 461665.589774993888568, 190105.014695178542752 ], [ 461668.089774993888568, 190109.014695178542752 ], [ 461668.089774993888568, 190111.014695178542752 ], [ 461671.089774993888568, 190112.014695178542752 ] ] ], [ [ [ 461672.589774993888568, 190018.514695178542752 ], [ 461673.089774993888568, 190017.514695178542752 ], [ 461671.089774993888568, 190016.514695178542752 ], [ 461671.589774993888568, 190014.014695178542752 ], [ 461672.589774993888568, 190014.014695178542752 ], [ 461671.589774993888568, 190011.014695178542752 ], [ 461669.589774993888568, 190009.514695178542752 ], [ 461669.589774993888568, 190008.014695178542752 ], [ 461667.589774993888568, 190007.014695178542752 ], [ 461667.589774993888568, 190005.514695178542752 ], [ 461664.589774993888568, 190004.514695178542752 ], [ 461664.589774993888568, 190003.514695178542752 ], [ 461662.089774993888568, 190002.014695178542752 ], [ 461661.089774993888568, 190003.514695178542752 ], [ 461661.589774993888568, 190006.014695178542752 ], [ 461664.089774993888568, 190008.014695178542752 ], [ 461663.589774993888568, 190010.014695178542752 ], [ 461665.589774993888568, 190010.514695178542752 ], [ 461665.589774993888568, 190012.514695178542752 ], [ 461666.589774993888568, 190012.514695178542752 ], [ 461667.589774993888568, 190015.014695178542752 ], [ 461668.589774993888568, 190015.014695178542752 ], [ 461669.589774993888568, 190018.014695178542752 ], [ 461672.589774993888568, 190018.514695178542752 ] ] ] ] } },
{ "type": "Feature", "properties": { "mainhabs": "Good quality semi improved grassland", "habcodes": "GQSIG", "featdesc": null, "featcodes": null, "otherclass": null, "addhabs": null, "primsource": "Feedback from Natural England adviser or specialist 2023 (GQSIG)", "areaha": "0.52", "version": "Sep_25", "uid": "PHID46176536_019004125", "shape_length": null, "shape_area": null, "site": "hrwallingford", "pid": 3, "method": "sam2" }, "geometry": { "type": "Polygon", "coordinates": [ [ [ 461730.589774993888568, 190086.014695178542752 ], [ 461731.089774993888568, 190084.514695178542752 ], [ 461734.089774993888568, 190086.014695178542752 ], [ 461736.589774993888568, 190084.514695178542752 ], [ 461741.589774993888568, 190083.514695178542752 ], [ 461744.089774993888568, 190081.514695178542752 ], [ 461745.589774993888568, 190081.514695178542752 ], [ 461747.589774993888568, 190079.014695178542752 ], [ 461750.089774993888568, 190079.514695178542752 ], [ 461750.589774993888568, 190078.514695178542752 ], [ 461754.089774993888568, 190078.514695178542752 ], [ 461755.089774993888568, 190076.014695178542752 ], [ 461759.589774993888568, 190076.014695178542752 ], [ 461761.089774993888568, 190074.014695178542752 ], [ 461765.589774993888568, 190072.514695178542752 ], [ 461768.089774993888568, 190070.514695178542752 ], [ 461773.589774993888568, 190072.014695178542752 ], [ 461774.589774993888568, 190070.014695178542752 ], [ 461779.589774993888568, 190071.014695178542752 ], [ 461780.089774993888568, 190070.014695178542752 ], [ 461782.089774993888568, 190069.514695178542752 ], [ 461783.589774993888568, 190070.014695178542752 ], [ 461784.089774993888568, 190069.014695178542752 ], [ 461785.589774993888568, 190069.014695178542752 ], [ 461785.589774993888568, 190068.014695178542752 ], [ 461787.089774993888568, 190068.014695178542752 ], [ 461788.589774993888568, 190066.014695178542752 ], [ 461790.589774993888568, 190066.014695178542752 ], [ 461792.089774993888568, 190064.014695178542752 ], [ 461797.589774993888568, 190063.014695178542752 ], [ 461797.589774993888568, 190062.014695178542752 ], [ 461800.589774993888568, 190064.014695178542752 ], [ 461800.589774993888568, 190065.014695178542752 ], [ 461805.089774993888568, 190066.514695178542752 ], [ 461808.089774993888568, 190072.014695178542752 ], [ 461810.089774993888568, 190073.014695178542752 ], [ 461811.089774993888568, 190076.014695178542752 ], [ 461813.589774993888568, 190076.014695178542752 ], [ 461815.089774993888568, 190078.014695178542752 ], [ 461816.589774993888568, 190077.014695178542752 ], [ 461819.089774993888568, 190077.514695178542752 ], [ 461819.589774993888568, 190076.014695178542752 ], [ 461821.589774993888568, 190076.014695178542752 ], [ 461824.089774993888568, 190074.014695178542752 ], [ 461824.089774993888568, 190070.514695178542752 ], [ 461821.089774993888568, 190067.014695178542752 ], [ 461821.589774993888568, 190065.514695178542752 ], [ 461820.089774993888568, 190061.014695178542752 ], [ 461819.089774993888568, 190061.014695178542752 ], [ 461819.089774993888568, 190058.014695178542752 ], [ 461815.089774993888568, 190051.514695178542752 ], [ 461815.089774993888568, 190047.514695178542752 ], [ 461813.089774993888568, 190046.014695178542752 ], [ 461814.589774993888568, 190044.014695178542752 ], [ 461812.089774993888568, 190042.514695178542752 ], [ 461812.089774993888568, 190040.514695178542752 ], [ 461811.089774993888568, 190040.514695178542752 ], [ 461811.589774993888568, 190039.514695178542752 ], [ 461810.089774993888568, 190038.514695178542752 ], [ 461809.089774993888568, 190034.514695178542752 ], [ 461808.089774993888568, 190034.014695178542752 ], [ 461808.589774993888568, 190032.014695178542752 ], [ 461806.589774993888568, 190030.014695178542752 ], [ 461806.589774993888568, 190028.514695178542752 ], [ 461808.589774993888568, 190027.014695178542752 ], [ 461808.089774993888568, 190026.014695178542752 ], [ 461806.589774993888568, 190027.514695178542752 ], [ 461805.089774993888568, 190026.514695178542752 ], [ 461805.089774993888568, 190024.014695178542752 ], [ 461803.589774993888568, 190023.014695178542752 ], [ 461804.089774993888568, 190021.014695178542752 ], [ 461802.589774993888568, 190019.014695178542752 ], [ 461802.089774993888568, 190015.514695178542752 ], [ 461800.589774993888568, 190014.514695178542752 ], [ 461801.089774993888568, 190013.514695178542752 ], [ 461799.589774993888568, 190011.514695178542752 ], [ 461799.589774993888568, 190009.514695178542752 ], [ 461798.589774993888568, 190009.514695178542752 ], [ 461798.589774993888568, 190007.514695178542752 ], [ 461796.089774993888568, 190004.514695178542752 ], [ 461789.089774993888568, 190007.514695178542752 ], [ 461786.589774993888568, 190010.014695178542752 ], [ 461780.089774993888568, 190010.514695178542752 ], [ 461776.089774993888568, 190012.514695178542752 ], [ 461774.089774993888568, 190012.514695178542752 ], [ 461774.089774993888568, 190013.514695178542752 ], [ 461769.589774993888568, 190016.014695178542752 ], [ 461764.089774993888568, 190017.014695178542752 ], [ 461755.589774993888568, 190021.514695178542752 ], [ 461749.589774993888568, 190023.014695178542752 ], [ 461738.089774993888568, 190028.014695178542752 ], [ 461734.589774993888568, 190028.014695178542752 ], [ 461732.089774993888568, 190025.514695178542752 ], [ 461729.089774993888568, 190026.014695178542752 ], [ 461729.089774993888568, 190025.014695178542752 ], [ 461727.089774993888568, 190025.014695178542752 ], [ 461727.089774993888568, 190024.014695178542752 ], [ 461724.089774993888568, 190024.014695178542752 ], [ 461721.589774993888568, 190020.014695178542752 ], [ 461719.589774993888568, 190020.014695178542752 ], [ 461719.589774993888568, 190018.014695178542752 ], [ 461723.589774993888568, 190015.514695178542752 ], [ 461725.089774993888568, 190016.014695178542752 ], [ 461725.089774993888568, 190017.014695178542752 ], [ 461726.589774993888568, 190016.514695178542752 ], [ 461727.089774993888568, 190014.014695178542752 ], [ 461726.089774993888568, 190014.014695178542752 ], [ 461725.589774993888568, 190012.514695178542752 ], [ 461724.589774993888568, 190015.014695178542752 ], [ 461723.089774993888568, 190014.514695178542752 ], [ 461723.089774993888568, 190012.514695178542752 ], [ 461718.589774993888568, 190014.514695178542752 ], [ 461719.589774993888568, 190016.514695178542752 ], [ 461714.589774993888568, 190027.014695178542752 ], [ 461714.589774993888568, 190031.014695178542752 ], [ 461717.589774993888568, 190038.514695178542752 ], [ 461718.589774993888568, 190044.514695178542752 ], [ 461720.089774993888568, 190046.514695178542752 ], [ 461720.089774993888568, 190049.014695178542752 ], [ 461722.089774993888568, 190053.514695178542752 ], [ 461723.089774993888568, 190060.014695178542752 ], [ 461724.089774993888568, 190061.014695178542752 ], [ 461730.589774993888568, 190086.014695178542752 ] ] ] } }
]
}
